Facility Name,City,Country,IATA_Code,ICAO_Code,Lat,Lng,Alt(Feet),Hours__from UTC,TimeZone,Type
Barter Island LRRS Airport,Barter Island,United States,BTI,PABA,70.13400269,-143.5820007,2,-9.0,America/Anchorage,airport
Cape Lisburne LRRS Airport,Cape Lisburne,United States,LUR,PALU,68.87509918,-166.1100006,16,-9.0,America/Anchorage,airport
Point Lay LRRS Airport,Point Lay,United States,PIZ,PPIZ,69.73290253,-163.00500490000002,22,-9.0,America/Anchorage,airport
Hilo International Airport,Hilo,United States,ITO,PHTO,19.72139931,-155.04800419999998,38,-10.0,Pacific/Honolulu,airport
Orlando Executive Airport,Orlando,United States,ORL,KORL,28.5454998,-81.332901,113,-5.0,America/New_York,airport
Bettles Airport,Bettles,United States,BTT,PABT,66.91390228,-151.529007,647,-9.0,America/Anchorage,airport
Clear Airport,Clear Mews,United States,Z84,PACL,64.301201,-149.119995,552,-9.0,America/Anchorage,airport
Indian Mountain LRRS Airport,Indian Mountains,United States,UTO,PAIM,65.99279785,-153.7039948,1273,-9.0,America/Anchorage,airport
Fort Yukon Airport,Fort Yukon,United States,FYU,PFYU,66.57150269,-145.25,433,-9.0,America/Anchorage,airport
Sparrevohn LRRS Airport,Sparrevohn,United States,SVW,PASV,61.09740067,-155.5740051,1585,-9.0,America/Anchorage,airport
Bryant Army Heliport,Fort Richardson,United States,FRN,PAFR,61.26639938,-149.6529999,378,-9.0,America/Anchorage,airport
Tatalina LRRS Airport,Tatalina,United States,TLJ,PATL,62.89440155,-155.977005,964,-9.0,America/Anchorage,airport
Cape Romanzof LRRS Airport,Cape Romanzof,United States,CZF,PACZ,61.78030014,-166.03900149999998,464,-9.0,America/Anchorage,airport
Laurence G Hanscom Field,Bedford,United States,BED,KBED,42.47000122,-71.28900146,133,-5.0,America/New_York,airport
St Paul Island Airport,St. Paul Island,United States,SNP,PASN,57.16730118,-170.22000119999998,63,-9.0,America/Anchorage,airport
Cape Newenham LRRS Airport,Cape Newenham,United States,EHM,PAEH,58.64640045,-162.06300349999998,541,-9.0,America/Anchorage,airport
St George Airport,Point Barrow,United States,STG,PAPB,56.57830048,-169.6620026,125,-9.0,America/Anchorage,airport
Iliamna Airport,Iliamna,United States,ILI,PAIL,59.75439835,-154.9109955,192,-9.0,America/Anchorage,airport
Platinum Airport,Port Moller,United States,PTU,PAPM,59.01139832,-161.82000730000001,15,-9.0,America/Anchorage,airport
Big Mountain Airport,Big Mountain,United States,BMX,PABM,59.36119843,-155.25900269999997,663,-9.0,America/Anchorage,airport
Oscoda Wurtsmith Airport,Oscoda,United States,OSC,KOSC,44.45159912,-83.39409637,633,-5.0,America/New_York,airport
Marina Municipal Airport,Fort Ord,United States,OAR,KOAR,36.68190002,-121.762001,137,-8.0,America/Los_Angeles,airport
Sacramento Mather Airport,Sacramento,United States,MHR,KMHR,38.55390167,-121.29799650000001,98,-8.0,America/Los_Angeles,airport
Bicycle Lake Army Air Field,Fort Irwin,United States,BYS,KBYS,35.2804985,-116.6299973,2350,-8.0,America/Los_Angeles,airport
Twentynine Palms (Self) Airport,Twenty Nine Palms,United States,NXP,KNXP,34.2961998,-116.16200259999998,2051,-8.0,America/Los_Angeles,airport
Fort Smith Regional Airport,Fort Smith,United States,FSM,KFSM,35.33660126,-94.36740112,469,-6.0,America/Chicago,airport
Merrill Field,Anchorage,United States,MRI,PAMR,61.21350098,-149.84399409999997,137,-9.0,America/Anchorage,airport
Grants-Milan Municipal Airport,Grants,United States,GNT,KGNT,35.16730118,-107.90200039999999,6537,-7.0,America/Denver,airport
Ponca City Regional Airport,Ponca City,United States,PNC,KPNC,36.73199844,-97.09980011,1008,-6.0,America/Chicago,airport
Hunter Army Air Field,Hunter Aaf,United States,SVN,KSVN,32.00999832,-81.14569855,41,-5.0,America/New_York,airport
Grand Forks International Airport,Grand Forks,United States,GFK,KGFK,47.949298999999996,-97.176102,845,-6.0,America/Chicago,airport
Grider Field,Pine Bluff,United States,PBF,KPBF,34.17309952,-91.93560028,206,-6.0,America/Chicago,airport
Whiting Field Naval Air Station - North,Milton,United States,NSE,KNSE,30.724199300000002,-87.02189636,199,-6.0,America/Chicago,airport
Hana Airport,Hana,United States,HNM,PHHN,20.79560089,-156.01400759999999,78,-10.0,Pacific/Honolulu,airport
Ernest A. Love Field,Prescott,United States,PRC,KPRC,34.65449905,-112.41999820000001,5045,-7.0,America/Phoenix,airport
Trenton Mercer Airport,Trenton,United States,TTN,KTTN,40.27669907,-74.81349945,213,-5.0,America/New_York,airport
General Edward Lawrence Logan International Airport,Boston,United States,BOS,KBOS,42.36429977,-71.00520325,20,-5.0,America/New_York,airport
Travis Air Force Base,Fairfield,United States,SUU,KSUU,38.26269913,-121.927002,62,-8.0,America/Los_Angeles,airport
Griffiss International Airport,Rome,United States,RME,KRME,43.23379898,-75.40699768,504,-5.0,America/New_York,airport
Wendover Airport,Wendover,United States,ENV,KENV,40.71870041,-114.03099820000001,4237,-7.0,America/Denver,airport
Mobile Downtown Airport,Mobile,United States,BFM,KBFM,30.62680054,-88.06809998,26,-6.0,America/Chicago,airport
Metropolitan Oakland International Airport,Oakland,United States,OAK,KOAK,37.72129822,-122.2210007,9,-8.0,America/Los_Angeles,airport
Eppley Airfield,Omaha,United States,OMA,KOMA,41.30319977,-95.89409637,984,-6.0,America/Chicago,airport
Port Angeles Cgas Airport,Port Angeles,United States,NOW,KNOW,48.14149857,-123.41400149999998,13,-8.0,America/Los_Angeles,airport
Kahului Airport,Kahului,United States,OGG,PHOG,20.89859962,-156.42999269999999,54,-10.0,Pacific/Honolulu,airport
Wichita Mid Continent Airport,Wichita,United States,ICT,KICT,37.64989853,-97.43309784,1333,-6.0,America/Chicago,airport
Kansas City International Airport,Kansas City,United States,MCI,KMCI,39.2976,-94.713898,1026,-6.0,America/Chicago,airport
Dane County Regional Truax Field,Madison,United States,MSN,KMSN,43.13990021,-89.33750153,887,-6.0,America/Chicago,airport
Dillingham Airport,Dillingham,United States,DLG,PADL,59.04470062,-158.50500490000002,81,-9.0,America/Anchorage,airport
Boone County Airport,Harrison,United States,HRO,KHRO,36.26150131,-93.15470123,1365,-6.0,America/Chicago,airport
Phoenix Sky Harbor International Airport,Phoenix,United States,PHX,KPHX,33.43429947,-112.012001,1135,-7.0,America/Phoenix,airport
Bangor International Airport,Bangor,United States,BGR,KBGR,44.80739975,-68.82810211,192,-5.0,America/New_York,airport
Fort Lauderdale Executive Airport,Fort Lauderdale,United States,FXE,KFXE,26.19729996,-80.17070007,13,-5.0,America/New_York,airport
East Texas Regional Airport,Longview,United States,GGG,KGGG,32.38399887,-94.71150208,365,-6.0,America/Chicago,airport
Anderson Regional Airport,Andersen,United States,AND,KAND,34.49459839,-82.70939636,782,-5.0,America/New_York,airport
Spokane International Airport,Spokane,United States,GEG,KGEG,47.61989975,-117.5339966,2376,-8.0,America/Los_Angeles,airport
North Perry Airport,Hollywood,United States,HWO,KHWO,26.00119972,-80.24069977,8,-5.0,America/New_York,airport
San Francisco International Airport,San Francisco,United States,SFO,KSFO,37.61899948,-122.375,13,-8.0,America/Los_Angeles,airport
Cut Bank International Airport,Cutbank,United States,CTB,KCTB,48.60839844,-112.3759995,3854,-7.0,America/Denver,airport
Acadiana Regional Airport,Louisiana,United States,ARA,KARA,30.0378,-91.883904,24,-6.0,America/Chicago,airport
Gainesville Regional Airport,Gainesville,United States,GNV,KGNV,29.69009972,-82.27179718,152,-5.0,America/New_York,airport
Memphis International Airport,Memphis,United States,MEM,KMEM,35.04240036,-89.97669983,341,-6.0,America/Chicago,airport
Bisbee Douglas International Airport,Douglas,United States,DUG,KDUG,31.46899986,-109.6039963,4154,-7.0,America/Phoenix,airport
Allen Army Airfield,Delta Junction,United States,BIG,PABI,63.99449921,-145.7220001,1291,-9.0,America/Anchorage,airport
TSTC Waco Airport,Waco,United States,CNW,KCNW,31.63780022,-97.07409668,470,-6.0,America/Chicago,airport
Annette Island Airport,Annette Island,United States,ANN,PANT,55.04240036,-131.5720062,119,-9.0,America/Anchorage,airport
Caribou Municipal Airport,Caribou,United States,CAR,KCAR,46.87149811,-68.01789856,626,-5.0,America/New_York,airport
Little Rock Air Force Base,Jacksonville,United States,LRF,KLRF,34.91690063,-92.14969635,311,-6.0,America/Chicago,airport
Redstone Army Air Field,Redstone,United States,HUA,KHUA,34.67869949,-86.68479919,684,-6.0,America/Chicago,airport
Pope Field,Fort Bragg,United States,POB,KPOB,35.17089844,-79.01450348,217,-5.0,America/New_York,airport
Dalhart Municipal Airport,Dalhart,United States,DHT,KDHT,36.02259827,-102.54699709999998,3991,-6.0,America/Chicago,airport
Laughlin Air Force Base,Del Rio,United States,DLF,KDLF,29.35950089,-100.77799990000001,1082,-6.0,America/Chicago,airport
Los Angeles International Airport,Los Angeles,United States,LAX,KLAX,33.94250107,-118.40799709999999,125,-8.0,America/Los_Angeles,airport
Anniston Metropolitan Airport,Anniston,United States,ANB,KANB,33.58819962,-85.85810089,612,-6.0,America/Chicago,airport
Cleveland Hopkins International Airport,Cleveland,United States,CLE,KCLE,41.4117012,-81.84980011,791,-5.0,America/New_York,airport
Dover Air Force Base,Dover,United States,DOV,KDOV,39.12950134,-75.46600342,24,-5.0,America/New_York,airport
Cincinnati Northern Kentucky International Airport,Cincinnati,United States,CVG,KCVG,39.04880142,-84.6678009,896,-5.0,America/New_York,airport
Tipton Airport,Fort Meade,United States,FME,KFME,39.08539963,-76.75939941,150,-5.0,America/New_York,airport
China Lake Naws (Armitage Field) Airport,China Lake,United States,NID,KNID,35.6853981,-117.6920013,2283,-8.0,America/Los_Angeles,airport
Huron Regional Airport,Huron,United States,HON,KHON,44.3852005,-98.22850037,1289,-6.0,America/Chicago,airport
Juneau International Airport,Juneau,United States,JNU,PAJN,58.35499954,-134.576004,21,-9.0,America/Anchorage,airport
Lafayette Regional Airport,Lafayette,United States,LFT,KLFT,30.20529938,-91.98760223,42,-6.0,America/Chicago,airport
Newark Liberty International Airport,Newark,United States,EWR,KEWR,40.69250107,-74.16870117,18,-5.0,America/New_York,airport
Boise Air Terminal/Gowen field,Boise,United States,BOI,KBOI,43.56439972,-116.22299960000001,2871,-7.0,America/Denver,airport
Creech Air Force Base,Indian Springs,United States,INS,KINS,36.58720016,-115.67299650000001,3133,-8.0,America/Los_Angeles,airport
Garden City Regional Airport,Garden City,United States,GCK,KGCK,37.92750168,-100.72399899999999,2891,-6.0,America/Chicago,airport
Minot International Airport,Minot,United States,MOT,KMOT,48.25939941,-101.2799988,1716,-6.0,America/Chicago,airport
Wheeler Army Airfield,Wahiawa,United States,HHI,PHHI,21.48349953,-158.03999330000002,837,-10.0,Pacific/Honolulu,airport
Maxwell Air Force Base,Montgomery,United States,MXF,KMXF,32.38290024,-86.36579895,171,-6.0,America/Chicago,airport
Robinson Army Air Field,Robinson,United States,,KRBM,34.85010147,-92.30020142,587,-6.0,America/Chicago,airport
Dallas Love Field,Dallas,United States,DAL,KDAL,32.8470993,-96.85179901,487,-6.0,America/Chicago,airport
Butts AAF (Fort Carson) Air Field,Fort Carson,United States,FCS,KFCS,38.67839813,-104.75700379999999,5838,-7.0,America/Denver,airport
Helena Regional Airport,Helena,United States,HLN,KHLN,46.60680008,-111.9830017,3877,-7.0,America/Denver,airport
Miramar Marine Corps Air Station - Mitscher Field,Miramar,United States,NKX,KNKX,32.86840057,-117.1429977,477,-8.0,America/Los_Angeles,airport
Luke Air Force Base,Phoenix,United States,LUF,KLUF,33.53499985,-112.38300320000002,1085,-7.0,America/Phoenix,airport
Hurlburt Field,Mary Esther,United States,,KHRT,30.42779922,-86.68930054,38,-6.0,America/Chicago,airport
Jack Northrop Field Hawthorne Municipal Airport,Hawthorne,United States,HHR,KHHR,33.922798,-118.334999,66,-8.0,America/Los_Angeles,airport
Houlton International Airport,Houlton,United States,HUL,KHUL,46.12310028,-67.792099,489,-5.0,America/New_York,airport
Vance Air Force Base,Enid,United States,END,KEND,36.33919907,-97.91649628,1307,-6.0,America/Chicago,airport
Point Mugu Naval Air Station (Naval Base Ventura Co),Point Mugu,United States,NTD,KNTD,34.12030029,-119.1210022,13,-8.0,America/Los_Angeles,airport
Edwards Air Force Base,Edwards Afb,United States,EDW,KEDW,34.905398999999996,-117.884003,2312,-8.0,America/Los_Angeles,airport
Lake Charles Regional Airport,Lake Charles,United States,LCH,KLCH,30.12610054,-93.22329712,15,-6.0,America/Chicago,airport
Kona International At Keahole Airport,Kona,United States,KOA,PHKO,19.73880005,-156.0460052,47,-10.0,Pacific/Honolulu,airport
Myrtle Beach International Airport,Myrtle Beach,United States,MYR,KMYR,33.67969894,-78.92829895,25,-5.0,America/New_York,airport
Lemoore Naval Air Station (Reeves Field) Airport,Lemoore,United States,NLC,KNLC,36.33300018,-119.95200349999999,232,-8.0,America/Los_Angeles,airport
Nantucket Memorial Airport,Nantucket,United States,ACK,KACK,41.25310135,-70.06020355,47,-5.0,America/New_York,airport
Felker Army Air Field,Fort Eustis,United States,FAF,KFAF,37.13249969,-76.60880279999999,12,-5.0,America/New_York,airport
Campbell AAF (Fort Campbell) Air Field,Hopkinsville,United States,HOP,KHOP,36.66859818,-87.49620056,573,-6.0,America/Chicago,airport
Ronald Reagan Washington National Airport,Washington,United States,DCA,KDCA,38.8521,-77.037697,15,-5.0,America/New_York,airport
Patuxent River Naval Air Station/Trapnell Field Aiport,Patuxent River,United States,NHK,KNHK,38.28599929999999,-76.41179657,39,-5.0,America/New_York,airport
Palacios Municipal Airport,Palacios,United States,PSX,KPSX,28.72750092,-96.25099945,14,-6.0,America/Chicago,airport
Arkansas International Airport,Blytheville,United States,BYH,KBYH,35.96429825,-89.94400024,254,-6.0,America/Chicago,airport
Atlantic City International Airport,Atlantic City,United States,ACY,KACY,39.45759964,-74.57720184,75,-5.0,America/New_York,airport
Tinker Air Force Base,Oklahoma City,United States,TIK,KTIK,35.41469955,-97.38659668,1291,-6.0,America/Chicago,airport
Pueblo Memorial Airport,Pueblo,United States,PUB,KPUB,38.28910065,-104.49700159999999,4726,-7.0,America/Denver,airport
Northern Maine Regional Airport at Presque Isle,Presque Isle,United States,PQI,KPQI,46.68899918,-68.0447998,534,-5.0,America/New_York,airport
Kirtland Air Force Base,Kirtland A.f.b.,United States,IKR,KIKR,35.040222,-106.60919399999999,5355,-7.0,America/Denver,airport
Gray Army Air Field,Fort Lewis,United States,GRF,KGRF,47.07920074,-122.5810013,300,-8.0,America/Los_Angeles,airport
Kodiak Airport,Kodiak,United States,ADQ,PADQ,57.75,-152.4940033,78,-9.0,America/Anchorage,airport
Upolu Airport,Opolu,United States,UPP,PHUP,20.26530075,-155.8600006,96,-10.0,Pacific/Honolulu,airport
Fort Lauderdale Hollywood International Airport,Fort Lauderdale,United States,FLL,KFLL,26.07259941,-80.15270233,9,-5.0,America/New_York,airport
Davis Field,Muskogee,United States,MKO,KMKO,35.65650177,-95.36669922,611,-6.0,America/Chicago,airport
Falls International Airport,International Falls,United States,INL,KINL,48.56620026,-93.40309906,1185,-6.0,America/Chicago,airport
Salt Lake City International Airport,Salt Lake City,United States,SLC,KSLC,40.78839874,-111.97799679999999,4227,-7.0,America/Denver,airport
Childress Municipal Airport,Childress,United States,CDS,KCDS,34.43379974,-100.288002,1954,-6.0,America/Chicago,airport
Keesler Air Force Base,Biloxi,United States,BIX,KBIX,30.41040039,-88.92440033,33,-6.0,America/Chicago,airport
Lawson Army Air Field (Fort Benning),Fort Benning,United States,LSF,KLSF,32.33729935,-84.99130249,232,-5.0,America/New_York,airport
Marshall Army Air Field,Fort Riley,United States,FRI,KFRI,39.05530167,-96.76450348,1065,-6.0,America/Chicago,airport
Harrisburg International Airport,Harrisburg,United States,MDT,KMDT,40.19350052,-76.76339722,310,-5.0,America/New_York,airport
Lincoln Airport,Lincoln,United States,LNK,KLNK,40.85100174,-96.75920105,1219,-6.0,America/Chicago,airport
Capital City Airport,Lansing,United States,LAN,KLAN,42.77870178,-84.58740234,861,-5.0,America/New_York,airport
Waimea Kohala Airport,Kamuela,United States,MUE,PHMU,20.00130081,-155.6679993,2671,-10.0,Pacific/Honolulu,airport
Massena International Richards Field,Massena,United States,MSS,KMSS,44.93579865,-74.84559631,215,-5.0,America/New_York,airport
Hickory Regional Airport,Hickory,United States,HKY,KHKY,35.74110031,-81.38950348,1190,-5.0,America/New_York,airport
Albert Whitted Airport,St. Petersburg,United States,SPG,KSPG,27.76510048,-82.6269989,7,-5.0,America/New_York,airport
Page Field,Fort Myers,United States,FMY,KFMY,26.58659935,-81.86329651,17,-5.0,America/New_York,airport
George Bush Intercontinental Houston Airport,Houston,United States,IAH,KIAH,29.984399800000002,-95.34140015,97,-6.0,America/Chicago,airport
Millinocket Municipal Airport,Millinocket,United States,MLT,KMLT,45.64780045,-68.68560028,408,-5.0,America/New_York,airport
Andrews Air Force Base,Camp Springs,United States,ADW,KADW,38.81079865,-76.86699677,280,-5.0,America/New_York,airport
Smith Reynolds Airport,Winston-salem,United States,INT,KINT,36.13370132,-80.22200012,969,-5.0,America/New_York,airport
Southern California Logistics Airport,Victorville,United States,VCV,KVCV,34.59749985,-117.38300320000002,2885,-8.0,America/Los_Angeles,airport
Bob Sikes Airport,Crestview,United States,CEW,KCEW,30.77879906,-86.52210236,213,-6.0,America/Chicago,airport
Wheeler Sack Army Air Field,Fort Drum,United States,GTB,KGTB,44.05559921,-75.71949768,688,-5.0,America/New_York,airport
St Clair County International Airport,Port Huron,United States,PHN,KPHN,42.91099929999999,-82.52890015,650,-5.0,America/New_York,airport
Meadows Field,Bakersfield,United States,BFL,KBFL,35.43360138,-119.0569992,510,-8.0,America/Los_Angeles,airport
El Paso International Airport,El Paso,United States,ELP,KELP,31.80719948,-106.37799840000002,3959,-7.0,America/Denver,airport
Valley International Airport,Harlingen,United States,HRL,KHRL,26.22850037,-97.65440369,36,-6.0,America/Chicago,airport
Columbia Metropolitan Airport,Columbia,United States,CAE,KCAE,33.93880081,-81.11949921,236,-5.0,America/New_York,airport
Davis Monthan Air Force Base,Tucson,United States,DMA,KDMA,32.16650009,-110.88300320000002,2704,-7.0,America/Phoenix,airport
Pensacola Naval Air Station/Forrest Sherman Field,Pensacola,United States,NPA,KNPA,30.35269928,-87.31860352,28,-6.0,America/Chicago,airport
Pensacola Regional Airport,Pensacola,United States,PNS,KPNS,30.47340012,-87.18659973,121,-6.0,America/Chicago,airport
Grand Forks Air Force Base,Red River,United States,RDR,KRDR,47.96110153,-97.40119934,913,-6.0,America/Chicago,airport
William P Hobby Airport,Houston,United States,HOU,KHOU,29.64539909,-95.27890015,46,-6.0,America/Chicago,airport
Buckley Air Force Base,Buckley,United States,BKF,KBKF,39.7016983,-104.7519989,5662,-7.0,America/Denver,airport
Northway Airport,Northway,United States,ORT,PAOR,62.96129989999999,-141.9290009,1715,-9.0,America/Anchorage,airport
Palmer Municipal Airport,Palmer,United States,PAQ,PAAQ,61.59489822,-149.0890045,242,-9.0,America/Anchorage,airport
Pittsburgh International Airport,Pittsburgh,United States,PIT,KPIT,40.49150085,-80.23290253,1203,-5.0,America/New_York,airport
Wiley Post Will Rogers Memorial Airport,Barrow,United States,BRW,PABR,71.285402,-156.766008,44,-9.0,America/Anchorage,airport
Ellington Airport,Houston,United States,EFD,KEFD,29.607299800000003,-95.15879822,32,-6.0,America/Chicago,airport
Whidbey Island Naval Air Station /Ault Field/ Airport,Whidbey Island,United States,NUW,KNUW,48.35179901,-122.65599820000001,47,-8.0,America/Los_Angeles,airport
Alice International Airport,Alice,United States,ALI,KALI,27.74090004,-98.02690125,178,-6.0,America/Chicago,airport
Moody Air Force Base,Valdosta,United States,VAD,KVAD,30.96780014,-83.19300079,233,-5.0,America/New_York,airport
Miami International Airport,Miami,United States,MIA,KMIA,25.79319954,-80.29060364,8,-5.0,America/New_York,airport
Seattle Tacoma International Airport,Seattle,United States,SEA,KSEA,47.44900131,-122.3089981,433,-8.0,America/Los_Angeles,airport
Lovell Field,Chattanooga,United States,CHA,KCHA,35.03530121,-85.20379639,683,-5.0,America/New_York,airport
Igor I Sikorsky Memorial Airport,Stratford,United States,BDR,KBDR,41.16350174,-73.12619781,9,-5.0,America/New_York,airport
Jackson-Medgar Wiley Evers International Airport,Jackson,United States,JAN,KJAN,32.31119919,-90.07589722,346,-6.0,America/Chicago,airport
Scholes International At Galveston Airport,Galveston,United States,GLS,KGLS,29.26530075,-94.86039734,6,-6.0,America/Chicago,airport
Long Beach /Daugherty Field/ Airport,Long Beach,United States,LGB,KLGB,33.81769943,-118.15200039999999,60,-8.0,America/Los_Angeles,airport
Dillingham Airfield,Dillingham,United States,HDH,PHDH,21.5795002,-158.1970062,14,-10.0,Pacific/Honolulu,airport
Williamsport Regional Airport,Williamsport,United States,IPT,KIPT,41.2417984,-76.9210968,529,-5.0,America/New_York,airport
Indianapolis International Airport,Indianapolis,United States,IND,KIND,39.7173,-86.294403,797,-5.0,America/New_York,airport
Whiteman Air Force Base,Knobnoster,United States,SZL,KSZL,38.730300899999996,-93.54789734,870,-6.0,America/Chicago,airport
Akron Fulton International Airport,Akron,United States,AKC,KAKR,41.03749847,-81.46690369,1067,-5.0,America/New_York,airport
GreenwoodâLeflore Airport,Greenwood,United States,GWO,KGWO,33.49430084,-90.08470154,162,-6.0,America/Chicago,airport
Westchester County Airport,White Plains,United States,HPN,KHPN,41.06700134,-73.70760345,439,-5.0,America/New_York,airport
Francis S Gabreski Airport,West Hampton Beach,United States,FOK,KFOK,40.84370041,-72.63179779,67,-5.0,America/New_York,airport
Jonesboro Municipal Airport,Jonesboro,United States,JBR,KJBR,35.83169937,-90.64640045,262,-6.0,America/Chicago,airport
Tonopah Test Range Airport,Tonopah,United States,,KTNX,37.79880142,-116.78099820000001,5549,-8.0,America/Los_Angeles,airport
Palm Beach County Park Airport,West Palm Beach,United States,LNA,KLNA,26.59300041,-80.08509827,14,-5.0,America/New_York,airport
North Island Naval Air Station-Halsey Field,San Diego,United States,NZY,KNZY,32.69919968,-117.2149963,26,-8.0,America/Los_Angeles,airport
Biggs Army Air Field (Fort Bliss),El Paso,United States,BIF,KBIF,31.84950066,-106.3799973,3946,-7.0,America/Denver,airport
Yuma MCAS/Yuma International Airport,Yuma,United States,YUM,KNYL,32.65660095,-114.6060028,213,-7.0,America/Phoenix,airport
Cavern City Air Terminal,Carlsbad,United States,CNM,KCNM,32.33750153,-104.2630005,3295,-7.0,America/Denver,airport
Duluth International Airport,Duluth,United States,DLH,KDLH,46.84209824,-92.19360352,1428,-6.0,America/Chicago,airport
Bethel Airport,Bethel,United States,BET,PABE,60.77980042,-161.8379974,126,-9.0,America/Anchorage,airport
Bowman Field,Louisville,United States,LOU,KLOU,38.22800064,-85.66369629,546,-5.0,America/New_York,airport
Sierra Vista Municipal Libby Army Air Field,Fort Huachuca,United States,FHU,KFHU,31.58849907,-110.34400179999999,4719,-7.0,America/Phoenix,airport
Lihue Airport,Lihue,United States,LIH,PHLI,21.97599983,-159.3390045,153,-10.0,Pacific/Honolulu,airport
Terre Haute International Hulman Field,Terre Haute,United States,HUF,KHUF,39.45149994,-87.30760193,589,-5.0,America/New_York,airport
Havre City County Airport,Havre,United States,HVR,KHVR,48.54299927,-109.762001,2591,-7.0,America/Denver,airport
Grant County International Airport,Grant County Airport,United States,MWH,KMWH,47.20769882,-119.3199997,1189,-8.0,America/Los_Angeles,airport
Edward F Knapp State Airport,Montpelier,United States,MPV,KMPV,44.20349884,-72.56230164,1166,-5.0,America/New_York,airport
San Nicolas Island Nolf Airport,San Nicolas Island,United States,,KNSI,33.2397995,-119.45800020000001,506,-8.0,America/Los_Angeles,airport
Richmond International Airport,Richmond,United States,RIC,KRIC,37.50519943,-77.31970215,167,-5.0,America/New_York,airport
Shreveport Regional Airport,Shreveport,United States,SHV,KSHV,32.44660187,-93.82559967,258,-6.0,America/Chicago,airport
Merle K (Mudhole) Smith Airport,Cordova,United States,CDV,PACV,60.49179839999999,-145.4779968,54,-9.0,America/Anchorage,airport
Norfolk International Airport,Norfolk,United States,ORF,KORF,36.89459991,-76.20120239,26,-5.0,America/New_York,airport
Southeast Texas Regional Airport,Beaumont,United States,BPT,KBPT,29.95079994,-94.02069855,15,-6.0,America/Chicago,airport
Savannah Hilton Head International Airport,Savannah,United States,SAV,KSAV,32.12760162,-81.20210266,50,-5.0,America/New_York,airport
Hill Air Force Base,Ogden,United States,HIF,KHIF,41.12403,-111.97308600000001,4789,-7.0,America/Denver,airport
Nome Airport,Nome,United States,OME,PAOM,64.5121994,-165.44500730000001,37,-9.0,America/Anchorage,airport
Scappoose Industrial Airpark,San Luis,United States,,KSPB,45.77099991,-122.86199950000001,58,-8.0,America/Los_Angeles,airport
St Petersburg Clearwater International Airport,St. Petersburg,United States,PIE,KPIE,27.91020012,-82.68740082,11,-5.0,America/New_York,airport
Menominee Marinette Twin County Airport,Macon,United States,MNM,KMNM,45.12670135,-87.63839722,625,-6.0,America/Chicago,airport
Lone Star Executive Airport,Conroe,United States,CXO,KCXO,30.35180092,-95.41449738,245,-6.0,America/Chicago,airport
Deadhorse Airport,Deadhorse,United States,SCC,PASC,70.19470215,-148.46499630000002,65,-9.0,America/Anchorage,airport
San Antonio International Airport,San Antonio,United States,SAT,KSAT,29.53370094,-98.46980286,809,-6.0,America/Chicago,airport
Greater Rochester International Airport,Rochester,United States,ROC,KROC,43.1189003,-77.67240143,559,-5.0,America/New_York,airport
Patrick Air Force Base,Coco Beach,United States,COF,KCOF,28.23489952,-80.61009979,8,-5.0,America/New_York,airport
Teterboro Airport,Teterboro,United States,TEB,KTEB,40.85010147,-74.06079865,9,-5.0,America/New_York,airport
Ellsworth Air Force Base,Rapid City,United States,RCA,KRCA,44.14500046,-103.1039963,3276,-7.0,America/Denver,airport
Raleigh Durham International Airport,Raleigh-durham,United States,RDU,KRDU,35.87760162,-78.78749847,435,-5.0,America/New_York,airport
James M Cox Dayton International Airport,Dayton,United States,DAY,KDAY,39.90240097,-84.2193985,1009,-5.0,America/New_York,airport
Kenai Municipal Airport,Kenai,United States,ENA,PAEN,60.57310104,-151.24499509999998,99,-9.0,America/Anchorage,airport
Mc Alester Regional Airport,Mcalester,United States,MLC,KMLC,34.88240051,-95.78350067,770,-6.0,America/Chicago,airport
Niagara Falls International Airport,Niagara Falls,United States,IAG,KIAG,43.1072998,-78.94619751,589,-5.0,America/New_York,airport
Coulter Field,Bryan,United States,CFD,KCFD,30.71570015,-96.33139801,367,-6.0,America/Chicago,airport
Wright Aaf (Fort Stewart)/Midcoast Regional Airport,Wright,United States,,KLHW,31.88909912,-81.56230164,45,-5.0,America/New_York,airport
Newport News Williamsburg International Airport,Newport News,United States,PHF,KPHF,37.13190079,-76.49299622,42,-5.0,America/New_York,airport
Esler Regional Airport,Alexandria,United States,ESF,KESF,31.39489937,-92.29579926,112,-6.0,America/Chicago,airport
Altus Air Force Base,Altus,United States,LTS,KLTS,34.667099,-99.26670074,1382,-6.0,America/Chicago,airport
Tucson International Airport,Tucson,United States,TUS,KTUS,32.11610031,-110.9410019,2643,-7.0,America/Phoenix,airport
Minot Air Force Base,Minot,United States,MIB,KMIB,48.41559982,-101.3580017,1667,-6.0,America/Chicago,airport
Beale Air Force Base,Marysville,United States,BAB,KBAB,39.13610077,-121.4369965,113,-8.0,America/Los_Angeles,airport
Greater Kankakee Airport,Kankakee,United States,IKK,KIKK,41.07139969,-87.84629822,630,-6.0,America/Chicago,airport
Seymour Johnson Air Force Base,Goldsboro,United States,GSB,KGSB,35.33940125,-77.96060181,109,-5.0,America/New_York,airport
Theodore Francis Green State Airport,Providence,United States,PVD,KPVD,41.73260117,-71.42040253,55,-5.0,America/New_York,airport
Salisbury Ocean City Wicomico Regional Airport,Salisbury,United States,SBY,KSBY,38.34049988,-75.51029968,52,-5.0,America/New_York,airport
Rancho Murieta Airport,Rancho Murieta,United States,RIU,KRIU,38.48680115,-121.10299679999999,141,-8.0,America/Los_Angeles,airport
Bob Hope Airport,Burbank,United States,BUR,KBUR,34.20069885,-118.35900120000001,778,-8.0,America/Los_Angeles,airport
Detroit Metropolitan Wayne County Airport,Detroit,United States,DTW,KDTW,42.21239853,-83.35340118,645,-5.0,America/New_York,airport
Tampa International Airport,Tampa,United States,TPA,KTPA,27.97550011,-82.53320313,26,-5.0,America/New_York,airport
Pembina Municipal Airport,Pembina,United States,PMB,KPMB,48.94250107,-97.24079895,795,-6.0,America/Chicago,airport
Polk Army Air Field,Fort Polk,United States,POE,KPOE,31.044799800000003,-93.1917038,330,-6.0,America/Chicago,airport
Eielson Air Force Base,Fairbanks,United States,EIL,PAEI,64.66570282,-147.102005,547,-9.0,America/Anchorage,airport
Range Regional Airport,Hibbing,United States,HIB,KHIB,47.38660049,-92.83899689,1354,-6.0,America/Chicago,airport
Angelina County Airport,Lufkin,United States,LFK,KLFK,31.23399925,-94.75,296,-6.0,America/Chicago,airport
Midland International Airport,Midland,United States,MAF,KMAF,31.94249916,-102.2020035,2871,-6.0,America/Chicago,airport
Austin Straubel International Airport,Green Bay,United States,GRB,KGRB,44.48509979,-88.12960052,695,-6.0,America/Chicago,airport
Ardmore Municipal Airport,Ardmore,United States,ADM,KADM,34.30301,-97.01963420000001,777,-6.0,America/Chicago,airport
Mc Guire Air Force Base,Wrightstown,United States,WRI,KWRI,40.01559829999999,-74.59169769,131,-5.0,America/New_York,airport
Cherry Point MCAS /Cunningham Field/,Cherry Point,United States,,KNKT,34.90090179,-76.88069916,29,-5.0,America/New_York,airport
Emanuel County Airport,Santa Barbara,United States,SBO,KSBO,32.60910034,-82.36990356,327,-5.0,America/New_York,airport
Augusta Regional At Bush Field,Bush Field,United States,AGS,KAGS,33.36989975,-81.96450043,144,-5.0,America/New_York,airport
Sloulin Field International Airport,Williston,United States,ISN,KISN,48.17789841,-103.6419983,1982,-6.0,America/Chicago,airport
Bill & Hillary Clinton National Airport/Adams Field,Little Rock,United States,LIT,KLIT,34.72940063,-92.22429657,262,-6.0,America/Chicago,airport
Stewart International Airport,Newburgh,United States,SWF,KSWF,41.504100799999996,-74.10479736,491,-5.0,America/New_York,airport
Baudette International Airport,Baudette,United States,BDE,KBDE,48.72840118,-94.61219788,1086,-6.0,America/Chicago,airport
Sacramento Executive Airport,Sacramento,United States,SAC,KSAC,38.51250076,-121.49299620000001,24,-8.0,America/Los_Angeles,airport
Homer Airport,Homer,United States,HOM,PAHO,59.64559937,-151.477005,84,-9.0,America/Anchorage,airport
Waynesville-St. Robert Regional Forney field,Fort Leonardwood,United States,TBN,KTBN,37.74160004,-92.14070129,1159,-6.0,America/Chicago,airport
Dobbins Air Reserve Base,Marietta,United States,MGE,KMGE,33.91540146,-84.51629639,1068,-5.0,America/New_York,airport
Fairchild Air Force Base,Spokane,United States,SKA,KSKA,47.61510086,-117.65599820000001,2461,-8.0,America/Los_Angeles,airport
Roscommon County - Blodgett Memorial Airport,Houghton Lake,United States,HTL,KHTL,44.359798,-84.671095,1150,-5.0,America/New_York,airport
Tyndall Air Force Base,Panama City,United States,PAM,KPAM,30.06959915,-85.57540131,17,-6.0,America/Chicago,airport
Dallas Fort Worth International Airport,Dallas-Fort Worth,United States,DFW,KDFW,32.89680099,-97.03800201,607,-6.0,America/Chicago,airport
Melbourne International Airport,Melbourne,United States,MLB,KMLB,28.10280037,-80.64530182,33,-5.0,America/New_York,airport
McChord Air Force Base,Tacoma,United States,TCM,KTCM,47.13769913,-122.47599790000001,322,-8.0,America/Los_Angeles,airport
Austin Bergstrom International Airport,Austin,United States,AUS,KAUS,30.19449997,-97.66989899,542,-6.0,America/Chicago,airport
Rickenbacker International Airport,Columbus,United States,LCK,KLCK,39.813801,-82.927803,744,-5.0,America/New_York,airport
Sawyer International Airport,Gwinn,United States,MQT,KSAW,46.35359955,-87.395401,1221,-5.0,America/New_York,airport
McGhee Tyson Airport,Knoxville,United States,TYS,KTYS,35.81100082,-83.99400329999999,981,-5.0,America/New_York,airport
Hood Army Air Field,Fort Hood,United States,HLR,KHLR,31.13870049,-97.71450043,924,-6.0,America/Chicago,airport
Lambert St Louis International Airport,St. Louis,United States,STL,KSTL,38.74869919,-90.37000275,618,-6.0,America/Chicago,airport
Millville Municipal Airport,Millville,United States,MIV,KMIV,39.36780167,-75.07219696,85,-5.0,America/New_York,airport
Sheppard Air Force Base-Wichita Falls Municipal Airport,Wichita Falls,United States,SPS,KSPS,33.98880005,-98.49189758,1019,-6.0,America/Chicago,airport
Cincinnati Municipal Airport Lunken Field,Cincinnati,United States,LUK,KLUK,39.10329819,-84.41860199,483,-5.0,America/New_York,airport
Hartsfield Jackson Atlanta International Airport,Atlanta,United States,ATL,KATL,33.63669968,-84.42810059,1026,-5.0,America/New_York,airport
Castle Airport,Merced,United States,MER,KMER,37.38050079,-120.5680008,191,-8.0,America/Los_Angeles,airport
Mc Clellan Airfield,Sacramento,United States,MCC,KMCC,38.66759872,-121.40100100000001,77,-8.0,America/Los_Angeles,airport
Gerald R. Ford International Airport,Grand Rapids,United States,GRR,KGRR,42.88079834,-85.52279663,794,-5.0,America/New_York,airport
Winkler County Airport,Wink,United States,INK,KINK,31.77960014,-103.20099640000001,2822,-6.0,America/Chicago,airport
Fresno Yosemite International Airport,Fresno,United States,FAT,KFAT,36.77619934,-119.71800230000001,336,-8.0,America/Los_Angeles,airport
Vero Beach Municipal Airport,Vero Beach,United States,VRB,KVRB,27.65559959,-80.41790009,24,-5.0,America/New_York,airport
Imperial County Airport,Imperial,United States,IPL,KIPL,32.83420181,-115.5790024,-54,-8.0,America/Los_Angeles,airport
Nashville International Airport,Nashville,United States,BNA,KBNA,36.12450027,-86.67819977,599,-6.0,America/Chicago,airport
Laredo International Airport,Laredo,United States,LRD,KLRD,27.54380035,-99.46160126,508,-6.0,America/Chicago,airport
Elmendorf Air Force Base,Anchorage,United States,EDF,PAED,61.25099945,-149.8070068,212,-9.0,America/Anchorage,airport
Ralph Wien Memorial Airport,Kotzebue,United States,OTZ,PAOT,66.88469696,-162.598999,14,-9.0,America/Anchorage,airport
Altoona Blair County Airport,Altoona,United States,AOO,KAOO,40.29639816,-78.31999969,1503,-5.0,America/New_York,airport
Dyess Air Force Base,Abilene,United States,DYS,KDYS,32.42079926,-99.854599,1789,-6.0,America/Chicago,airport
South Arkansas Regional At Goodwin Field,El Dorado,United States,ELD,KELD,33.22100067,-92.81330109,277,-6.0,America/Chicago,airport
La Guardia Airport,New York,United States,LGA,KLGA,40.77719879,-73.87259674,21,-5.0,America/New_York,airport
Tallahassee Regional Airport,Tallahassee,United States,TLH,KTLH,30.39649963,-84.35030365,81,-5.0,America/New_York,airport
Dupage Airport,West Chicago,United States,DPA,KDPA,41.90779877,-88.24859619,759,-6.0,America/Chicago,airport
Waco Regional Airport,Waco,United States,ACT,KACT,31.61129951,-97.23049927,516,-6.0,America/Chicago,airport
Augusta State Airport,Augusta,United States,AUG,KAUG,44.320598600000004,-69.79730225,352,-5.0,America/New_York,airport
Hillsboro Municipal Airport,Hillsboro,United States,INJ,KINJ,32.08349991,-97.09719849,686,-6.0,America/Chicago,airport
Mc Kellar Sipes Regional Airport,Jackson,United States,MKL,KMKL,35.59989929,-88.91560364,434,-6.0,America/Chicago,airport
Molokai Airport,Molokai,United States,MKK,PHMK,21.1529007,-157.095993,454,-10.0,Pacific/Honolulu,airport
Godman Army Air Field,Fort Knox,United States,FTK,KFTK,37.90710068,-85.9720993,756,-5.0,America/New_York,airport
New River MCAS /H/ /Mccutcheon Fld/ Airport,Jacksonville,United States,,KNCA,34.70840073,-77.43969727,26,-5.0,America/New_York,airport
San Angelo Regional Mathis Field,San Angelo,United States,SJT,KSJT,31.35770035,-100.4960022,1919,-6.0,America/Chicago,airport
Calexico International Airport,Calexico,United States,CXL,KCXL,32.66949844,-115.51300049999999,4,-8.0,America/Los_Angeles,airport
Chico Municipal Airport,Chico,United States,CIC,KCIC,39.79539871,-121.8580017,240,-8.0,America/Los_Angeles,airport
Burlington International Airport,Burlington,United States,BTV,KBTV,44.47190094,-73.15329742,335,-5.0,America/New_York,airport
Jacksonville International Airport,Jacksonville,United States,JAX,KJAX,30.49410057,-81.68789673,30,-5.0,America/New_York,airport
Durango La Plata County Airport,Durango,United States,DRO,KDRO,37.15150070000001,-107.7539978,6685,-7.0,America/Denver,airport
Washington Dulles International Airport,Washington,United States,IAD,KIAD,38.94449997,-77.45580292,312,-5.0,America/New_York,airport
Easterwood Field,College Station,United States,CLL,KCLL,30.58860016,-96.36380005,320,-6.0,America/Chicago,airport
Felts Field,Spokane,United States,SFF,KSFF,47.68280029,-117.322998,1953,-8.0,America/Los_Angeles,airport
General Mitchell International Airport,Milwaukee,United States,MKE,KMKE,42.94720078,-87.89659882,723,-6.0,America/Chicago,airport
Abilene Regional Airport,Abilene,United States,ABI,KABI,32.41130066,-99.68190002,1791,-6.0,America/Chicago,airport
Columbia Regional Airport,Columbia,United States,COU,KCOU,38.81809998,-92.21959686,889,-6.0,America/Chicago,airport
Portland International Airport,Portland,United States,PDX,KPDX,45.58869934,-122.59799960000001,31,-8.0,America/Los_Angeles,airport
Dade Collier Training and Transition Airport,Miami,United States,TNT,KTNT,25.86179924,-80.89700317,13,-5.0,America/New_York,airport
Palm Beach International Airport,West Palm Beach,United States,PBI,KPBI,26.68320084,-80.09559631,19,-5.0,America/New_York,airport
Fort Worth Meacham International Airport,Fort Worth,United States,FTW,KFTW,32.81980133,-97.36239624,710,-6.0,America/Chicago,airport
Ogdensburg International Airport,Ogdensburg,United States,OGS,KOGS,44.68190002,-75.46549988,297,-5.0,America/New_York,airport
Boeing Field King County International Airport,Seattle,United States,BFI,KBFI,47.52999878,-122.302002,21,-8.0,America/Los_Angeles,airport
Lackland Air Force Base,San Antonio,United States,SKF,KSKF,29.38419914,-98.58110046,691,-6.0,America/Chicago,airport
Honolulu International Airport,Honolulu,United States,HNL,PHNL,21.31870079,-157.9219971,13,-10.0,Pacific/Honolulu,airport
Des Moines International Airport,Des Moines,United States,DSM,KDSM,41.5340004,-93.6631012,958,-6.0,America/Chicago,airport
Coastal Carolina Regional Airport,New Bern,United States,EWN,KEWN,35.07300186,-77.04290009,18,-5.0,America/New_York,airport
San Diego International Airport,San Diego,United States,SAN,KSAN,32.73360062,-117.1900024,17,-8.0,America/Los_Angeles,airport
Monroe Regional Airport,Monroe,United States,MLU,KMLU,32.51089859,-92.03769684,79,-6.0,America/Chicago,airport
Shaw Air Force Base,Sumter,United States,SSC,KSSC,33.97269821,-80.47059631,241,-5.0,America/New_York,airport
Ontario International Airport,Ontario,United States,ONT,KONT,34.05599976,-117.60099790000001,944,-8.0,America/Los_Angeles,airport
Majors Airport,Greenvile,United States,GVT,KGVT,33.06779861,-96.06529999,535,-6.0,America/Chicago,airport
Roswell International Air Center Airport,Roswell,United States,ROW,KROW,33.30160141,-104.53099820000001,3671,-7.0,America/Denver,airport
Coleman A. Young Municipal Airport,Detroit,United States,DET,KDET,42.40919876,-83.00990295,626,-5.0,America/New_York,airport
Brownsville South Padre Island International Airport,Brownsville,United States,BRO,KBRO,25.90679932,-97.42590332,22,-6.0,America/Chicago,airport
Dothan Regional Airport,Dothan,United States,DHN,KDHN,31.32130051,-85.44960022,401,-6.0,America/Chicago,airport
Cape May County Airport,Wildwood,United States,WWD,KWWD,39.00849915,-74.90830231,23,-5.0,America/New_York,airport
Selfridge Angb Airport,Mount Clemens,United States,MTC,KMTC,42.60829926,-82.83550262,580,-5.0,America/New_York,airport
Four Corners Regional Airport,Farmington,United States,FMN,KFMN,36.74119949,-108.2300034,5506,-7.0,America/Denver,airport
Corpus Christi International Airport,Corpus Christi,United States,CRP,KCRP,27.77039909,-97.50119781,44,-6.0,America/Chicago,airport
Syracuse Hancock International Airport,Syracuse,United States,SYR,KSYR,43.11119843,-76.10630035,421,-5.0,America/New_York,airport
Naval Air Station Key West/Boca Chica Field,Key West,United States,NQX,KNQX,24.57579994,-81.68890381,6,-5.0,America/New_York,airport
Chicago Midway International Airport,Chicago,United States,MDW,KMDW,41.78599929999999,-87.75240326,620,-6.0,America/Chicago,airport
Norman Y. Mineta San Jose International Airport,San Jose,United States,SJC,KSJC,37.36259842,-121.9290009,62,-8.0,America/Los_Angeles,airport
Lea County Regional Airport,Hobbs,United States,HOB,KHOB,32.6875,-103.21700290000001,3661,-7.0,America/Denver,airport
Northeast Philadelphia Airport,Philadelphia,United States,PNE,KPNE,40.08190155,-75.01059723,120,-5.0,America/New_York,airport
Denver International Airport,Denver,United States,DEN,KDEN,39.86169815,-104.6729965,5431,-7.0,America/Denver,airport
Philadelphia International Airport,Philadelphia,United States,PHL,KPHL,39.87189865,-75.2410965,36,-5.0,America/New_York,airport
Sioux Gateway Col. Bud Day Field,Sioux City,United States,SUX,KSUX,42.40259933,-96.38439941,1098,-6.0,America/Chicago,airport
Middle Georgia Regional Airport,Macon,United States,MCN,KMCN,32.69279861,-83.64920044,354,-5.0,America/New_York,airport
Truth Or Consequences Municipal Airport,Truth Or Consequences,United States,TCS,KTCS,33.23690033,-107.27200320000001,4853,-7.0,America/Denver,airport
Palmdale Regional/USAF Plant 42 Airport,Palmdale,United States,PMD,KPMD,34.62939835,-118.08499909999999,2543,-8.0,America/Los_Angeles,airport
Randolph Air Force Base,San Antonio,United States,RND,KRND,29.52969933,-98.27890015,761,-6.0,America/Chicago,airport
El Centro Naf Airport,El Centro,United States,NJK,KNJK,32.82920074,-115.67199709999998,-42,-8.0,America/Los_Angeles,airport
Port Columbus International Airport,Columbus,United States,CMH,KCMH,39.9980011,-82.89189911,815,-5.0,America/New_York,airport
Drake Field,Fayetteville,United States,FYV,KFYV,36.00510025,-94.17009735,1251,-6.0,America/Chicago,airport
Henry Post Army Air Field (Fort Sill),Fort Sill,United States,FSI,KFSI,34.64979935,-98.40219879,1189,-6.0,America/Chicago,airport
Princeton Municipal Airport,Princeton,United States,PNM,KPNM,45.55989838,-93.60820007,980,-6.0,America/Chicago,airport
Wright-Patterson Air Force Base,Dayton,United States,FFO,KFFO,39.826099400000004,-84.0483017,823,-5.0,America/New_York,airport
Edward G. Pitka Sr Airport,Galena,United States,GAL,PAGA,64.73619843,-156.93699650000002,153,-9.0,America/Anchorage,airport
Chandler Municipal Airport,Chandler,United States,,KCHD,33.2691,-111.810997,1243,-7.0,America/Phoenix,airport
Mineral Wells Airport,Mineral Wells,United States,MWL,KMWL,32.78160095,-98.06020355,974,-6.0,America/Chicago,airport
Mc Connell Air Force Base,Wichita,United States,IAB,KIAB,37.62189865,-97.26820374,1371,-6.0,America/Chicago,airport
New Orleans NAS JRB/Alvin Callender Field,New Orleans,United States,NBG,KNBG,29.82530022,-90.03500366,2,-6.0,America/Chicago,airport
Beaufort County Airport,Beaufort,United States,BFT,KARW,32.41220093,-80.63439941,10,-5.0,America/New_York,airport
Texarkana Regional Webb Field,Texarkana,United States,TXK,KTXK,33.45370102,-93.99099731,390,-6.0,America/Chicago,airport
Plattsburgh International Airport,Plattsburgh,United States,PBG,KPBG,44.65090179,-73.4681015,234,-5.0,America/New_York,airport
Phillips Army Air Field,Aberdeen,United States,APG,KAPG,39.466202,-76.1688,57,-5.0,America/New_York,airport
Tucumcari Municipal Airport,Tucumcari,United States,TCC,KTCC,35.18280029,-103.6029968,4065,-7.0,America/Denver,airport
Ted Stevens Anchorage International Airport,Anchorage,United States,ANC,PANC,61.17440033,-149.9960022,152,-9.0,America/Anchorage,airport
Robert Gray  Army Air Field Airport,Killeen,United States,GRK,KGRK,31.06719971,-97.8289032,1015,-6.0,America/Chicago,airport
Black Rock Airport,Zuni Pueblo,United States,ZUN,KZUN,35.08319855,-108.79199979999999,6454,-7.0,America/Denver,airport
Bellingham International Airport,Bellingham,United States,BLI,KBLI,48.792800899999996,-122.538002,170,-8.0,America/Los_Angeles,airport
Millington Regional Jetport Airport,Millington,United States,NQA,KNQA,35.35670089999999,-89.87030029,320,-6.0,America/Chicago,airport
Elkins-Randolph Co-Jennings Randolph Field,Elkins,United States,EKN,KEKN,38.88940048,-79.85710144,1987,-5.0,America/New_York,airport
Hartford Brainard Airport,Hartford,United States,HFD,KHFD,41.73669815,-72.6493988,18,-5.0,America/New_York,airport
North Central State Airport,Smithfield,United States,SFZ,KSFZ,41.92079926,-71.49140167,441,-5.0,America/New_York,airport
Mobile Regional Airport,Mobile,United States,MOB,KMOB,30.69120026,-88.24279785,219,-6.0,America/Chicago,airport
Moffett Federal Airfield,Mountain View,United States,NUQ,KNUQ,37.41609955,-122.04900359999999,32,-8.0,America/Los_Angeles,airport
Santa Fe Municipal Airport,Santa Fe,United States,SAF,KSAF,35.61709976,-106.0889969,6348,-7.0,America/Denver,airport
Barking Sands Airport,Barking Sands,United States,BKH,PHBK,22.02280045,-159.78500369999998,23,-10.0,Pacific/Honolulu,airport
Beauregard Regional Airport,Deridder,United States,DRI,KDRI,30.83169937,-93.33989716,202,-6.0,America/Chicago,airport
Bradshaw Army Airfield,Bradshaw Field,United States,BSF,PHSF,19.76009941,-155.5540009,6190,-10.0,Pacific/Honolulu,airport
Nogales International Airport,Nogales,United States,OLS,KOLS,31.41769981,-110.84799960000001,3955,-7.0,America/Phoenix,airport
Mac Dill Air Force Base,Tampa,United States,MCF,KMCF,27.84930038,-82.52120209,14,-5.0,America/New_York,airport
Scott AFB/Midamerica Airport,Belleville,United States,BLV,KBLV,38.5452,-89.835197,459,-6.0,America/Chicago,airport
Opa-locka Executive Airport,Miami,United States,OPF,KOPF,25.90699959,-80.27839661,8,-5.0,America/New_York,airport
Del Rio International Airport,Del Rio,United States,DRT,KDRT,29.37420082,-100.927002,1002,-6.0,America/Chicago,airport
Southwest Florida International Airport,Fort Myers,United States,RSW,KRSW,26.53619957,-81.75520325,30,-5.0,America/New_York,airport
King Salmon Airport,King Salmon,United States,AKN,PAKN,58.67679977,-156.6490021,73,-9.0,America/Anchorage,airport
Muir Army Air Field (Fort Indiantown Gap) Airport,Muir,United States,MUI,KMUI,40.43479919,-76.56939697,488,-5.0,America/New_York,airport
Kapalua Airport,Lahania-kapalua,United States,JHM,PHJH,20.96290016,-156.67300419999998,256,-10.0,Pacific/Honolulu,airport
John F Kennedy International Airport,New York,United States,JFK,KJFK,40.63980103,-73.77890015,13,-5.0,America/New_York,airport
Homestead ARB Airport,Homestead,United States,HST,KHST,25.48859978,-80.38359833,5,-5.0,America/New_York,airport
Riverside Municipal Airport,Riverside,United States,RAL,KRAL,33.95190048,-117.4449997,819,-8.0,America/Los_Angeles,airport
Sherman Army Air Field,Fort Leavenworth,United States,FLV,KFLV,39.36830139,-94.91470337,772,-6.0,America/Chicago,airport
Wallops Flight Facility Airport,Wallops Island,United States,WAL,KWAL,37.94020081,-75.46640015,40,-5.0,America/New_York,airport
Holloman Air Force Base,Alamogordo,United States,HMN,KHMN,32.85250092,-106.1070023,4093,-7.0,America/Denver,airport
Willow Grove Naval Air Station/Joint Reserve Base,Willow Grove,United States,NXX,KNXX,40.19979858,-75.14820099,358,-5.0,America/New_York,airport
Cheyenne Regional Jerry Olson Field,Cheyenne,United States,CYS,KCYS,41.15570068,-104.81199649999999,6159,-7.0,America/Denver,airport
Stockton Metropolitan Airport,Stockton,United States,SCK,KSCK,37.89419937,-121.237999,33,-8.0,America/Los_Angeles,airport
Charleston Air Force Base-International Airport,Charleston,United States,CHS,KCHS,32.89860153,-80.04049683,46,-5.0,America/New_York,airport
Reno Tahoe International Airport,Reno,United States,RNO,KRNO,39.49909973,-119.7679977,4415,-8.0,America/Los_Angeles,airport
Ketchikan International Airport,Ketchikan,United States,KTN,PAKT,55.35559845,-131.7140045,89,-9.0,America/Anchorage,airport
Willow Run Airport,Detroit,United States,YIP,KYIP,42.23789978,-83.53040314,716,-5.0,America/New_York,airport
Vandenberg Air Force Base,Lompoc,United States,VBG,KVBG,34.73730087,-120.5839996,369,-8.0,America/Los_Angeles,airport
Birmingham-Shuttlesworth International Airport,Birmingham,United States,BHM,KBHM,33.56290054,-86.75350189,650,-6.0,America/Chicago,airport
Lakehurst Maxfield Field Airport,Lakehurst,United States,NEL,KNEL,40.03329849,-74.353302,101,-5.0,America/New_York,airport
Nellis Air Force Base,Las Vegas,United States,LSV,KLSV,36.23619843,-115.0339966,1870,-8.0,America/Los_Angeles,airport
March ARB Airport,Riverside,United States,RIV,KRIV,33.88069916,-117.2590027,1536,-8.0,America/Los_Angeles,airport
Modesto City Co-Harry Sham Field,Modesto,United States,MOD,KMOD,37.62580109,-120.9540024,97,-8.0,America/Los_Angeles,airport
Sacramento International Airport,Sacramento,United States,SMF,KSMF,38.69540024,-121.5910034,27,-8.0,America/Los_Angeles,airport
Waukegan National Airport,Chicago,United States,UGN,KUGN,42.42219925,-87.86789703,727,-6.0,America/Chicago,airport
City of Colorado Springs Municipal Airport,Colorado Springs,United States,COS,KCOS,38.80580139,-104.70099640000001,6187,-7.0,America/Denver,airport
Buffalo Niagara International Airport,Buffalo,United States,BUF,KBUF,42.94049835,-78.73220062,728,-5.0,America/New_York,airport
Griffing Sandusky Airport,Sandusky,United States,SKY,KSKY,41.433399200000004,-82.65229797,580,-5.0,America/New_York,airport
Snohomish County (Paine Field) Airport,Everett,United States,PAE,KPAE,47.90629959,-122.28199769999999,606,-8.0,America/Los_Angeles,airport
Mountain Home Air Force Base,Mountain Home,United States,MUO,KMUO,43.043597999999996,-115.872002,2996,-7.0,America/Denver,airport
Cedar City Regional Airport,Cedar City,United States,CDC,KCDC,37.70100021,-113.09899899999999,5622,-7.0,America/Denver,airport
Bradley International Airport,Windsor Locks,United States,BDL,KBDL,41.93889999,-72.68319702,173,-5.0,America/New_York,airport
Mc Allen Miller International Airport,Mcallen,United States,MFE,KMFE,26.17580032,-98.23860168,107,-6.0,America/Chicago,airport
Norfolk Ns (Chambers Fld) Airport,Norfolk,United States,NGU,KNGU,36.93759918,-76.28929901,17,-5.0,America/New_York,airport
Westover ARB/Metropolitan Airport,Chicopee Falls,United States,CEF,KCEF,42.19400024,-72.53479767,241,-5.0,America/New_York,airport
Lubbock Preston Smith International Airport,Lubbock,United States,LBB,KLBB,33.66360092,-101.822998,3282,-6.0,America/Chicago,airport
Chicago O'Hare International Airport,Chicago,United States,ORD,KORD,41.97859955,-87.90480042,672,-6.0,America/Chicago,airport
Boca Raton Airport,Boca Raton,United States,BCT,KBCT,26.37849998,-80.10769653,13,-5.0,America/New_York,airport
Fairbanks International Airport,Fairbanks,United States,FAI,PAFA,64.81510162,-147.85600280000003,439,-9.0,America/Anchorage,airport
Quantico MCAF /Turner field,Quantico,United States,NYG,KNYG,38.50170135,-77.30529785,10,-5.0,America/New_York,airport
Cannon Air Force Base,Clovis,United States,CVS,KCVS,34.38280106,-103.32199859999999,4295,-7.0,America/Denver,airport
Kaneohe Bay MCAS (Marion E. Carl Field) Airport,Kaneohe Bay,United States,NGF,PHNG,21.45050049,-157.7680054,24,-10.0,Pacific/Honolulu,airport
Offutt Air Force Base,Omaha,United States,OFF,KOFF,41.11830139,-95.91249847,1052,-6.0,America/Chicago,airport
Gulkana Airport,Gulkana,United States,GKN,PAGK,62.15489960000001,-145.4570007,1586,-9.0,America/Anchorage,airport
Watertown International Airport,Watertown,United States,ART,KART,43.991901399999996,-76.021698,325,-5.0,America/New_York,airport
Palm Springs International Airport,Palm Springs,United States,PSP,KPSP,33.82970047,-116.50700379999999,477,-8.0,America/Los_Angeles,airport
Rick Husband Amarillo International Airport,Amarillo,United States,AMA,KAMA,35.2193985,-101.7060013,3607,-6.0,America/Chicago,airport
Fort Dodge Regional Airport,Fort Dodge,United States,FOD,KFOD,42.55149841,-94.19259644,1156,-6.0,America/Chicago,airport
Barksdale Air Force Base,Shreveport,United States,BAD,KBAD,32.50180054,-93.66269684,166,-6.0,America/Chicago,airport
Topeka Regional Airport - Forbes Field,Topeka,United States,FOE,KFOE,38.95090103,-95.66359711,1078,-6.0,America/Chicago,airport
Cotulla-La Salle County Airport,Cotulla,United States,COT,KCOT,28.45669937,-99.22029877,474,-6.0,America/Chicago,airport
Wilmington International Airport,Wilmington,United States,ILM,KILM,34.27059937,-77.90260315,32,-5.0,America/New_York,airport
"Baton Rouge Metropolitan, Ryan Field",Baton Rouge,United States,BTR,KBTR,30.53319931,-91.14959717,70,-6.0,America/Chicago,airport
Tyler Pounds Regional Airport,Tyler,United States,TYR,KTYR,32.35409927,-95.40239716,544,-6.0,America/Chicago,airport
Baltimore/Washington International Thurgood Marshall Airport,Baltimore,United States,BWI,KBWI,39.17539978,-76.66829681,146,-5.0,America/New_York,airport
Hobart Regional Airport,Hobart,United States,HBR,KHBR,34.991316999999995,-99.05131300000001,1563,-6.0,America/Chicago,airport
Lanai Airport,Lanai,United States,LNY,PHNY,20.78560066,-156.951004,1308,-10.0,Pacific/Honolulu,airport
Alexandria International Airport,Alexandria,United States,AEX,KAEX,31.32740021,-92.54979706,89,-6.0,America/Chicago,airport
Condron Army Air Field,White Sands,United States,WSD,KWSD,32.34149933,-106.40299990000001,3934,-7.0,America/Denver,airport
Cold Bay Airport,Cold Bay,United States,CDB,PACD,55.20610046,-162.7250061,96,-9.0,America/Anchorage,airport
Tulsa International Airport,Tulsa,United States,TUL,KTUL,36.19839859,-95.88809967,677,-6.0,America/Chicago,airport
Sitka Rocky Gutierrez Airport,Sitka,United States,SIT,PASI,57.04710007,-135.36199950000002,21,-9.0,America/Anchorage,airport
Long Island Mac Arthur Airport,Islip,United States,ISP,KISP,40.79520035,-73.10019684,99,-5.0,America/New_York,airport
Minneapolis-St Paul International/Wold-Chamberlain Airport,Minneapolis,United States,MSP,KMSP,44.88199997,-93.22180176,841,-6.0,America/Chicago,airport
New Castle Airport,Wilmington,United States,ILG,KILG,39.67869949,-75.60649872,80,-5.0,America/New_York,airport
Unalaska Airport,Unalaska,United States,DUT,PADU,53.90010071,-166.5440063,22,-9.0,America/Anchorage,airport
Louis Armstrong New Orleans International Airport,New Orleans,United States,MSY,KMSY,29.99340057,-90.25800323,4,-6.0,America/Chicago,airport
Portland International Jetport Airport,Portland,United States,PWM,KPWM,43.64619827,-70.30930328,76,-5.0,America/New_York,airport
Will Rogers World Airport,Oklahoma City,United States,OKC,KOKC,35.39310074,-97.60070038,1295,-6.0,America/Chicago,airport
Albany International Airport,Albany,United States,ALB,KALB,42.74829865,-73.80169678,285,-5.0,America/New_York,airport
Valdez Pioneer Field,Valdez,United States,VDZ,PAVD,61.13389969,-146.24800109999998,121,-9.0,America/Anchorage,airport
Langley Air Force Base,Hampton,United States,LFI,KLFI,37.082901,-76.36049652,11,-5.0,America/New_York,airport
John Wayne Airport-Orange County Airport,Santa Ana,United States,SNA,KSNA,33.67570114,-117.86799620000001,56,-8.0,America/Los_Angeles,airport
Columbus Air Force Base,Colombus,United States,CBM,KCBM,33.64379883,-88.44380188,219,-6.0,America/Chicago,airport
Kendall-Tamiami Executive Airport,Kendall-tamiami,United States,TMB,KTMB,25.64789963,-80.43280029,8,-5.0,America/New_York,airport
Oceana NAS,Oceana,United States,NTU,KNTU,36.8207016,-76.03350067,23,-5.0,America/New_York,airport
Grissom Air Reserve Base,Peru,United States,GUS,KGUS,40.64810181,-86.15209961,812,-5.0,America/New_York,airport
Casper-Natrona County International Airport,Casper,United States,CPR,KCPR,42.90800095,-106.4639969,5350,-7.0,America/Denver,airport
Destin-Ft Walton Beach Airport,Valparaiso,United States,VPS,KVPS,30.4832,-86.525398,87,-6.0,America/Chicago,airport
Craig Field,Selma,United States,SEM,KSEM,32.34389877,-86.9878006,166,-6.0,America/Chicago,airport
Key West International Airport,Key West,United States,EYW,KEYW,24.55610085,-81.75959778,3,-5.0,America/New_York,airport
Charlotte Douglas International Airport,Charlotte,United States,CLT,KCLT,35.21400070000001,-80.94309998,748,-5.0,America/New_York,airport
McCarran International Airport,Las Vegas,United States,LAS,KLAS,36.08010101,-115.15200039999999,2181,-8.0,America/Los_Angeles,airport
Orlando International Airport,Orlando,United States,MCO,KMCO,28.42939949,-81.30899811,96,-5.0,America/New_York,airport
Florence Regional Airport,Florence,United States,FLO,KFLO,34.1853981,-79.72389984,146,-5.0,America/New_York,airport
Great Falls International Airport,Great Falls,United States,GTF,KGTF,47.48199844,-111.3710022,3680,-7.0,America/Denver,airport
Youngstown Warren Regional Airport,Youngstown,United States,YNG,KYNG,41.26070023,-80.67910004,1192,-5.0,America/New_York,airport
Ladd AAF Airfield,Fort Wainwright,United States,FBK,PAFB,64.83750153,-147.6139984,454,-9.0,America/Anchorage,airport
Mc Minnville Municipal Airport,Mackminnville,United States,MMV,KMMV,45.19440079,-123.13600159999999,163,-8.0,America/Los_Angeles,airport
Robins Air Force Base,Macon,United States,WRB,KWRB,32.64009857,-83.59190369,294,-5.0,America/New_York,airport
Pullman Moscow Regional Airport,Pullman,United States,PUW,KPUW,46.7439,-117.110001,2556,-8.0,America/Los_Angeles,airport
Lewiston Nez Perce County Airport,Lewiston,United States,LWS,KLWS,46.37450027,-117.0149994,1442,-8.0,America/Los_Angeles,airport
Elmira Corning Regional Airport,Elmira,United States,ELM,KELM,42.15990067,-76.89160156,954,-5.0,America/New_York,airport
Ithaca Tompkins Regional Airport,Ithaca,United States,ITH,KITH,42.49100113,-76.45839691,1099,-5.0,America/New_York,airport
Monterey Peninsula Airport,Monterey,United States,MRY,KMRY,36.587001799999996,-121.84300230000001,257,-8.0,America/Los_Angeles,airport
Santa Barbara Municipal Airport,Santa Barbara,United States,SBA,KSBA,34.42620087,-119.8399963,13,-8.0,America/Los_Angeles,airport
Daytona Beach International Airport,Daytona Beach,United States,DAB,KDAB,29.179899,-81.058098,34,-5.0,America/New_York,airport
Wall Street Heliport,New York,United States,JRB,KJRB,40.701214,-74.009028,7,-5.0,America/New_York,airport
Talkeetna Airport,Talkeetna,United States,TKA,PATK,62.32049942,-150.09399409999997,358,-9.0,America/Anchorage,airport
Tweed New Haven Airport,New Haven,United States,HVN,KHVN,41.26369858,-72.88680267,12,-5.0,America/New_York,airport
Asheville Regional Airport,Asheville,United States,AVL,KAVL,35.43619919,-82.54180145,2165,-5.0,America/New_York,airport
Piedmont Triad International Airport,Greensboro,United States,GSO,KGSO,36.09780121,-79.93730164,925,-5.0,America/New_York,airport
Joe Foss Field Airport,Sioux Falls,United States,FSD,KFSD,43.58200073,-96.74189758,1429,-6.0,America/Chicago,airport
Manchester Airport,Manchester NH,United States,MHT,KMHT,42.93259811,-71.43569946,266,-5.0,America/New_York,airport
Naples Municipal Airport,Naples,United States,APF,KAPF,26.15259933,-81.77529907,8,-5.0,America/New_York,airport
Louisville International Standiford Field,Louisville,United States,SDF,KSDF,38.1744,-85.736,501,-5.0,America/New_York,airport
Charlottesville Albemarle Airport,Charlottesville VA,United States,CHO,KCHO,38.138599400000004,-78.45290375,639,-5.0,America/New_York,airport
RoanokeâBlacksburg Regional Airport,Roanoke VA,United States,ROA,KROA,37.32550049,-79.97540283,1175,-5.0,America/New_York,airport
Blue Grass Airport,Lexington KY,United States,LEX,KLEX,38.03649902,-84.60590363,979,-5.0,America/New_York,airport
Evansville Regional Airport,Evansville,United States,EVV,KEVV,38.03699875,-87.53240204,418,-6.0,America/Chicago,airport
Albuquerque International Sunport Airport,Albuquerque,United States,ABQ,KABQ,35.04019928,-106.60900120000001,5355,-7.0,America/Denver,airport
Gallatin Field,Bozeman,United States,BZN,KBZN,45.77750015,-111.15299990000001,4473,-7.0,America/Denver,airport
Billings Logan International Airport,Billings,United States,BIL,KBIL,45.80770111,-108.5429993,3652,-7.0,America/Denver,airport
Bert Mooney Airport,Butte,United States,BTM,KBTM,45.95479965,-112.49700159999998,5550,-7.0,America/Denver,airport
Cherry Capital Airport,Traverse City,United States,TVC,KTVC,44.74140167,-85.5821991,624,-5.0,America/New_York,airport
Hancock County-Bar Harbor Airport,Bar Harbor,United States,BHB,KBHB,44.45000076,-68.36150359999999,83,-5.0,America/New_York,airport
Knox County Regional Airport,Rockland,United States,RKD,KRKD,44.06010056,-69.09919739,56,-5.0,America/New_York,airport
Jackson Hole Airport,Jacksn Hole,United States,JAC,KJAC,43.6072998,-110.737999,6451,-7.0,America/Denver,airport
Chicago Rockford International Airport,Rockford,United States,RFD,KRFD,42.19540024,-89.09719849,742,-6.0,America/Chicago,airport
East 34th Street Heliport,New York,United States,TSS,NONE,40.7425,-73.971944,10,-5.0,America/New_York,airport
Greenville Spartanburg International Airport,Greenville,United States,GSP,KGSP,34.89569855,-82.21890259,964,-5.0,America/New_York,airport
Central Illinois Regional Airport at Bloomington-Normal,Bloomington,United States,BMI,KBMI,40.47710037,-88.91590118,871,-6.0,America/Chicago,airport
Gulfport Biloxi International Airport,Gulfport,United States,GPT,KGPT,30.40730095,-89.07009888,28,-6.0,America/Chicago,airport
Kalamazoo Battle Creek International Airport,Kalamazoo,United States,AZO,KAZO,42.23490143,-85.55210114,874,-5.0,America/New_York,airport
Toledo Express Airport,Toledo,United States,TOL,KTOL,41.58679962,-83.80780029,683,-5.0,America/New_York,airport
Fort Wayne International Airport,Fort Wayne,United States,FWA,KFWA,40.97850037,-85.19509888,814,-5.0,America/New_York,airport
Decatur Airport,Decatur,United States,DEC,KDEC,39.83459854,-88.86569977,682,-6.0,America/Chicago,airport
The Eastern Iowa Airport,Cedar Rapids,United States,CID,KCID,41.88470078,-91.71080017,869,-6.0,America/Chicago,airport
La Crosse Municipal Airport,La Crosse,United States,LSE,KLSE,43.879002,-91.256699,655,-6.0,America/Chicago,airport
Central Wisconsin Airport,Wassau,United States,CWA,KCWA,44.77759933,-89.66680145,1277,-6.0,America/Chicago,airport
General Wayne A. Downing Peoria International Airport,Peoria,United States,PIA,KPIA,40.66419983,-89.69329834,660,-6.0,America/Chicago,airport
Appleton International Airport,Appleton,United States,ATW,KATW,44.258098600000004,-88.51909637,918,-6.0,America/Chicago,airport
Rochester International Airport,Rochester,United States,RST,KRST,43.90829849,-92.5,1317,-6.0,America/Chicago,airport
University of Illinois Willard Airport,Champaign,United States,CMI,KCMI,40.03919983,-88.27809906,755,-6.0,America/Chicago,airport
Manhattan Regional Airport,Manhattan,United States,MHK,KMHK,39.14099884,-96.67079926,1057,-6.0,America/Chicago,airport
Venango Regional Airport,Franklin,United States,FKL,KFKL,41.37789917,-79.86039734,1540,-5.0,America/New_York,airport
Grand Junction Regional Airport,Grand Junction,United States,GJT,KGJT,39.12239838,-108.52700039999999,4858,-7.0,America/Denver,airport
St George Municipal Airport,Saint George,United States,SGU,KSGU,37.03638889,-113.51030559999998,2941,-7.0,America/Denver,airport
David Wayne Hooks Memorial Airport,Houston,United States,DWH,KDWH,30.0618,-95.55280304,152,-6.0,America/Chicago,airport
Port O'Connor Private Airport,Port O\\'Connor,United States,S46,XS46,28.42970085,-96.44439697,8,-6.0,America/Chicago,airport
Sarasota Bradenton International Airport,Sarasota,United States,SRQ,KSRQ,27.39539909,-82.55439758,30,-5.0,America/New_York,airport
Van Nuys Airport,Van Nuys,United States,VNY,KVNY,34.20980072,-118.4899979,802,-8.0,America/Los_Angeles,airport
Quad City International Airport,Moline,United States,MLI,KMLI,41.44850159,-90.50749969,590,-6.0,America/Chicago,airport
Panama City-Bay Co International Airport,Panama City,United States,PFN,KPFN,30.212099,-85.6828,20,-6.0,America/Chicago,airport
Bismarck Municipal Airport,Bismarck,United States,BIS,KBIS,46.77270126,-100.7460022,1661,-6.0,America/Chicago,airport
Telluride Regional Airport,Telluride,United States,TEX,KTEX,37.9538002,-107.90799709999999,9070,-7.0,America/Denver,airport
Rapid City Regional Airport,Rapid City,United States,RAP,KRAP,44.04529953,-103.0569992,3204,-7.0,America/Denver,airport
Mc Clellan-Palomar Airport,Carlsbad,United States,CLD,KCRQ,33.12829971,-117.27999879999999,331,-8.0,America/Los_Angeles,airport
Bishop International Airport,Flint,United States,FNT,KFNT,42.965400700000004,-83.74359894,782,-5.0,America/New_York,airport
Redding Municipal Airport,Redding,United States,RDD,KRDD,40.50899887,-122.2929993,505,-8.0,America/Los_Angeles,airport
Mahlon Sweet Field,Eugene,United States,EUG,KEUG,44.12459946,-123.211998,374,-8.0,America/Los_Angeles,airport
Idaho Falls Regional Airport,Idaho Falls,United States,IDA,KIDA,43.51459885,-112.0709991,4744,-7.0,America/Denver,airport
Rogue Valley International Medford Airport,Medford,United States,MFR,KMFR,42.37419891,-122.8730011,1335,-8.0,America/Los_Angeles,airport
Roberts Field,Redmond-Bend,United States,RDM,KRDM,44.254100799999996,-121.15000149999999,3080,-8.0,America/Los_Angeles,airport
Akron Canton Regional Airport,Akron,United States,CAK,KCAK,40.91609955,-81.44219971,1228,-5.0,America/New_York,airport
Huntsville International Carl T Jones Field,Huntsville,United States,HSV,KHSV,34.6371994,-86.77510071,629,-6.0,America/Chicago,airport
Mid Ohio Valley Regional Airport,PARKERSBURG,United States,PKB,KPKB,39.34510039999999,-81.43920135,858,-5.0,America/New_York,airport
Montgomery Regional (Dannelly Field) Airport,MONTGOMERY,United States,MGM,KMGM,32.30059814,-86.39399719,221,-6.0,America/Chicago,airport
Tri Cities Regional Tn Va Airport,BRISTOL,United States,TRI,KTRI,36.47520065,-82.40740204,1519,-5.0,America/New_York,airport
Barkley Regional Airport,PADUCAH,United States,PAH,KPAH,37.06079865,-88.77380371,410,-6.0,America/Chicago,airport
Page Municipal Airport,Page,United States,PGA,KPGA,36.92610168,-111.447998,4316,-7.0,America/Phoenix,airport
Glacier Park International Airport,Kalispell,United States,FCA,KGPI,48.3105011,-114.2559967,2977,-7.0,America/Denver,airport
MBS International Airport,Saginaw,United States,MBS,KMBS,43.53290176,-84.07959747,668,-5.0,America/New_York,airport
Greater Binghamton/Edwin A Link field,Binghamton,United States,BGM,KBGM,42.20869827,-75.97979736,1636,-5.0,America/New_York,airport
Blythe Airport,Blythe,United States,BLH,KBLH,33.61920166,-114.71700290000001,399,-8.0,America/Los_Angeles,airport
Petersburg James A Johnson Airport,Petersburg,United States,PSG,PAPG,56.80170059,-132.9450073,111,-9.0,America/Anchorage,airport
Orlando Sanford International Airport,Sanford,United States,SFB,KSFB,28.77759933,-81.23750305,55,-5.0,America/New_York,airport
John Murtha Johnstown Cambria County Airport,Johnstown,United States,JST,KJST,40.31610107,-78.83390045,2284,-5.0,America/New_York,airport
Missoula International Airport,Missoula,United States,MSO,KMSO,46.91630173,-114.0910034,3206,-7.0,America/Denver,airport
Grand Canyon National Park Airport,Grand Canyon,United States,GCN,KGCN,35.95240021,-112.14700320000001,6609,-7.0,America/Phoenix,airport
Sugar Land Regional Airport,Sugar Land,United States,SGR,KSGR,29.62229919,-95.65650177,82,-6.0,America/Chicago,airport
Centennial Airport,Denver,United States,APA,KAPA,39.57009888,-104.84899899999999,5885,-7.0,America/Denver,airport
Clovis Municipal Airport,Clovis,United States,CVN,KCVN,34.42509842,-103.07900240000001,4216,-7.0,America/Denver,airport
Fort Stockton Pecos County Airport,Fort Stockton,United States,FST,KFST,30.91570091,-102.9160004,3011,-6.0,America/Chicago,airport
Las Vegas Municipal Airport,Las Vegas,United States,LVS,KLVS,35.65420151,-105.1419983,6877,-7.0,America/Denver,airport
West Houston Airport,Houston,United States,IWS,KIWS,29.81819916,-95.67259979,111,-6.0,America/Chicago,airport
La Junta Municipal Airport,La Junta,United States,LHX,KLHX,38.04970169,-103.5090027,4229,-7.0,America/Denver,airport
Las Cruces International Airport,Las Cruces,United States,LRU,KLRU,32.28939819,-106.92199709999998,4456,-7.0,America/Denver,airport
Stephens County Airport,Breckenridge,United States,BKD,KBKD,32.71900177,-98.89099884,1284,-6.0,America/Chicago,airport
Draughon Miller Central Texas Regional Airport,Temple,United States,TPL,KTPL,31.15250015,-97.40779877,682,-6.0,America/Chicago,airport
Ozona Municipal Airport,Ozona,United States,OZA,KOZA,30.73530006,-101.20300290000002,2381,-6.0,America/Chicago,airport
Eagle County Regional Airport,Vail,United States,EGE,KEGE,39.64260101,-106.9179993,6548,-7.0,America/Denver,airport
Cuyahoga County Airport,Richmond Heights,United States,CGF,KCGF,41.56510162,-81.48639679,879,-5.0,America/New_York,airport
Mansfield Lahm Regional Airport,Mansfield,United States,MFD,KMFD,40.82139969,-82.51660156,1297,-5.0,America/New_York,airport
Columbus Metropolitan Airport,Columbus,United States,CSG,KCSG,32.516300199999996,-84.93890381,397,-5.0,America/New_York,airport
Lawton Fort Sill Regional Airport,Lawton,United States,LAW,KLAW,34.56769943,-98.41660309,1110,-6.0,America/Chicago,airport
Fort Collins Loveland Municipal Airport,Fort Collins,United States,FNL,KFNL,40.4518013,-105.01100159999999,5016,-7.0,America/Denver,airport
Flagstaff Pulliam Airport,Flagstaff,United States,FLG,KFLG,35.13850021,-111.6709976,7014,-7.0,America/Phoenix,airport
Lake Tahoe Airport,South Lake Tahoe,United States,TVL,KTVL,38.89390182,-119.9950027,6264,-8.0,America/Los_Angeles,airport
Joslin Field Magic Valley Regional Airport,Twin Falls,United States,TWF,KTWF,42.48180008,-114.487999,4154,-7.0,America/Denver,airport
Martha's Vineyard Airport,Vineyard Haven MA,United States,MVY,KMVY,41.39310074,-70.61430359,67,-5.0,America/New_York,airport
Concord Municipal Airport,Concord NH,United States,CON,KCON,43.20270157,-71.50229645,342,-5.0,America/New_York,airport
Groton New London Airport,Groton CT,United States,GON,KGON,41.33010101,-72.04509735,9,-5.0,America/New_York,airport
St Cloud Regional Airport,Saint Cloud,United States,STC,KSTC,45.54660034,-94.05989838,1031,-6.0,America/Chicago,airport
Golden Triangle Regional Airport,Columbus Mississippi,United States,GTR,KGTR,33.45029831,-88.59140015,264,-6.0,America/Chicago,airport
Bowerman Airport,Hoquiam,United States,HQM,KHQM,46.97119904,-123.9369965,18,-8.0,America/Los_Angeles,airport
Erie International Tom Ridge Field,Erie,United States,ERI,KERI,42.08312701,-80.17386675,732,-5.0,America/New_York,airport
Barnstable Municipal Boardman Polando Field,Barnstable,United States,HYA,KHYA,41.66930008,-70.28040314,54,-5.0,America/New_York,airport
Sedona Airport,Sedona,United States,SDX,KSEZ,34.84859848,-111.788002,4830,-7.0,America/Phoenix,airport
Morgantown Municipal Walter L. Bill Hart Field,Morgantown,United States,MGW,KMGW,39.64289856,-79.91629791,1248,-5.0,America/New_York,airport
Yeager Airport,Charleston,United States,CRW,KCRW,38.37310028,-81.59320068,981,-5.0,America/New_York,airport
Wilkes Barre Scranton International Airport,Scranton,United States,AVP,KAVP,41.33850098,-75.7233963,962,-5.0,America/New_York,airport
Bemidji Regional Airport,Bemidji,United States,BJI,KBJI,47.50939941,-94.93370056,1391,-6.0,America/Chicago,airport
Hector International Airport,Fargo,United States,FAR,KFAR,46.92070007,-96.81580353,902,-6.0,America/Chicago,airport
Charles B. Wheeler Downtown Airport,Kansas City,United States,MKC,KMKC,39.12319946,-94.59279633,759,-6.0,America/Chicago,airport
Gillette Campbell County Airport,Gillette,United States,GCC,KGCC,44.34889984,-105.53900149999998,4365,-7.0,America/Denver,airport
University Park Airport,State College Pennsylvania,United States,SCE,KUNV,40.84930038,-77.84870148,1239,-5.0,America/New_York,airport
Key Field,Meridian,United States,MEI,KMEI,32.33259964,-88.75189972,297,-6.0,America/Chicago,airport
Abraham Lincoln Capital Airport,Springfield,United States,SPI,KSPI,39.84410095,-89.67790222,598,-6.0,America/Chicago,airport
Cortez Municipal Airport,Cortez,United States,CEZ,KCEZ,37.3030014,-108.62799840000002,5918,-7.0,America/Denver,airport
Yampa Valley Airport,Hayden,United States,HDN,KHDN,40.48120117,-107.21800230000001,6606,-7.0,America/Denver,airport
Gallup Municipal Airport,Gallup,United States,GUP,KGUP,35.51110077,-108.78900149999998,6472,-7.0,America/Denver,airport
Liberal Mid-America Regional Airport,Liberal,United States,LBL,KLBL,37.04420089999999,-100.95999909999999,2885,-6.0,America/Chicago,airport
Lamar Municipal Airport,Lamar,United States,LAA,KLAA,38.06969833,-102.68800350000001,3706,-7.0,America/Denver,airport
Renner Field-Goodland Municipal Airport,Goodland,United States,GLD,KGLD,39.37060165,-101.6989975,3656,-7.0,America/Denver,airport
Yellowstone Regional Airport,Cody,United States,COD,KCOD,44.52019882,-109.02400209999999,5102,-7.0,America/Denver,airport
Springfield Branson National Airport,Springfield,United States,SGF,KSGF,37.24570084,-93.38860321,1268,-6.0,America/Chicago,airport
Joplin Regional Airport,Joplin,United States,JLN,KJLN,37.15179825,-94.49829865,981,-6.0,America/Chicago,airport
Lehigh Valley International Airport,Allentown,United States,ABE,KABE,40.65209961,-75.44080353,393,-5.0,America/New_York,airport
Northwest Arkansas Regional Airport,Bentonville,United States,XNA,KXNA,36.281898,-94.30680100000001,1287,-6.0,America/Chicago,airport
South Bend Regional Airport,South Bend,United States,SBN,KSBN,41.70869827,-86.31729889,799,-5.0,America/New_York,airport
Smith Field,Fort Wayne IN,United States,SMD,KSMD,41.14339828,-85.15280151,835,-5.0,America/New_York,airport
Arcata Airport,Arcata CA,United States,ACV,KACV,40.97809982,-124.10900120000001,221,-8.0,America/Los_Angeles,airport
Albert J Ellis Airport,Jacksonville NC,United States,OAJ,KOAJ,34.82920074,-77.61209869,94,-5.0,America/New_York,airport
Tuscaloosa Regional Airport,Tuscaloosa AL,United States,TCL,KTCL,33.22060013,-87.61139679,170,-6.0,America/Chicago,airport
Dubuque Regional Airport,Dubuque IA,United States,DBQ,KDBQ,42.40200043,-90.70950317,1077,-6.0,America/Chicago,airport
Aberdeen Regional Airport,Aberdeen,United States,ABR,KABR,45.44910049,-98.42179871,1302,-6.0,America/Chicago,airport
Southwest Georgia Regional Airport,Albany,United States,ABY,KABY,31.53549957,-84.19450378,197,-5.0,America/New_York,airport
Athens Ben Epps Airport,Athens,United States,AHN,KAHN,33.94860077,-83.32630157,808,-5.0,America/New_York,airport
Alamogordo White Sands Regional Airport,Alamogordo,United States,ALM,KALM,32.83990097,-105.9909973,4200,-7.0,America/Denver,airport
Waterloo Regional Airport,Waterloo,United States,ALO,KALO,42.55709839,-92.40029907,873,-6.0,America/Chicago,airport
Walla Walla Regional Airport,Walla Walla,United States,ALW,KALW,46.09489822,-118.288002,1194,-8.0,America/Los_Angeles,airport
Alpena County Regional Airport,Alpena,United States,APN,KAPN,45.07809829999999,-83.56030273,690,-5.0,America/New_York,airport
Watertown Regional Airport,Watertown,United States,ATY,KATY,44.91400146,-97.15470123,1749,-6.0,America/Chicago,airport
Bradford Regional Airport,Bradford,United States,BFD,KBFD,41.80310059,-78.64009857,2143,-5.0,America/New_York,airport
Western Neb. Rgnl/William B. Heilig Airport,Scottsbluff,United States,BFF,KBFF,41.87400055,-103.5960007,3967,-7.0,America/Denver,airport
Raleigh County Memorial Airport,Beckley,United States,BKW,KBKW,37.78730011,-81.12419891,2504,-5.0,America/New_York,airport
Brunswick Golden Isles Airport,Brunswick,United States,BQK,KBQK,31.25880051,-81.46649933,26,-5.0,America/New_York,airport
Southeast Iowa Regional Airport,Burlington,United States,BRL,KBRL,40.78319931,-91.12550354,698,-6.0,America/Chicago,airport
Jack Mc Namara Field Airport,Crescent City,United States,CEC,KCEC,41.78020096,-124.23699950000001,61,-8.0,America/Los_Angeles,airport
Cape Girardeau Regional Airport,Cape Girardeau,United States,CGI,KCGI,37.22529984,-89.57080078,342,-6.0,America/Chicago,airport
Chippewa County International Airport,Sault Ste Marie,United States,CIU,KCIU,46.25080109,-84.47239685,800,-5.0,America/New_York,airport
North Central West Virginia Airport,Clarksburg,United States,CKB,KCKB,39.29660034,-80.22810364,1217,-5.0,America/New_York,airport
William R Fairchild International Airport,Port Angeles,United States,CLM,KCLM,48.12020111,-123.5,291,-8.0,America/Los_Angeles,airport
Houghton County Memorial Airport,Hancock,United States,CMX,KCMX,47.16839981,-88.4890976,1095,-5.0,America/New_York,airport
Dodge City Regional Airport,Dodge City,United States,DDC,KDDC,37.76340103,-99.96559906,2594,-6.0,America/Chicago,airport
DuBois Regional Airport,Du Bois,United States,DUJ,KDUJ,41.17829895,-78.8986969,1817,-5.0,America/New_York,airport
Chippewa Valley Regional Airport,Eau Claire,United States,EAU,KEAU,44.86579895,-91.48429871,913,-6.0,America/Chicago,airport
Elko Regional Airport,Elko,United States,EKO,KEKO,40.82490158,-115.79199979999999,5140,-8.0,America/Los_Angeles,airport
New Bedford Regional Airport,New Bedford,United States,EWB,KEWB,41.67610168,-70.95690155,80,-5.0,America/New_York,airport
Fayetteville Regional Grannis Field,Fayetteville,United States,FAY,KFAY,34.99119949,-78.88030243,189,-5.0,America/New_York,airport
Wokal Field Glasgow International Airport,Glasgow,United States,GGW,KGGW,48.21250153,-106.6149979,2296,-7.0,America/Denver,airport
Central Nebraska Regional Airport,Grand Island,United States,GRI,KGRI,40.96749878,-98.30960083,1847,-6.0,America/Chicago,airport
Memorial Field,Hot Springs,United States,HOT,KHOT,34.47800064,-93.09619904,540,-6.0,America/Chicago,airport
Tri-State/Milton J. Ferguson Field,Huntington,United States,HTS,KHTS,38.36669922,-82.55799866,828,-5.0,America/New_York,airport
Kirksville Regional Airport,Kirksville,United States,IRK,KIRK,40.09349823,-92.54489899,966,-6.0,America/Chicago,airport
Jamestown Regional Airport,Jamestown,United States,JMS,KJMS,46.92969894,-98.67819977,1500,-6.0,America/Chicago,airport
Laramie Regional Airport,Laramie,United States,LAR,KLAR,41.31209946,-105.6750031,7284,-7.0,America/Denver,airport
Arnold Palmer Regional Airport,Latrobe,United States,LBE,KLBE,40.27590179,-79.40480042,1199,-5.0,America/New_York,airport
North Platte Regional Airport Lee Bird Field,North Platte,United States,LBF,KLBF,41.12620163,-100.6839981,2777,-6.0,America/Chicago,airport
Lebanon Municipal Airport,Lebanon,United States,LEB,KLEB,43.62609863,-72.30419922,603,-5.0,America/New_York,airport
Klamath Falls Airport,Klamath Falls,United States,LMT,KLMT,42.15610123,-121.7330017,4095,-8.0,America/Los_Angeles,airport
Lancaster Airport,Lancaster,United States,LNS,KLNS,40.12170029,-76.2960968,403,-5.0,America/New_York,airport
Lewistown Municipal Airport,Lewistown,United States,LWT,KLWT,47.04930115,-109.46700290000001,4170,-7.0,America/Denver,airport
Lynchburg Regional Preston Glenn Field,Lynchburg,United States,LYH,KLYH,37.3266983,-79.20040131,938,-5.0,America/New_York,airport
Muskegon County Airport,Muskegon,United States,MKG,KMKG,43.16949844,-86.23819733,629,-5.0,America/New_York,airport
Frank Wiley Field,Miles City,United States,MLS,KMLS,46.4280014,-105.88600159999999,2630,-7.0,America/Denver,airport
Northwest Alabama Regional Airport,Muscle Shoals,United States,MSL,KMSL,34.74530029,-87.61019897,551,-6.0,America/Chicago,airport
Southwest Oregon Regional Airport,North Bend,United States,OTH,KOTH,43.417099,-124.2460022,17,-8.0,America/Los_Angeles,airport
Owensboro Daviess County Airport,Owensboro,United States,OWB,KOWB,37.74010086,-87.16680145,407,-6.0,America/Chicago,airport
Hattiesburg Laurel Regional Airport,Hattiesburg/Laurel,United States,PIB,KPIB,31.46710014,-89.33709717,298,-6.0,America/Chicago,airport
Pocatello Regional Airport,Pocatello,United States,PIH,KPIH,42.90980148,-112.5960007,4452,-7.0,America/Denver,airport
Pierre Regional Airport,Pierre,United States,PIR,KPIR,44.38270187,-100.2860031,1744,-6.0,America/Chicago,airport
Pellston Regional Airport of Emmet County Airport,Pellston,United States,PLN,KPLN,45.57089996,-84.79669952,721,-5.0,America/New_York,airport
Portsmouth International at Pease Airport,Portsmouth,United States,PSM,KPSM,43.07789993,-70.82330322,100,-5.0,America/New_York,airport
Reading Regional Carl A Spaatz Field,Reading,United States,RDG,KRDG,40.37850189,-75.96520233,344,-5.0,America/New_York,airport
Rhinelander Oneida County Airport,Rhinelander,United States,RHI,KRHI,45.63119888,-89.46749878,1624,-6.0,America/Chicago,airport
Rock Springs Sweetwater County Airport,Rock Springs,United States,RKS,KRKS,41.59420013,-109.0650024,6764,-7.0,America/Denver,airport
Rutland - Southern Vermont Regional Airport,Rutland,United States,RUT,KRUT,43.52939987,-72.94960022,787,-5.0,America/New_York,airport
San Luis County Regional Airport,San Luis Obispo,United States,SBP,KSBP,35.23680115,-120.6419983,212,-8.0,America/Los_Angeles,airport
Sheridan County Airport,Sheridan,United States,SHR,KSHR,44.76919937,-106.9800034,4021,-7.0,America/Denver,airport
Adirondack Regional Airport,Saranac Lake,United States,SLK,KSLK,44.38529968,-74.20619965,1663,-5.0,America/New_York,airport
Salina Municipal Airport,Salina,United States,SLN,KSLN,38.79100037,-97.65219879,1288,-6.0,America/Chicago,airport
Santa Maria Pub/Capt G Allan Hancock Field,Santa Maria,United States,SMX,KSMX,34.89889908,-120.4570007,261,-8.0,America/Los_Angeles,airport
Tupelo Regional Airport,Tupelo,United States,TUP,KTUP,34.26810074,-88.76989746,346,-6.0,America/Chicago,airport
Quincy Regional Baldwin Field,Quincy,United States,UIN,KUIN,39.94269943,-91.19460297,768,-6.0,America/Chicago,airport
Victoria Regional Airport,Victoria,United States,VCT,KVCT,28.8526001,-96.91850281,115,-6.0,America/Chicago,airport
Valdosta Regional Airport,Valdosta,United States,VLD,KVLD,30.78249931,-83.27670288,203,-5.0,America/New_York,airport
Worland Municipal Airport,Worland,United States,WRL,KWRL,43.96569824,-107.95099640000001,4227,-7.0,America/Denver,airport
Yakima Air Terminal McAllister Field,Yakima,United States,YKM,KYKM,46.56819916,-120.5439987,1099,-8.0,America/Los_Angeles,airport
Adak Airport,Adak Island,United States,ADK,PADK,51.87799835,-176.6459961,18,-10.0,America/Adak,airport
Gustavus Airport,Gustavus,United States,GST,PAGS,58.42530060000001,-135.7070007,35,-9.0,America/Anchorage,airport
Skagway Airport,Skagway,United States,SGY,PAGY,59.46009827,-135.31599430000003,44,-9.0,America/Anchorage,airport
Holy Cross Airport,Holy Cross,United States,HCR,PAHC,62.18830109,-159.7749939,70,-9.0,America/Anchorage,airport
Haines Airport,Haines,United States,HNS,PAHN,59.24380112,-135.5240021,15,-9.0,America/Anchorage,airport
Kalskag Airport,Kalskag,United States,KLG,PALG,61.53630066,-160.3410034,55,-9.0,America/Anchorage,airport
McGrath Airport,Mcgrath,United States,MCG,PAMC,62.95289993,-155.60600280000003,341,-9.0,America/Anchorage,airport
Mountain Village Airport,Mountain Village,United States,MOU,PAMO,62.09540176,-163.6820068,337,-9.0,America/Anchorage,airport
Aniak Airport,Aniak,United States,ANI,PANI,61.58160019,-159.5429993,88,-9.0,America/Anchorage,airport
Chevak Airport,Chevak,United States,VAK,PAVA,61.5409,-165.6005,75,-9.0,America/Anchorage,airport
Wrangell Airport,Wrangell,United States,WRG,PAWG,56.48429871,-132.36999509999998,49,-9.0,America/Anchorage,airport
Kalaupapa Airport,Molokai,United States,LUP,PHLU,21.21100044,-156.973999,24,-10.0,Pacific/Honolulu,airport
Aleknagik / New Airport,Aleknagik,United States,WKK,5A8,59.28260039999999,-158.6179962,66,-9.0,America/Anchorage,airport
Brookings Regional Airport,Brookings,United States,BKX,BKX,44.3048,-96.8169,1648,-6.0,America/Chicago,airport
Mercer County Airport,Bluefield,United States,BLF,KBLF,37.29579926,-81.20770264,2857,-5.0,America/New_York,airport
Kearney Municipal Airport,Kearney,United States,EAR,EAR,40.727,-99.0068,2131,-6.0,America/Chicago,airport
Mid Delta Regional Airport,Greenville,United States,GLH,KGLH,33.48289871,-90.98560333,131,-6.0,America/Chicago,airport
Kingman Airport,Kingman,United States,IGM,IGM,35.2595,-113.93799999999999,3449,-7.0,America/Phoenix,airport
Tri Cities Airport,Pasco,United States,PSC,KPSC,46.26470184,-119.1190033,410,-8.0,America/Los_Angeles,airport
Akutan Seaplane Base,Akutan,United States,KQA,KQA,54.13377044,-165.7788956,0,-9.0,America/Anchorage,airport
Grant County Airport,Silver City,United States,SVC,SVC,32.6365,-108.156,5446,-7.0,America/Denver,airport
Lopez Island Airport,Lopez,United States,LPS,S31,48.48389816,-122.9380035,209,-8.0,America/Los_Angeles,airport
Waikoloa Heliport,Waikoloa Village,United States,WKL,HI07,19.9205,-155.8607,119,-10.0,Pacific/Honolulu,airport
Worcester Regional Airport,Worcester,United States,ORH,KORH,42.26729965,-71.87570190000001,1009,-5.0,America/New_York,airport
Bremerton National Airport,Bremerton,United States,PWT,KPWT,47.49020004,-122.7649994,444,-8.0,America/Los_Angeles,airport
Spencer Municipal Airport,Spencer,United States,SPW,KSPW,43.16550064,-95.20279694,1339,-6.0,America/Chicago,airport
Jefferson City Memorial Airport,Jefferson City,United States,JEF,KJEF,38.59120178,-92.15609741,549,-6.0,America/Chicago,airport
Grand Canyon West Airport,Grand Canyon West,United States,GCW,,35.5925,-113.4859,4825,-7.0,America/Phoenix,airport
Boulder City Municipal Airport,Boulder City,United States,BLD,KBVU,35.5651,-114.514,2201,-7.0,America/Phoenix,airport
Provincetown Municipal Airport,Provincetown,United States,PVC,KPVC,42.07189941,-70.2213974,9,-5.0,America/New_York,airport
Kenmore Air Harbor Seaplane Base,Seattle,United States,LKE,KW55,47.629,-122.339,14,-8.0,America/Los_Angeles,airport
Fullerton Municipal Airport,Fullerton,United States,FUL,KFUL,33.87200165,-117.9800034,96,-8.0,America/Los_Angeles,airport
Concord Regional Airport,Concord,United States,,KJQF,35.387798,-80.709099,705,-5.0,America/New_York,airport
Friedman Memorial Airport,Hailey,United States,SUN,KSUN,43.50439835,-114.2959976,5318,-7.0,America/Denver,airport
Mason City Municipal Airport,Mason City,United States,MCW,KMCW,43.15779877,-93.33129883,1213,-6.0,America/Chicago,airport
Phoenix-Mesa-Gateway Airport,Mesa,United States,AZA,KIWA,33.30780029,-111.65499879999999,1382,-7.0,America/Phoenix,airport
Fremont Airport,Fremont,United States,,,41.3331,-83.1612,663,-5.0,America/New_York,airport
Anaktuvuk Pass Airport,Anaktuvuk Pass,United States,AKP,PAKP,68.13359833,-151.7429962,2102,-9.0,America/Anchorage,airport
Anvik Airport,Anvik,United States,ANV,PANV,62.646702000000005,-160.190994,291,-9.0,America/Anchorage,airport
Atqasuk Edward Burnell Sr Memorial Airport,Atqasuk,United States,ATK,PATQ,70.46730042,-157.4360046,96,-9.0,America/Anchorage,airport
Gambell Airport,Gambell,United States,GAM,PAGM,63.76679993,-171.7330017,27,-9.0,America/Anchorage,airport
Hooper Bay Airport,Hooper Bay,United States,HPB,PAHP,61.52389908,-166.1470032,13,-9.0,America/Anchorage,airport
Kaltag Airport,Kaltag,United States,KAL,PAKV,64.31909943,-158.74099730000003,181,-9.0,America/Anchorage,airport
St Mary's Airport,St Mary's,United States,KSM,PASM,62.0605011,-163.30200200000002,312,-9.0,America/Anchorage,airport
Kivalina Airport,Kivalina,United States,KVL,PAVL,67.73619843,-164.56300349999998,13,-9.0,America/Anchorage,airport
Mekoryuk Airport,Mekoryuk,United States,MYU,PAMY,60.37139893,-166.2709961,48,-9.0,America/Anchorage,airport
Point Hope Airport,Point Hope,United States,PHO,PPHO,68.3488,-166.799,12,-9.0,America/Anchorage,airport
Ruby Airport,Ruby,United States,RBY,PARY,64.72720337,-155.47000119999998,658,-9.0,America/Anchorage,airport
Shishmaref Airport,Shishmaref,United States,SHH,PASH,66.249604,-166.089112,12,-9.0,America/Anchorage,airport
Savoonga Airport,Savoonga,United States,SVA,PASA,63.68640137,-170.4929962,53,-9.0,America/Anchorage,airport
Noatak Airport,Noatak,United States,WTK,PAWN,67.56610107,-162.9750061,88,-9.0,America/Anchorage,airport
Arctic Village Airport,Arctic Village,United States,ARC,PARC,68.1147,-145.578995,2092,-9.0,America/Anchorage,airport
Hagerstown Regional Richard A Henson Field,Hagerstown,United States,HGR,KHGR,39.707901,-77.72949982,703,-5.0,America/New_York,airport
Sand Point Airport,Sand Point,United States,SDP,PASD,55.31499863,-160.522995,21,-9.0,America/Anchorage,airport
Deering Airport,Deering,United States,DRG,PADE,66.06960297,-162.7660065,21,-9.0,America/Anchorage,airport
Igiugig Airport,Igiugig,United States,IGG,PAIG,59.32400131,-155.90199280000002,90,-9.0,America/Anchorage,airport
New Stuyahok Airport,New Stuyahok,United States,KNW,PANW,59.44990158,-157.3280029,364,-9.0,America/Anchorage,airport
King Cove Airport,King Cove,United States,KVC,PAVC,55.11629868,-162.2660065,155,-9.0,America/Anchorage,airport
Port Heiden Airport,Port Heiden,United States,PTH,PAPH,56.95909882,-158.6329956,95,-9.0,America/Anchorage,airport
Togiak Airport,Togiak Village,United States,TOG,PATG,59.05279922,-160.3970032,21,-9.0,America/Anchorage,airport
Delta County Airport,Escanaba,United States,ESC,KESC,45.72269821,-87.09369659,609,-5.0,America/New_York,airport
Yakutat Airport,Yakutat,United States,YAK,PAYA,59.50329971,-139.66000369999998,33,-9.0,America/Anchorage,airport
Williamson County Regional Airport,Marion,United States,MWA,KMWA,37.75500107,-89.01110077,472,-6.0,America/Chicago,airport
Ford Airport,Iron Mountain,United States,IMT,KIMT,45.81840134,-88.11450195,1182,-6.0,America/Chicago,airport
Marquette Airport,Marquette,United States,,KMQT,46.53390121,-87.56140137,1424,-5.0,America/New_York,airport
Allakaket Airport,Allakaket,United States,AET,PFAL,66.55180359,-152.621994,441,-9.0,America/Anchorage,airport
Michigan City Municipal Airport,Michigan City,United States,MGC,KMGC,41.70330048,-86.82119751,655,-6.0,America/Chicago,airport
Seward Airport,Seward,United States,SWD,PAWD,60.12689972,-149.4190063,22,-9.0,America/Anchorage,airport
McCarthy Airport,McCarthy,United States,MXY,,61.4370608,-142.9030737,1531,-9.0,America/Anchorage,airport
Porter County Municipal Airport,Valparaiso,United States,NPZ,,41.4539722,-87.0070833,770,-6.0,America/Chicago,airport
Grand Marais Cook County Airport,Grand Marais,United States,GRM,KCKC,47.8382988,-90.38289642,1799,-6.0,America/Chicago,airport
Mackinac Island Airport,Mackinac Island,United States,MCD,,45.864934399999996,-84.637344,740,-5.0,America/New_York,airport
Gogebic Iron County Airport,Ironwood,United States,IWD,,46.527474700000006,-90.13139670000001,1230,-6.0,America/Chicago,airport
Portage Municipal Airport,Portage,United States,C47,,43.5603136,-89.4828607,825,-6.0,America/Chicago,airport
Wausau Downtown Airport,Wausau,United States,AUW,KAUW,44.92620087,-89.62660217,1201,-6.0,America/Chicago,airport
Macomb Municipal Airport,Macomb,United States,MQB,,40.520083299999996,-90.6523889,707,-6.0,America/Chicago,airport
Delaware County Johnson Field,Muncie,United States,MIE,KMIE,40.24229813,-85.39589691,937,-5.0,America/New_York,airport
Miami University Airport,Oxford,United States,OXD,,39.5022607,-84.7843814,1040,-5.0,America/New_York,airport
Purdue University Airport,Lafayette,United States,LAF,KLAF,40.41230011,-86.93689728,606,-5.0,America/New_York,airport
De Kalb Taylor Municipal Airport,De Kalb,United States,DKB,,41.9338342,-88.7056864,914,-6.0,America/Chicago,airport
Grand Geneva Resort Airport,Lake Geneva,United States,C02,,42.6149167,-88.3895833,835,-6.0,America/Chicago,airport
Brown County Airport,Georgetown,United States,,KGEO,38.88190079,-83.88269806,958,-5.0,America/New_York,airport
North Las Vegas Airport,Las Vegas,United States,VGT,KVGT,36.21070099,-115.1940002,2205,-8.0,America/Los_Angeles,airport
Kenosha Regional Airport,Kenosha,United States,ENW,KENW,42.59569931,-87.92780304,742,-6.0,America/Chicago,airport
Clow International Airport,Bolingbrook,United States,1CS,,41.6959744,-88.1292306,670,-6.0,America/Chicago,airport
Montrose Regional Airport,Montrose CO,United States,MTJ,KMTJ,38.50979996,-107.8939972,5759,-7.0,America/Denver,airport
Riverton Regional Airport,Riverton WY,United States,RIW,KRIW,43.06420136,-108.45999909999999,5525,-7.0,America/Denver,airport
Tyonek Airport,Tyonek,United States,TYE,,61.07666700000001,-151.138056,110,-9.0,America/Anchorage,airport
Eastern Oregon Regional At Pendleton Airport,Pendleton,United States,PDT,KPDT,45.69509888,-118.8410034,1497,-8.0,America/Los_Angeles,airport
Door County Cherryland Airport,Sturgeon Bay,United States,SUE,,44.8436667,-87.4215556,725,-6.0,America/Chicago,airport
Cambridge Municipal Airport,Cambridge,United States,CDI,,39.9750278,-81.5775833,799,-5.0,America/New_York,airport
Dowagiac Municipal Airport,Dowagiac,United States,C91,,41.9929342,-86.1280125,748,-5.0,America/New_York,airport
Putnam County Airport,Greencastle,United States,4I7,,39.6335556,-86.8138056,842,-5.0,America/New_York,airport
Galt Field Airport,Greenwood,United States,10C,,42.402888899999994,-88.3751111,875,-6.0,America/Chicago,airport
Waukesha County Airport,Waukesha,United States,UES,,43.0410278,-88.2370556,911,-6.0,America/Chicago,airport
Southwest Michigan Regional Airport,Benton Harbor,United States,BEH,,42.128583299999995,-86.4285,643,-5.0,America/New_York,airport
Wittman Regional Airport,Oshkosh,United States,OSH,KOSH,43.98440170000001,-88.55699921,808,-6.0,America/Chicago,airport
Pangborn Memorial Airport,Wenatchee,United States,EAT,KEAT,47.39889908,-120.2070007,1249,-8.0,America/Los_Angeles,airport
Fortman Airport,St. Marys,United States,1OH,,40.5553253,-84.3866186,885,-5.0,America/New_York,airport
Byron Airport,Byron,United States,,,37.8284,-121.626,79,-8.0,America/Los_Angeles,airport
NAS Fort Worth JRB/Carswell Field,Dallas,United States,,KNFW,32.76919937,-97.4414978,650,-6.0,America/Chicago,airport
Gary Chicago International Airport,Gary,United States,GYY,KGYY,41.61629868,-87.41280365,591,-6.0,America/Chicago,airport
Brainerd Lakes Regional Airport,Brainerd,United States,BRD,KBRD,46.39830017,-94.13809967,1232,-6.0,America/Chicago,airport
Greenbrier Valley Airport,Lewisburg,United States,LWB,KLWB,37.85829926,-80.39949799,2302,-5.0,America/New_York,airport
Pitt Greenville Airport,Greenville,United States,PGV,KPGV,35.6352005,-77.38529968,26,-5.0,America/New_York,airport
Chefornak Airport,Chefornak,United States,CYF,PACK,60.14920044,-164.2859955,40,-9.0,America/Anchorage,airport
Oxnard Airport,Oxnard,United States,OXR,KOXR,34.20080185,-119.2070007,45,-8.0,America/Los_Angeles,airport
Schenectady County Airport,Scotia NY,United States,SCH,KSCH,42.85250092,-73.92890167,378,-5.0,America/New_York,airport
Northeast Florida Regional Airport,St. Augustine Airport,United States,UST,KSGJ,29.95919991,-81.33979797,10,-5.0,America/New_York,airport
Charles M. Schulz Sonoma County Airport,Santa Rosa,United States,STS,KSTS,38.50899887,-122.8130035,128,-8.0,America/Los_Angeles,airport
Kissimmee Gateway Airport,Kissimmee,United States,ISM,KISM,28.28980064,-81.43710327,82,-5.0,America/New_York,airport
Lake City Gateway Airport,Lake City,United States,LCQ,KLCQ,30.18199921,-82.57689667,201,-5.0,America/New_York,airport
Deland Municipal Sidney H Taylor Field,DeLand,United States,,KDED,29.06699944,-81.28379822,79,-5.0,America/New_York,airport
Haller Airpark,Green Cove Springs,United States,,7FL4,29.904057,-81.68515,75,-5.0,America/New_York,airport
Logan-Cache Airport,Logan,United States,LGU,KLGU,41.79119873,-111.85199740000002,4457,-7.0,America/Denver,airport
Brigham City Airport,Brigham City,United States,BMC,KBMC,41.55239868,-112.0619965,4229,-7.0,America/Denver,airport
Malad City Airport,Malad City,United States,MLD,KMLD,42.16659927,-112.29699709999998,4503,-7.0,America/Denver,airport
Aspen-Pitkin Co/Sardy Field,Aspen,United States,ASE,KASE,39.22320175,-106.8690033,7820,-7.0,America/Denver,airport
Mexia - Limestone County Airport,Mexia,United States,LXY,,31.6411783,-96.5144594,544,-6.0,America/Chicago,airport
Kerrville Municipal Louis Schreiner Field,Kerrville,United States,ERV,KERV,29.97669983,-99.08570099,1617,-6.0,America/Chicago,airport
Sussex County Airport,Georgetown,United States,GED,KGED,38.68920135,-75.35890198,53,-5.0,America/New_York,airport
Great Bend Municipal Airport,Great Bend,United States,GBN,KGBD,38.34429932,-98.85919952,1887,-6.0,America/Chicago,airport
Hays Regional Airport,Hays,United States,HYS,KHYS,38.84220123,-99.27320099,1999,-6.0,America/Chicago,airport
Spirit of St Louis Airport,Null,United States,SUS,KSUS,38.66210175,-90.65200043,463,-6.0,America/Chicago,airport
Ely Municipal Airport,Ely,United States,LYU,KELO,47.82450104,-91.83070374,1456,-6.0,America/Chicago,airport
Grand Rapids Itasca Co-Gordon Newstrom field,Grand Rapids MN,United States,GPZ,KGPZ,47.21110153,-93.50980377,1355,-6.0,America/Chicago,airport
Thief River Falls Regional Airport,Thief River Falls,United States,TVF,KTVF,48.06570053,-96.18499756,1119,-6.0,America/Chicago,airport
Eagle River Union Airport,Eagle River,United States,EGV,KEGV,45.93230057,-89.26830292,1642,-6.0,America/Chicago,airport
Lakeland-Noble F. Lee Memorial field,Minocqua - Woodruff,United States,ARV,KARV,45.92789841,-89.73090363,1629,-6.0,America/Chicago,airport
Ankeny Regional Airport,Ankeny,United States,IKV,KIKV,41.69139862,-93.56639862,910,-6.0,America/Chicago,airport
Corpus Christi Naval Air Station/Truax Field,Corpus Christi,United States,NGP,KNGP,27.69260025,-97.29109955,18,-6.0,America/Chicago,airport
Catalina Airport,Catalina Island,United States,AVX,KAVX,33.4049,-118.416,1602,-8.0,America/Los_Angeles,airport
Mojave Airport,Mojave,United States,MHV,KMHV,35.05939865,-118.15200039999999,2801,-8.0,America/Los_Angeles,airport
Kenmore Air Harbor Inc Seaplane Base,Kenmore,United States,KEH,,47.7548,-122.259,14,-8.0,America/Los_Angeles,airport
Hutchinson Municipal Airport,Hutchinson,United States,HUT,KHUT,38.06549835,-97.86060333,1543,-6.0,America/Chicago,airport
Eagle County Airport,Eagle,United States,EGA,,39.6427611,-106.91593470000001,6548,-7.0,America/Denver,airport
Rosecrans Memorial Airport,Rosecrans,United States,STJ,KSTJ,39.77190018,-94.90969849,826,-6.0,America/Chicago,airport
Volk Field,Camp Douglas,United States,VOK,KVOK,43.93899918,-90.25340271,912,-6.0,America/Chicago,airport
Gunnison Crested Butte Regional Airport,Gunnison,United States,GUC,KGUC,38.53390121,-106.9329987,7680,-7.0,America/Denver,airport
Zamperini Field,Torrance,United States,TOA,KTOA,33.80339813,-118.3399963,103,-8.0,America/Los_Angeles,airport
Manistee Co Blacker Airport,Manistee,United States,MBL,KMBL,44.2723999,-86.24690247,621,-5.0,America/New_York,airport
Hickam Air Force Base,Honolulu,United States,,PHIK,21.318680999999998,-157.922427,13,-10.0,Pacific/Honolulu,airport
Charlotte County Airport,Punta Gorda,United States,PGD,KPGD,26.92020035,-81.99050140000001,26,-5.0,America/New_York,airport
Grand Canyon Heliport,Grand Canyon,United States,JGC,,35.96666666,-112.13333329999999,2500,-7.0,America/Phoenix,airport
Northern Aroostook Regional Airport,Frenchville,United States,WFK,KFVE,47.28549957,-68.31279755,988,-5.0,America/New_York,airport
Chautauqua County-Jamestown Airport,Jamestown,United States,JHW,KJHW,42.15340042,-79.25800323,1723,-5.0,America/New_York,airport
Lake Cumberland Regional Airport,Somerset,United States,SME,KSME,37.05339813,-84.61589813,927,-5.0,America/New_York,airport
Shenandoah Valley Regional Airport,Weyers Cave,United States,SHD,KSHD,38.26380157,-78.89640045,1201,-5.0,America/New_York,airport
Devils Lake Regional Airport,Devils Lake,United States,DVL,KDVL,48.11420059,-98.90879822,1456,-6.0,America/Chicago,airport
Dickinson Theodore Roosevelt Regional Airport,Dickinson,United States,DIK,KDIK,46.79740143,-102.802002,2592,-7.0,America/Denver,airport
Sidney Richland Municipal Airport,Sidney,United States,SDY,KSDY,47.70690155,-104.1930008,1985,-7.0,America/Denver,airport
Chadron Municipal Airport,Chadron,United States,CDR,KCDR,42.83760071,-103.0950012,3297,-7.0,America/Denver,airport
Alliance Municipal Airport,Alliance,United States,AIA,KAIA,42.05319977,-102.8040009,3931,-7.0,America/Denver,airport
Mc Cook Ben Nelson Regional Airport,McCook,United States,MCK,KMCK,40.20629883,-100.59200290000001,2583,-6.0,America/Chicago,airport
The Florida Keys Marathon Airport,Marathon,United States,MTH,KMTH,24.72610092,-81.05139923,5,-5.0,America/New_York,airport
Dawson Community Airport,Glendive,United States,GDV,KGDV,47.13869858,-104.8069992,2458,-7.0,America/Denver,airport
L M Clayton Airport,Wolf Point,United States,OLF,KOLF,48.0945015,-105.5749969,1986,-7.0,America/Denver,airport
Yellowstone Airport,West Yellowstone,United States,WYS,KWYS,44.68840027,-111.11799620000001,6649,-7.0,America/Denver,airport
San Luis Valley Regional Bergman Field,Alamosa,United States,ALS,KALS,37.434898,-105.866997,7539,-7.0,America/Denver,airport
Canyonlands Field,Moab,United States,CNY,KCNY,38.75500107,-109.7549973,4557,-7.0,America/Denver,airport
Ely Airport Yelland Field,Ely,United States,ELY,KELY,39.29970169,-114.84200290000001,6259,-8.0,America/Los_Angeles,airport
Vernal Regional Airport,Vernal,United States,VEL,KVEL,40.4408989,-109.5100021,5278,-7.0,America/Denver,airport
Sierra Blanca Regional Airport,Ruidoso,United States,SRR,KSRR,33.46279907,-105.5350037,6814,-7.0,America/Denver,airport
Show Low Regional Airport,Show Low,United States,SOW,KSOW,34.26549912,-110.0059967,6415,-7.0,America/Phoenix,airport
McCall Municipal Airport,McCall,United States,MYL,KMYL,44.88970184,-116.10099790000001,5024,-7.0,America/Denver,airport
Lemhi County Airport,Salmon,United States,SMN,KSMN,45.12379837,-113.8809967,4043,-7.0,America/Denver,airport
Mammoth Yosemite Airport,Mammoth Lakes,United States,MMH,KMMH,37.62409973,-118.83799740000002,7135,-8.0,America/Los_Angeles,airport
Friday Harbor Airport,Friday Harbor,United States,FRD,KFHR,48.52199936,-123.02400209999999,113,-8.0,America/Los_Angeles,airport
Orcas Island Airport,Eastsound,United States,ESD,KORS,48.70819855,-122.9100037,31,-8.0,America/Los_Angeles,airport
Anacortes Airport,Anacortes,United States,OTS,,48.498889,-122.6625,241,-8.0,America/Los_Angeles,airport
Astoria Regional Airport,Astoria,United States,AST,KAST,46.15800095,-123.8789978,15,-8.0,America/Los_Angeles,airport
Newport Municipal Airport,Newport,United States,ONP,KONP,44.58039856,-124.0579987,160,-8.0,America/Los_Angeles,airport
Emmonak Airport,Emmonak,United States,EMK,PAEM,62.78609848,-164.49099730000003,13,-9.0,America/Anchorage,airport
Unalakleet Airport,Unalakleet,United States,UNK,PAUN,63.88840103,-160.798996,27,-9.0,America/Anchorage,airport
Ugnu-Kuparuk Airport,Kuparuk,United States,UUK,PAKU,70.33080292,-149.59800719999998,67,-9.0,America/Anchorage,airport
Shageluk Airport,Shageluk,United States,SHX,PAHX,62.69229889,-159.56900019999998,79,-9.0,America/Anchorage,airport
Chuathbaluk Airport,Chuathbaluk,United States,CHU,PACH,61.579167000000005,-159.215556,243,-9.0,America/Anchorage,airport
Nuiqsut Airport,Nuiqsut,United States,NUI,PAQT,70.20999908,-151.0059967,38,-9.0,America/Anchorage,airport
Eek Airport,Eek,United States,EEK,PAEE,60.21367264,-162.0438843,12,-9.0,America/Anchorage,airport
Kasigluk Airport,Kasigluk,United States,KUK,PFKA,60.87440109,-162.5240021,48,-9.0,America/Anchorage,airport
Kwethluk Airport,Kwethluk,United States,KWT,PFKW,60.79029846,-161.44400019999998,25,-9.0,America/Anchorage,airport
Kwigillingok Airport,Kwigillingok,United States,KWK,PAGG,59.876499,-163.169005,18,-9.0,America/Anchorage,airport
Marshall Don Hunter Sr Airport,Marshall,United States,MLL,PADM,61.86429977,-162.026001,103,-9.0,America/Anchorage,airport
Russian Mission Airport,Russian Mission,United States,RSH,PARS,61.77888489,-161.319458,51,-9.0,America/Anchorage,airport
Tuntutuliak Airport,Tuntutuliak,United States,WTL,,60.335278,-162.666944,16,-9.0,America/Anchorage,airport
Ekwok Airport,Ekwok,United States,KEK,,59.35694399999999,-157.471111,135,-9.0,America/Anchorage,airport
Koliganek Airport,Koliganek,United States,KGK,PAJZ,59.72660065,-157.25900269999997,269,-9.0,America/Anchorage,airport
Levelock Airport,Levelock,United States,KLL,,59.12805600000001,-156.858611,39,-9.0,America/Anchorage,airport
Manokotak Airport,Manokotak,United States,KMO,PAMB,58.99020004,-159.0500031,100,-9.0,America/Anchorage,airport
Twin Hills Airport,Twin Hills,United States,TWA,,59.07444399999999,-160.275,82,-9.0,America/Anchorage,airport
Chalkyitsik Airport,Chalkyitsik,United States,CIK,PACI,66.64499664,-143.7400055,544,-9.0,America/Anchorage,airport
Eagle Airport,Eagle,United States,EAA,PAEG,64.77639771,-141.151001,908,-9.0,America/Anchorage,airport
Hughes Airport,Hughes,United States,HUS,PAHU,66.04109955,-154.26300049999998,299,-9.0,America/Anchorage,airport
Huslia Airport,Huslia,United States,HSL,PAHL,65.69789886,-156.3509979,220,-9.0,America/Anchorage,airport
Livingood Airport,Livingood,United States,LIV,,65.531111,-148.541111,696,-9.0,America/Anchorage,airport
Minto Airport,Minto,United States,MNT,,65.14361099999999,-149.37,460,-9.0,America/Anchorage,airport
Nulato Airport,Nulato,United States,NUL,PANU,64.72930145,-158.0740051,399,-9.0,America/Anchorage,airport
Rampart Airport,Rampart,United States,RMP,,65.507778,-150.14083300000001,302,-9.0,America/Anchorage,airport
Tanana Airport,Tanana,United States,TAL,,65.179556,-152.07583300000002,207,-9.0,America/Anchorage,airport
Venetie Airport,Venetie,United States,VEE,PAVE,67.00869751,-146.36599730000003,574,-9.0,America/Anchorage,airport
Beaver Airport,Beaver,United States,WBQ,PAWB,66.36219788,-147.4069977,359,-9.0,America/Anchorage,airport
Central Airport,Central,United States,CEM,PACE,65.57379913,-144.78300480000001,937,-9.0,America/Anchorage,airport
Shungnak Airport,Shungnak,United States,SHG,PAGH,66.88809967,-157.1620026,197,-9.0,America/Anchorage,airport
Birch Creek Airport,Brich Creek,United States,KBC,,66.25670799999999,-145.815319,450,-9.0,America/Anchorage,airport
Coldfoot Airport,Coldfoot,United States,CXF,,67.251389,-150.17611100000002,1014,-9.0,America/Anchorage,airport
Inyokern Airport,Inyokern,United States,IYK,KIYK,35.65879822,-117.83000179999999,2457,-8.0,America/Los_Angeles,airport
Visalia Municipal Airport,Visalia,United States,VIS,KVIS,36.31869888,-119.3929977,295,-8.0,America/Los_Angeles,airport
Merced Regional Macready Field,Merced,United States,MCE,KMCE,37.28469849,-120.5139999,155,-8.0,America/Los_Angeles,airport
Phoenix Goodyear Airport,Goodyear,United States,,KGYR,33.42250061,-112.3759995,968,-7.0,America/Phoenix,airport
Angoon Seaplane Base,Angoon,United States,AGN,PAGN,57.503601,-134.58500700000002,0,-9.0,America/Anchorage,airport
Elfin Cove Seaplane Base,Elfin Cove,United States,ELV,PAEL,58.19520187,-136.3470001,0,-9.0,America/Anchorage,airport
Tenakee Seaplane Base,Tenakee Springs,United States,TKE,,57.779722,-135.218333,0,-9.0,America/Anchorage,airport
Pelican Seaplane Base,Pelican,United States,PEC,,57.955278,-136.236389,0,-9.0,America/Anchorage,airport
Chatham Seaplane Base,Sitka,United States,CYM,,57.515,-134.946111,0,-9.0,America/Anchorage,airport
Funter Bay Seaplane Base,Funter Bay,United States,FNR,PANR,58.25439835,-134.897995,0,-9.0,America/Anchorage,airport
Excursion Inlet Seaplane Base,Excursion Inlet,United States,EXI,,58.420556000000005,-135.449167,0,-9.0,America/Anchorage,airport
Hoonah Airport,Hoonah,United States,HNH,PAOH,58.0961,-135.410111,19,-9.0,America/Anchorage,airport
Kake Airport,Kake,United States,AFE,PAFE,56.96139908,-133.9100037,172,-9.0,America/Anchorage,airport
Craig Seaplane Base,Craig,United States,CGA,,55.478889,-133.14777800000002,0,-9.0,America/Anchorage,airport
Hollis Seaplane Base,Hollis,United States,HYL,,55.481667,-132.64611100000002,0,-9.0,America/Anchorage,airport
Metlakatla Seaplane Base,Metakatla,United States,MTM,PAMM,55.13100052,-131.5780029,0,-9.0,America/Anchorage,airport
Thorne Bay Seaplane Base,Thorne Bay,United States,KTB,,55.688056,-132.536667,0,-9.0,America/Anchorage,airport
Hydaburg Seaplane Base,Hydaburg,United States,HYG,PAHY,55.20629883,-132.8280029,0,-9.0,America/Anchorage,airport
Hyder Seaplane Base,Hyder,United States,WHD,,55.903332999999996,-130.006667,0,-8.0,America/Vancouver,airport
Point Baker Seaplane Base,Point Baker,United States,KPB,,56.351943999999996,-133.6225,0,-9.0,America/Anchorage,airport
Port Protection Seaplane Base,Port Protection,United States,PPV,,56.328889000000004,-133.61,0,-9.0,America/Anchorage,airport
North Whale Seaplane Base,North Whale Pass,United States,WWP,,56.116389,-133.121667,0,-9.0,America/Anchorage,airport
Chignik Lake Airport,Chignik Lake,United States,KCQ,,56.255,-158.77527800000001,50,-9.0,America/Anchorage,airport
Egegik Airport,Egegik,United States,EGX,PAII,58.1855011,-157.375,92,-9.0,America/Anchorage,airport
Chignik Lagoon Airport,Chignik Lagoon,United States,KCL,,56.311111,-158.534167,25,-9.0,America/Anchorage,airport
Chignik Bay Seaplane Base,Chignik,United States,KBW,,56.295556000000005,-158.401398,0,-9.0,America/Anchorage,airport
Perryville Airport,Perryville,United States,KPV,PAPE,55.905998,-159.162993,29,-9.0,America/Anchorage,airport
Pilot Point Airport,Pilot Point,United States,PIP,PAPN,57.58039856,-157.5720062,57,-9.0,America/Anchorage,airport
South Naknek Nr 2 Airport,South Naknek,United States,WSN,PFWS,58.70339966,-157.0079956,162,-9.0,America/Anchorage,airport
Akhiok Airport,Akhiok,United States,AKK,PAKH,56.93870163,-154.18299869999998,44,-9.0,America/Anchorage,airport
Karluk Airport,Karluk,United States,KYK,PAKY,57.56710052,-154.4499969,137,-9.0,America/Anchorage,airport
Larsen Bay Airport,Larsen Bay,United States,KLN,PALB,57.53509903,-153.9779968,87,-9.0,America/Anchorage,airport
Old Harbor Airport,Old Harbor,United States,OLH,,57.218056000000004,-153.269722,55,-9.0,America/Anchorage,airport
Ouzinkie Airport,Ouzinkie,United States,KOZ,,57.922876,-152.50051100000002,55,-9.0,America/Anchorage,airport
Port Lions Airport,Port Lions,United States,ORI,,57.885278,-152.846111,52,-9.0,America/Anchorage,airport
Alitak Seaplane Base,Lazy Bay,United States,ALZ,,56.899443999999995,-154.247778,0,-9.0,America/Anchorage,airport
Amook Bay Seaplane Base,Amook Bay,United States,AOS,,57.471389,-153.815278,0,-9.0,America/Anchorage,airport
Kitoi Bay Seaplane Base,Kitoi Bay,United States,KKB,,58.190833,-152.370556,0,-9.0,America/Anchorage,airport
Moser Bay Seaplane Base,Moser Bay,United States,KMY,,57.02555600000001,-154.145833,0,-9.0,America/Anchorage,airport
Olga Bay Seaplane Base,Olga Bay,United States,KOY,,57.161389,-154.229722,0,-9.0,America/Anchorage,airport
Port Bailey Seaplane Base,Port Bailey,United States,KPY,,57.93,-153.040556,0,-9.0,America/Anchorage,airport
Port Williams Seaplane Base,Port Williams,United States,KPR,,58.49,-152.582222,0,-9.0,America/Anchorage,airport
Seal Bay Seaplane Base,Seal Bay,United States,SYB,,58.166667000000004,-152.5,0,-9.0,America/Anchorage,airport
San Juan - Uganik Seaplane Base,San Juan,United States,WSJ,,57.730278000000006,-153.320556,0,-9.0,America/Anchorage,airport
West Point Village Seaplane Base,West Point,United States,KWP,,57.77,-153.548889,0,-9.0,America/Anchorage,airport
Zachar Bay Seaplane Base,Zachar Bay,United States,KZB,,57.55,-153.75,0,-9.0,America/Anchorage,airport
Ambler Airport,Ambler,United States,ABL,PAFM,67.10630035,-157.8569946,334,-9.0,America/Anchorage,airport
Buckland Airport,Buckland,United States,BKC,PABL,65.9815979,-161.1490021,31,-9.0,America/Anchorage,airport
Bob Baker Memorial Airport,Kiana,United States,IAN,PAIK,66.97599792,-160.43699650000002,166,-9.0,America/Anchorage,airport
Kobuk Airport,Kobuk,United States,OBU,PAOB,66.91230011,-156.8970032,137,-9.0,America/Anchorage,airport
Robert (Bob) Curtis Memorial Airport,Noorvik,United States,ORV,PFNO,66.81790161,-161.01899719999997,55,-9.0,America/Anchorage,airport
Selawik Airport,Selawik,United States,WLK,PASK,66.60009766,-159.98599240000001,17,-9.0,America/Anchorage,airport
Brevig Mission Airport,Brevig Mission,United States,KTS,PFKT,65.33129883,-166.4660034,38,-9.0,America/Anchorage,airport
Elim Airport,Elim,United States,ELI,PFEL,64.61470032,-162.2720032,162,-9.0,America/Anchorage,airport
Golovin Airport,Golovin,United States,GLV,PAGL,64.55049896,-163.0070038,59,-9.0,America/Anchorage,airport
Teller Airport,Teller,United States,TLA,PATE,65.24040222,-166.3390045,294,-9.0,America/Anchorage,airport
Wales Airport,Wales,United States,WAA,PAIW,65.62259300000001,-168.095,22,-9.0,America/Anchorage,airport
White Mountain Airport,White Mountain,United States,WMO,PAWM,64.68920136,-163.4129944,267,-9.0,America/Anchorage,airport
Council Airport,Council,United States,CIL,,64.897778,-163.70333300000001,85,-9.0,America/Anchorage,airport
Koyuk Alfred Adams Airport,Koyuk,United States,KKA,PAKK,64.93949889999999,-161.154007,154,-9.0,America/Anchorage,airport
St Michael Airport,St. Michael,United States,SMK,PAMK,63.49010086,-162.1100006,98,-9.0,America/Anchorage,airport
Shaktoolik Airport,Shaktoolik,United States,SKK,PFSH,64.37110138,-161.223999,24,-9.0,America/Anchorage,airport
Stebbins Airport,Stebbins,United States,WBB,,63.51583299999999,-162.278056,14,-9.0,America/Anchorage,airport
Tin City Long Range Radar Station Airport,Tin City,United States,TNC,PATC,65.56310272,-167.9219971,271,-9.0,America/Anchorage,airport
Atka Airport,Atka,United States,AKB,PAAK,52.22029877,-174.2059937,57,-10.0,America/Adak,airport
Icy Bay Airport,Icy Bay,United States,ICY,,59.968889000000004,-141.661667,50,-9.0,America/Anchorage,airport
Yakataga Airport,Yakataga,United States,CYT,PACY,60.08200073,-142.4929962,12,-9.0,America/Anchorage,airport
Alakanuk Airport,Alakanuk,United States,AUK,PAUK,62.68004227,-164.6599274,10,-9.0,America/Anchorage,airport
Sheldon Point Airport,Nunam Iqua,United States,SXP,,62.520556000000006,-164.847778,12,-9.0,America/Anchorage,airport
Kipnuk Airport,Kipnuk,United States,KPN,PAKI,59.93299866,-164.03100590000003,11,-9.0,America/Anchorage,airport
False Pass Airport,False Pass,United States,KFP,PAKF,54.84740067,-163.41000369999998,20,-9.0,America/Anchorage,airport
Nelson Lagoon Airport,Nelson Lagoon,United States,NLG,PAOU,56.00749969,-161.16000369999998,14,-9.0,America/Anchorage,airport
Port Moller Airport,Cold Bay,United States,PML,PAAL,56.00600052,-160.5610046,20,-9.0,America/Anchorage,airport
Klawock Airport,Klawock,United States,KLW,PAKW,55.57920074,-133.076004,80,-9.0,America/Anchorage,airport
Quinhagak Airport,Quinhagak,United States,KWN,PAQH,59.75510025,-161.84500119999998,42,-9.0,America/Anchorage,airport
Kotlik Airport,Kotlik,United States,KOT,PFKO,63.0306015,-163.53300480000001,15,-9.0,America/Anchorage,airport
Koyukuk Airport,Koyukuk,United States,KYU,PFKU,64.87609863,-157.727005,149,-9.0,America/Anchorage,airport
Scammon Bay Airport,Scammon Bay,United States,SCM,PACM,61.84529877,-165.5709991,14,-9.0,America/Anchorage,airport
Nondalton Airport,Nondalton,United States,NNL,PANO,59.98020172,-154.8390045,314,-9.0,America/Anchorage,airport
Pedro Bay Airport,Pedro Bay,United States,PDB,,59.782222,-154.1325,45,-9.0,America/Anchorage,airport
Nunapitchuk Airport,Nunapitchuk,United States,NUP,,60.905832999999994,-162.439167,12,-9.0,America/Anchorage,airport
Kongiganak Airport,Kongiganak,United States,KKH,PADY,59.96080017,-162.8809967,30,-9.0,America/Anchorage,airport
Nikolai Airport,Nikolai,United States,NIB,PAFS,63.01860046,-154.3580017,441,-9.0,America/Anchorage,airport
Takotna Airport,Takotna,United States,TCT,,62.97194399999999,-156.082778,825,-9.0,America/Anchorage,airport
Pilot Station Airport,Pilot Station,United States,PQS,,61.93444399999999,-162.899444,305,-9.0,America/Anchorage,airport
Akiak Airport,Akiak,United States,AKI,PFAK,60.9029007,-161.23100280000003,30,-9.0,America/Anchorage,airport
Tuluksak Airport,Tuluksak,United States,TLT,,61.09694399999999,-160.96944399999998,30,-9.0,America/Anchorage,airport
Grayling Airport,Grayling,United States,KGX,,62.89444399999999,-160.065,99,-9.0,America/Anchorage,airport
Wainwright Airport,Wainwright,United States,AIN,PAWI,70.63800049,-159.99499509999998,41,-9.0,America/Anchorage,airport
Chenega Bay Airport,Chenega,United States,NCN,PFCB,60.07730103,-147.9920044,72,-9.0,America/Anchorage,airport
Chisana Airport,Chisana,United States,CZN,,62.071111,-142.048333,1011,-9.0,America/Anchorage,airport
Tok Junction Airport,Tok,United States,TKJ,PFTO,63.32949829,-142.9539948,1639,-9.0,America/Anchorage,airport
Circle City /New/ Airport,Circle,United States,IRC,PACR,65.83049799999999,-144.076008,613,-9.0,America/Anchorage,airport
Coffman Cove Seaplane Base,Coffman Cove,United States,KCC,,56.014722,-132.833889,0,-9.0,America/Anchorage,airport
Crooked Creek Airport,Crooked Creek,United States,CKD,,61.867778,-158.135,178,-9.0,America/Anchorage,airport
Red Devil Airport,Red Devil,United States,RDV,,61.788056000000005,-157.350278,174,-9.0,America/Anchorage,airport
Sleetmute Airport,Sleetmute,United States,SLQ,PASL,61.70050049,-157.1660004,190,-9.0,America/Anchorage,airport
Stony River 2 Airport,Stony River,United States,SRV,,61.7875,-156.591111,230,-9.0,America/Anchorage,airport
Healy River Airport,Healy,United States,HKB,PAHV,63.86619949,-148.96899409999997,1263,-9.0,America/Anchorage,airport
Kake Seaplane Base,Kake,United States,KAE,,56.97305600000001,-133.945556,0,-9.0,America/Anchorage,airport
Klawock Seaplane Base,Klawock,United States,AQC,PAQC,55.55469894,-133.102005,0,-9.0,America/Anchorage,airport
Minchumina Airport,Lake Minchumina,United States,MHM,PAMH,63.88600159,-152.30200200000002,678,-9.0,America/Anchorage,airport
Manley Hot Springs Airport,Manley Hot Springs,United States,MLY,PAML,64.99759674,-150.64399719999997,270,-9.0,America/Anchorage,airport
St. George Airport,St. George,United States,,,56.577222,-169.663611,125,-9.0,America/Anchorage,airport
Tatitlek Airport,Tatitlek,United States,TEK,,60.8725,-146.691111,62,-9.0,America/Anchorage,airport
Ketchikan harbor Seaplane Base,Ketchikan,United States,WFB,,55.344443999999996,-131.663333,0,-9.0,America/Anchorage,airport
St. Louis Downtown Airport,East St. Louis,United States,CPS,,38.5707244,-90.1562211,413,-6.0,America/Chicago,airport
Eastern WV Regional Airport/Shepherd Field,Martinsburg,United States,MRB,KMRB,39.40190125,-77.98459625,565,-5.0,America/New_York,airport
Rock Hill - York County Airport,Rock Hill,United States,RKH,KUZA,34.9878006,-81.05719757,666,-5.0,America/New_York,airport
Allegheny County Airport,Pittsburgh,United States,AGC,KAGC,40.35440063,-79.93019867,1252,-5.0,America/New_York,airport
Cecil Airport,Jacksonville,United States,,KVQQ,30.21870041,-81.87670136,81,-5.0,America/New_York,airport
Fulton County Airport Brown Field,Atlanta,United States,FTY,KFTY,33.77909851,-84.52140045,841,-5.0,America/New_York,airport
Ohio State University Airport,Columbus,United States,OSU,KOSU,40.07979965,-83.07299805,905,-5.0,America/New_York,airport
Addison Airport,Addison,United States,ADS,KADS,32.96860123,-96.83640289,644,-6.0,America/Chicago,airport
Destin Executive Airport,Destin,United States,DTS,KDTS,30.40010071,-86.47149658,23,-6.0,America/Chicago,airport
Kinston Regional Jetport At Stallings Field,Kinston,United States,ISO,KISO,35.33140183,-77.60880279999999,93,-5.0,America/New_York,airport
First Flight Airport,Kill Devil Hills,United States,FFA,KFFA,36.01819992,-75.67130279999999,13,-5.0,America/New_York,airport
Provo Municipal Airport,Provo,United States,PVU,KPVU,40.21920013,-111.72299960000001,4497,-7.0,America/Denver,airport
Steamboat Springs Bob Adams Field,Steamboat Springs,United States,SBS,KSBS,40.5163002,-106.8659973,6882,-7.0,America/Denver,airport
Delta Municipal Airport,Delta,United States,DTA,KDTA,39.38059998,-112.50800320000002,4759,-7.0,America/Denver,airport
Richfield Municipal Airport,Richfield,United States,RIF,KRIF,38.736400599999996,-112.09899899999999,5301,-7.0,America/Denver,airport
Carbon County Regional/Buck Davis Field,Price,United States,PUC,KPUC,39.61389923,-110.7509995,5957,-7.0,America/Denver,airport
Los Alamos Airport,Los Alamos,United States,LAM,KLAM,35.87979889,-106.2689972,7171,-7.0,America/Denver,airport
Borrego Valley Airport,Borrego Springs,United States,BXS,KBXS,33.2590278,-116.3209722,520,-8.0,America/Los_Angeles,airport
Lake Havasu City Airport,Lake Havasu City,United States,HII,KHII,34.571098,-114.358002,783,-7.0,America/Phoenix,airport
Winslow Lindbergh Regional Airport,Winslow,United States,INW,KINW,35.02190018,-110.72299960000001,4941,-7.0,America/Phoenix,airport
Douglas Municipal Airport,Douglas,United States,DGL,KDGL,31.34259987,-109.5059967,4173,-7.0,America/Phoenix,airport
Bartow Municipal Airport,Bartow,United States,BOW,KBOW,27.94339943,-81.78340149,125,-5.0,America/New_York,airport
Livermore Municipal Airport,Livermore,United States,LVK,KLVK,37.69340134,-121.8199997,400,-8.0,America/Los_Angeles,airport
Mariposa Yosemite Airport,Mariposa,United States,RMY,KMPI,37.51089859,-120.04000090000001,2254,-8.0,America/Los_Angeles,airport
Jacqueline Cochran Regional Airport,Palm Springs,United States,TRM,KTRM,33.62670135,-116.1600037,-115,-8.0,America/Los_Angeles,airport
Santa Monica Municipal Airport,Santa Monica,United States,SMO,KSMO,34.01580048,-118.45099640000001,177,-8.0,America/Los_Angeles,airport
Bermuda Dunes Airport,Palm Springs,United States,UDD,KUDD,33.74840164,-116.27500149999999,73,-8.0,America/Los_Angeles,airport
Scottsdale Airport,Scottsdale,United States,ZSY,KSDL,33.6228981,-111.9110031,1510,-7.0,America/Phoenix,airport
Olympia Regional Airport,Olympia,United States,OLM,KOLM,46.9693985,-122.90299990000001,209,-8.0,America/Los_Angeles,airport
Yolo County Davis Woodland Winters Airport,Davis-Woodland-Winters,United States,DWA,KDWA,38.57910156,-121.8570023,100,-8.0,America/Los_Angeles,airport
Garfield County Regional Airport,Rifle,United States,RIL,KRIL,39.52629852,-107.72699740000002,5548,-7.0,America/Denver,airport
Shively Field,SARATOGA,United States,SAA,KSAA,41.44490051,-106.8239975,7012,-7.0,America/Denver,airport
DeKalb Peachtree Airport,Atlanta,United States,PDK,KPDK,33.87559891,-84.30200195,1003,-5.0,America/New_York,airport
Monroe County Airport,Bloomington,United States,BMG,KBMG,39.14599991,-86.61669922,846,-5.0,America/New_York,airport
Witham Field,Stuart,United States,SUA,KSUA,27.18169975,-80.22109985,16,-5.0,America/New_York,airport
Morristown Municipal Airport,Morristown,United States,MMU,KMMU,40.79940033,-74.41490173,187,-5.0,America/New_York,airport
Napa County Airport,Napa,United States,APC,KAPC,38.2132,-122.280998,35,-8.0,America/Los_Angeles,airport
Brown Field Municipal Airport,San Diego,United States,SDM,KSDM,32.57229996,-116.9800034,526,-8.0,America/Los_Angeles,airport
Pahokee Airport,Pahokee,United States,,,26.789,-80.692,18,-5.0,America/New_York,airport
Venice Municipal Airport,Venice,United States,VNC,KVNC,27.07159996,-82.44029999,18,-5.0,America/New_York,airport
Palm Beach County Glades Airport,Pahokee,United States,PHK,KPHK,26.78499985,-80.69339752,16,-5.0,America/New_York,airport
Northwest Florida Beaches International Airport,Panama City,United States,ECP,KECP,30.357105999999998,-85.79541400000001,69,-6.0,America/Chicago,airport
San Bernardino International Airport,San Bernardino,United States,SBD,KSBD,34.09540176,-117.2350006,1159,-8.0,America/Los_Angeles,airport
San Carlos Airport,San Carlos,United States,SQL,KSQL,37.51190186,-122.25,5,-8.0,America/Los_Angeles,airport
Rocky Mount Wilson Regional Airport,Rocky Mount,United States,RWI,KRWI,35.85630035,-77.89189911,159,-5.0,America/New_York,airport
Whittier Airport,Whittier,United States,,PAWR,60.77719879,-148.7220001,30,-9.0,America/Anchorage,airport
Soldotna Airport,Soldotna,United States,SXQ,PASX,60.47570038,-151.0339966,113,-9.0,America/Anchorage,airport
Gillespie Field,El Cajon,United States,SEE,KSEE,32.82619858,-116.97200009999999,388,-8.0,America/Los_Angeles,airport
San Clemente Island Naval Auxiliary Landing Field,San Clemente Island,United States,,KNUC,33.02270126,-118.58799740000002,184,-8.0,America/Los_Angeles,airport
Truckee Tahoe Airport,Truckee,United States,TKF,KTRK,39.31999969,-120.1399994,5900,-8.0,America/Los_Angeles,airport
Cobb County-Mc Collum Field,Atlanta,United States,RYY,KRYY,34.01319885,-84.59860229,1040,-5.0,America/New_York,airport
Oneonta Municipal Airport,Oneonta,United States,ONH,,42.524722,-75.064444,1763,-5.0,America/New_York,airport
Dell Flight Strip,Dell,United States,4U9,K4U9,44.7356987,-112.72000120000001,6007,-7.0,America/Denver,airport
Mission Field,Livingston-Montana,United States,LVM,KLVM,45.69940186,-110.447998,4660,-7.0,America/Denver,airport
Big Timber Airport,Big Timber,United States,6S0,K6S0,45.8064003,-109.9810028,4492,-7.0,America/Denver,airport
Tulip City Airport,Holland,United States,BIV,KBIV,42.74290085,-86.10739899,698,-5.0,America/New_York,airport
Monument Valley Airport,Monument Valley,United States,,UT25,37.01670074,-110.20099640000001,5192,-7.0,America/Denver,airport
West 30th St. Heliport,New York,United States,JRA,KJRA,40.7545,-74.0071,7,-5.0,America/New_York,airport
Lakeland Linder Regional Airport,Lakeland,United States,LAL,KLAL,27.98889923,-82.01860046,142,-5.0,America/New_York,airport
Indianola Municipal Airport,New York,United States,IDL,KIDL,33.485699,-90.67890200000001,126,-6.0,America/Chicago,airport
French Valley Airport,Murrieta-Temecula,United States,RBK,KF70,33.57419968,-117.12799840000002,1350,-8.0,America/Los_Angeles,airport
Carl R Keller Field,Port Clinton,United States,PCW,KPCW,41.5163002,-82.86869812,590,-5.0,America/New_York,airport
Dayton-Wright Brothers Airport,Dayton,United States,MGY,KMGY,39.58900070000001,-84.22489929,957,-5.0,America/New_York,airport
Richmond Municipal Airport,Richmond,United States,RID,KRID,39.75719833,-84.84279633,1140,-5.0,America/New_York,airport
Findlay Airport,Findley,United States,FDY,KFDY,41.01350021,-83.66870117,813,-5.0,America/New_York,airport
Black Hills Airport-Clyde Ice Field,Spearfish-South Dakota,United States,SPF,KSPF,44.480300899999996,-103.78299709999999,3931,-7.0,America/Denver,airport
Olive Branch Airport,Olive Branch,United States,OLV,KOLV,34.97869873,-89.78690338,402,-6.0,America/Chicago,airport
Rocky Mountain Metropolitan Airport,Broomfield-CO,United States,BJC,KBJC,39.90879822,-105.11699679999998,5673,-7.0,America/Denver,airport
Salem Municipal Airport/McNary Field,Salem,United States,SLE,KSLE,44.90950012,-123.00299840000002,214,-8.0,America/Los_Angeles,airport
Tunica Municipal Airport,Tunica,United States,UTM,KUTA,34.68099976,-90.34670258,194,-6.0,America/Chicago,airport
Lawrence J Timmerman Airport,Milwaukee,United States,MWC,KMWC,43.11040115,-88.03440094,745,-6.0,America/Chicago,airport
Southern Wisconsin Regional Airport,Janesville,United States,JVL,KJVL,42.62030029,-89.04160309,808,-6.0,America/Chicago,airport
Arlington Municipal Airport,Arlington,United States,GKY,KGKY,32.66389847,-97.09429932,628,-6.0,America/Chicago,airport
Gwinnett County Briscoe Field,Lawrenceville,United States,LZU,KLZU,33.97809982,-83.96240234,1061,-5.0,America/New_York,airport
Bowling Green Warren County Regional Airport,Bowling Green,United States,BWG,KBWG,36.96450043,-86.41970062,547,-6.0,America/Chicago,airport
Richard Lloyd Jones Jr Airport,Tulsa,United States,RVS,KRVS,36.03960037,-95.98459625,638,-6.0,America/Chicago,airport
Bryce Canyon Airport,Bryce Canyon,United States,BCE,KBCE,37.70640183,-112.1449966,7590,-7.0,America/Denver,airport
Burlington Alamance Regional Airport,Burlington,United States,,KBUY,36.04850006,-79.47489929,617,-5.0,America/New_York,airport
New Century Aircenter Airport,Olathe,United States,JCI,KIXD,38.83089828,-94.89029694,1087,-6.0,America/Chicago,airport
Easton Newnam Field,Easton,United States,ESN,KESN,38.80419922,-76.06900024,72,-5.0,America/New_York,airport
Yuba County Airport,Yuba City,United States,MYV,KMYV,39.09780121,-121.5699997,64,-8.0,America/Los_Angeles,airport
Halliburton Field,Duncan,United States,DUC,KDUC,34.47090149,-97.95989990000001,1114,-6.0,America/Chicago,airport
Chinle Municipal Airport,Chinle,United States,E91,,36.1108806,-109.5754222,5547,-7.0,America/Denver,airport
Garner Field,Uvalde,United States,UVA,KUVA,29.2112999,-99.74359894,942,-6.0,America/Chicago,airport
Lewis University Airport,Lockport,United States,LOT,KLOT,41.6072998,-88.09619904,679,-6.0,America/Chicago,airport
Buchanan Field,Concord,United States,CCR,KCCR,37.98970032,-122.0569992,26,-8.0,America/Los_Angeles,airport
Ocean Reef Club Airport,Ocean Reef Club Airport,United States,OCA,07FA,25.3253994,-80.27480316,8,-5.0,America/New_York,airport
Ohio University Snyder Field,Athens,United States,,KUNI,39.21099854,-82.23139954,766,-5.0,America/New_York,airport
Springfield-Beckley Municipal Airport,Springfield,United States,SGH,KSGH,39.84030151,-83.84020233,1051,-5.0,America/New_York,airport
Miami Seaplane Base,Miami,United States,MPB,,25.7783,-80.1703,0,-5.0,America/New_York,airport
Philip Billard Municipal Airport,Topeka,United States,TOP,KTOP,39.06869888,-95.62249756,881,-6.0,America/Chicago,airport
Emporia Municipal Airport,Emporia,United States,,,38.3321,-96.1912,1208,-6.0,America/Chicago,airport
Benson Airstrip,Uvalde,United States,,2XS8,29.22940063,-99.82389832,929,-6.0,America/Chicago,airport
Rough River State Park Airport,Null,United States,,K2I3,37.610022,-86.507262,577,-6.0,America/Chicago,airport
Smyrna Airport,Smyrna,United States,,KMQY,36.00899887,-86.52010345,543,-6.0,America/Chicago,airport
Franklin County Airport,Sewanee,United States,,KUOS,35.20510101,-85.89810181,1953,-6.0,America/Chicago,airport
Collin County Regional At Mc Kinney Airport,DALLAS,United States,TKI,KTKI,33.17789841,-96.59049988,585,-6.0,America/Chicago,airport
Chicago Executive Airport,Chicago-Wheeling,United States,PWK,KPWK,42.114222,-87.901494,647,-6.0,America/Chicago,airport
Southwest Washington Regional Airport,Kelso,United States,KLS,KKLS,46.11800003,-122.89800259999998,20,-8.0,America/Los_Angeles,airport
Put-in-Bay Airport,Put-in-Bay,United States,3W2,,41.3521,-82.49700000000001,595,-5.0,America/New_York,airport
Lynden Airport,Lynden,United States,38W,,48.955896100000004,-122.4581183,106,-8.0,America/Los_Angeles,airport
Wilmington Airpark,Wilmington,United States,ILN,KILN,39.42789841,-83.792099,1077,-5.0,America/New_York,airport
Marana Regional Airport,Tucson,United States,AVW,KAVQ,32.4095993,-111.21800230000001,2031,-7.0,America/Phoenix,airport
Casa Grande Municipal Airport,Casa Grande,United States,CGZ,KCGZ,32.954899,-111.766998,1464,-7.0,America/Phoenix,airport
Mobile Airport,Mobile,United States,,1AZ0,33.11190033,-112.2689972,1261,-7.0,America/Phoenix,airport
Buckeye Municipal Airport,Buckeye,United States,BXK,KBXK,33.42039871,-112.685997,1033,-7.0,America/Phoenix,airport
Gila Bend Municipal Airport,Gila Bend,United States,E63,KE63,32.95809937,-112.6780014,789,-7.0,America/Phoenix,airport
McMinn County Airport,Athens,United States,MMI,KMMI,35.39730072,-84.56259918,875,-5.0,America/New_York,airport
Sterling Municipal Airport,Sterling,United States,STK,KSTK,40.61529922,-103.26499940000001,4040,-7.0,America/Denver,airport
Rawlins Municipal Airport/Harvey Field,Rawlins,United States,RWL,KRWL,41.80559921,-107.1999969,6813,-7.0,America/Denver,airport
Essex County Airport,Caldwell,United States,CDW,KCDW,40.87519836,-74.28140259,173,-5.0,America/New_York,airport
Lee C Fine Memorial Airport,Kaiser Lake Ozark,United States,AIZ,KAIZ,38.09600067,-92.54949951,869,-6.0,America/Chicago,airport
Thomasville Regional Airport,Thomasville,United States,TVI,KTVI,30.90159988,-83.88130188,264,-5.0,America/New_York,airport
Henderson Executive Airport,Henderson,United States,HSH,KHND,35.97280121,-115.1340027,2492,-8.0,America/Los_Angeles,airport
Henry Tift Myers Airport,Tifton,United States,TMA,KTMA,31.42900085,-83.4885025,355,-5.0,America/New_York,airport
Phoenix Deer Valley Airport,Phoenix ,United States,DVT,KDVT,33.68830109,-112.08300020000001,1478,-7.0,America/Phoenix,airport
Republic Airport,Farmingdale,United States,,KFRG,40.72880173,-73.41339874,82,-5.0,America/New_York,airport
South Texas Regional Airport at Hondo,Hondo,United States,HDO,KHDO,29.35950089,-99.17669678,930,-6.0,America/Chicago,airport
McKinley National Park Airport,McKinley Park,United States,MCL,PAIN,63.73260117,-148.9109955,1720,-9.0,America/Anchorage,airport
Lake Hood Seaplane Base,Anchorage,United States,LHD,PALH,61.18000031,-149.9720001,71,-9.0,America/Anchorage,airport
Prospect Creek Airport,Prospect Creek,United States,PPC,PAPR,66.81410217,-150.64399719999997,1095,-9.0,America/Anchorage,airport
Wheeling Ohio County Airport,Wheeling,United States,HLG,KHLG,40.17499924,-80.64630127,1195,-5.0,America/New_York,airport
Fitzgerald Municipal Airport,Fitzgerald,United States,FZG,KFZG,31.68370056,-83.27050018,365,-5.0,America/New_York,airport
Perry-Foley Airport,Perry,United States,40J,,30.0692778,-83.5805833,44,-5.0,America/New_York,airport
Cairo-Grady County Airport,Cairo,United States,70J,,30.8879767,-84.1547353,265,-5.0,America/New_York,airport
Aransas County Airport,Rockport,United States,RKP,KRKP,28.08679962,-97.04460144,24,-6.0,America/Chicago,airport
Crisp County Cordele Airport,Cordele,United States,CKF,KCKF,31.98880005,-83.77390289,310,-5.0,America/New_York,airport
Ormond Beach Municipal Airport,Ormond Beach,United States,OMN,KOMN,29.30060005,-81.11360168,29,-5.0,America/New_York,airport
Portland Troutdale Airport,Troutdale,United States,TTD,KTTD,45.54940033,-122.40100100000001,39,-8.0,America/Los_Angeles,airport
Portland Hillsboro Airport,Hillsboro,United States,HIO,KHIO,45.540401,-122.949997,208,-8.0,America/Los_Angeles,airport
One Police Plaza Heliport,New York,United States,,NK39,40.71260071,-73.99960327,244,-5.0,America/New_York,airport
Suwannee County Airport,Live Oak,United States,24J,,30.300125,-83.0246944,104,-5.0,America/New_York,airport
Bend Municipal Airport,Bend,United States,,KBDN,44.09479904,-121.20099640000001,3460,-8.0,America/Los_Angeles,airport
Christmas Valley Airport,Christmas Valley,United States,,K62S,43.23649979,-120.6660004,4317,-8.0,America/Los_Angeles,airport
Burns Municipal Airport,Burns,United States,,KBNO,43.59189987,-118.95500179999999,4148,-8.0,America/Los_Angeles,airport
Prineville Airport,Prineville,United States,,KS39,44.28699875,-120.9039993,3250,-8.0,America/Los_Angeles,airport
Red Bluff Municipal Airport,Red Bluff,United States,,KRBL,40.15069962,-122.2519989,352,-8.0,America/Los_Angeles,airport
Marin County Airport - Gnoss Field,Novato,United States,,KDVO,38.14360046,-122.5559998,2,-8.0,America/Los_Angeles,airport
Lake County Airport,Lakeview,United States,,KLKV,42.16109848,-120.39900209999999,4733,-8.0,America/Los_Angeles,airport
Tillamook Airport,Tillamook,United States,,KTMK,45.41820145,-123.814003,36,-8.0,America/Los_Angeles,airport
Ontario Municipal Airport,Ontario,United States,,KONO,44.02050018,-117.0139999,2193,-7.0,America/Denver,airport
Columbia Gorge Regional the Dalles Municipal Airport,The Dalles,United States,,KDLS,45.61849976,-121.16699979999999,247,-8.0,America/Los_Angeles,airport
Montgomery County Airpark,Gaithersburg,United States,GAI,KGAI,39.16830063,-77.16600037,539,-5.0,America/New_York,airport
Charlevoix Municipal Airport,Charelvoix,United States,CVX,KCVX,45.30479813,-85.27480316,669,-5.0,America/New_York,airport
Quincy Municipal Airport,Quincy,United States,2J9,,30.5978708,-84.557425,225,-5.0,America/New_York,airport
Moultrie Municipal Airport,Moultrie,United States,MGR,,31.0849167,-83.80325,294,-5.0,America/New_York,airport
Roche Harbor Seaplane Base,Roche Harbor,United States,RCE,,48.608056,-123.159722,0,-8.0,America/Los_Angeles,airport
Blakely Island Airport,Blakely Island,United States,BYW,,48.56025,-122.80243,0,-8.0,America/Los_Angeles,airport
Rosario Seaplane Base,Rosario,United States,RSJ,,48.645556,-122.86805600000001,0,-8.0,America/Los_Angeles,airport
Westsound Seaplane Base,Westsound,United States,WSX,,48.617778,-122.95277800000001,0,-8.0,America/Los_Angeles,airport
Friday Harbor Seaplane Base,Friday Harbor,United States,FBS,,48.537222,-123.009722,0,-8.0,America/Los_Angeles,airport
Flagler County Airport,Flagler,United States,XFL,KXFL,29.467399600000004,-81.20629883,33,-5.0,America/New_York,airport
Morrisville Stowe State Airport,Morrisville,United States,MVL,KMVL,44.534599299999996,-72.61399841,732,-5.0,America/New_York,airport
Dallas Executive Airport,Dallas,United States,RBD,KRBD,32.68090057,-96.86820221,660,-6.0,America/Chicago,airport
Welke Airport,Beaver Island,United States,6Y8,,45.721111,-85.520278,664,-5.0,America/New_York,airport
Westerly State Airport,Washington County,United States,WST,KWST,41.34960175,-71.80339813,81,-5.0,America/New_York,airport
Block Island State Airport,Block Island,United States,BID,KBID,41.16809845,-71.57779694,108,-5.0,America/New_York,airport
Atmautluak Airport,Atmautluak,United States,,,60.86666700000001,-162.273056,18,-9.0,America/Anchorage,airport
Atmautluak Airport,Atmautluak,United States,,,60.86666700000001,-162.273056,18,-9.0,America/Anchorage,airport
Atmautluak Airport,Atmautluak,United States,369,,60.86666700000001,-162.273056,18,-9.0,America/Anchorage,airport
Nightmute Airport,Nightmute,United States,NME,PAGT,60.47100067,-164.701004,4,-9.0,America/Anchorage,airport
Toksook Bay Airport,Toksook Bay,United States,OOK,PAOO,60.54140091,-165.0870056,59,-9.0,America/Anchorage,airport
Tununak Airport,Tununak,United States,TNK,,60.575556000000006,-165.27166699999998,14,-9.0,America/Anchorage,airport
Goodnews Airport,Goodnews Bay,United States,GNU,,59.1175,-161.5775,15,-9.0,America/Anchorage,airport
Newtok Airport,Newtok,United States,WWT,,60.939167000000005,-164.64111100000002,25,-9.0,America/Anchorage,airport
Decatur County Industrial Air Park,Bainbridge,United States,BGE,KBGE,30.971500399999996,-84.63739777,141,-5.0,America/New_York,airport
Silver Springs Airport,Silver Springs,United States,SPZ,KSPZ,39.40299988,-119.2509995,4269,-8.0,America/Los_Angeles,airport
Whiteman Airport,Los Angeles,United States,WHP,KWHP,34.25930023,-118.413002,1003,-8.0,America/Los_Angeles,airport
Madera Municipal Airport,Madera,United States,MAE,KMAE,36.98860168,-120.11199950000001,255,-8.0,America/Los_Angeles,airport
Mountain Home Municipal Airport,Mountain Home,United States,U76,,43.1316111,-115.73056709999999,3167,-7.0,America/Denver,airport
Jackson County Airport,Jefferson,United States,19A,,34.175863799999995,-83.56159720000001,951,-5.0,America/New_York,airport
Apalachicola Regional Airport,Apalachicola,United States,AAF,KAAF,29.72750092,-85.02749634,20,-5.0,America/New_York,airport
St. Augustine Airport,St. Augustine,United States,SGJ,,29.95925,-81.33972220000001,10,-5.0,America/New_York,airport
Douglas Municipal Airport,Douglas,United States,DQH,KDQH,31.47669983,-82.86049652,257,-5.0,America/New_York,airport
St Lucie County International Airport,Fort Pierce,United States,FRP,KFPR,27.49510002,-80.36830139,24,-5.0,America/New_York,airport
Taunton Municipal King Field,Taunton,United States,TAN,KTAN,41.87440109,-71.01660156,43,-5.0,America/New_York,airport
Plymouth Municipal Airport,Plymouth,United States,PYM,KPYM,41.9090004,-70.72879791,148,-5.0,America/New_York,airport
Quonset State Airport,North Kingstown,United States,OQU,KOQU,41.597099299999996,-71.41210175,18,-5.0,America/New_York,airport
Norwood Memorial Airport,Norwood,United States,OWD,KOWD,42.19049835,-71.17289734,49,-5.0,America/New_York,airport
Barnes Municipal Airport,Westfield,United States,BAF,KBAF,42.157799,-72.715599,271,-5.0,America/New_York,airport
Windham Airport,Willimantic,United States,IJD,KIJD,41.74399948,-72.18029785,247,-5.0,America/New_York,airport
Orange County Airport,Montgomery,United States,MGJ,KMGJ,41.50999832,-74.26460266,364,-5.0,America/New_York,airport
Capital City Airport,Harrisburg,United States,CXY,KCXY,40.21709824,-76.85150146,347,-5.0,America/New_York,airport
Marshfield Municipal George Harlow Field,Marshfield,United States,GHG,KGHG,42.09830093,-70.67220306,11,-5.0,America/New_York,airport
Danbury Municipal Airport,Danbury,United States,DXR,KDXR,41.37149811,-73.48220062,458,-5.0,America/New_York,airport
Boire Field,Nashua,United States,ASH,KASH,42.78170013,-71.51480103,199,-5.0,America/New_York,airport
Lawrence Municipal Airport,Lawrence,United States,LWM,KLWM,42.71720123,-71.12339783,148,-5.0,America/New_York,airport
Waterbury Oxford Airport,Oxford,United States,OXC,KOXC,41.47859955,-73.1352005,726,-5.0,America/New_York,airport
Fitchburg Municipal Airport,Fitchburg,United States,FIT,KFIT,42.55410004,-71.75900269,348,-5.0,America/New_York,airport
Earl L. Small Jr. Field/Stockmar Airport,Villa Rica,United States,,20GA,33.75650024,-84.88469696,1110,-5.0,America/New_York,airport
Cartersville Airport,Cartersville,United States,VPC,KVPC,34.12310028,-84.84870148,759,-5.0,America/New_York,airport
Centre-Piedmont-Cherokee County Regional Airport,Centre,United States,PYP,KPYP,34.089977000000005,-85.610069,596,-6.0,America/Chicago,airport
Richard B Russell Airport,Rome,United States,RMG,KRMG,34.35060120000001,-85.15799713,644,-5.0,America/New_York,airport
Northeast Alabama Regional Airport,Gadsden,United States,GAD,KGAD,33.972599,-86.088996,569,-6.0,America/Chicago,airport
Knoxville Downtown Island Airport,Knoxville,United States,DKX,KDKX,35.96390152,-83.87390137,833,-5.0,America/New_York,airport
Barrow County Airport,Winder,United States,WDR,KWDR,33.98289871,-83.66739655,943,-5.0,America/New_York,airport
Plantation Airpark,Sylvania,United States,JYL,KJYL,32.64530182,-81.5970993,188,-5.0,America/New_York,airport
Dalton Municipal Airport,Dalton,United States,DNN,KDNN,34.72290039,-84.87020111,709,-5.0,America/New_York,airport
West Georgia Regional O V Gray Field,Carrollton,United States,CTJ,KCTJ,33.63100052,-85.15200043,1161,-5.0,America/New_York,airport
Isbell Field Airport,Fort Payne,United States,4A9,,34.4736944,-85.72138890000001,877,-6.0,America/Chicago,airport
Lagrange Callaway Airport,LaGrange,United States,LGC,KLGC,33.00889969,-85.07260132,693,-5.0,America/New_York,airport
Baldwin County Airport,Milledgeville,United States,MLJ,KMLJ,33.15420151,-83.24069977,385,-5.0,America/New_York,airport
Polk County Airport - Cornelius Moore Field,Cedartown,United States,4A4,,34.018694399999994,-85.1464722,974,-5.0,America/New_York,airport
Harris County Airport,Pine Mountain,United States,PIM,KPIM,32.84069824,-84.88240051,902,-5.0,America/New_York,airport
Peachtree City Falcon Field,Atlanta,United States,FFC,KFFC,33.3572998,-84.57180023,808,-5.0,America/New_York,airport
Covington Municipal Airport,Covington,United States,9A1,,33.6323083,-83.8474472,809,-5.0,America/New_York,airport
Lee Gilmer Memorial Airport,Gainesville,United States,GVL,KGVL,34.27259827,-83.8302002,1276,-5.0,America/New_York,airport
Cherokee County Airport,Canton,United States,,KCNI,34.312217499999996,-84.4221556,1219,-5.0,America/New_York,airport
DeFuniak Springs Airport,DeFuniak Springs,United States,54J,,30.731111100000003,-86.1537778,289,-6.0,America/Chicago,airport
Barwick Lafayette Airport,LaFayette,United States,9A5,,34.6884792,-85.2903319,777,-5.0,America/New_York,airport
Harry Clever Field,New Philadelpha,United States,PHD,KPHD,40.47090149,-81.41970062,894,-5.0,America/New_York,airport
Darlington County Jetport Airport,Darlington,United States,UDG,KUDG,34.44940186,-79.89009857,192,-5.0,America/New_York,airport
Hilton Head Airport,Hilton Head Island,United States,HHH,KHXD,32.22439957,-80.69750214,19,-5.0,America/New_York,airport
Gilmer County Airport,Ellijay,United States,49A,,34.6282222,-84.5265833,1486,-5.0,America/New_York,airport
Elizabethton Municipal Airport,Elizabethton,United States,0A9,,36.3712222,-82.1734167,1593,-5.0,America/New_York,airport
Moton Field Municipal Airport,Tuskegee,United States,06A,,32.4605722,-85.68002779999999,264,-6.0,America/Chicago,airport
Daniel Field,Augusta,United States,DNL,KDNL,33.46649933,-82.03939819,423,-5.0,America/New_York,airport
Foothills Regional Airport,Morganton,United States,MRN,KMRN,35.82020187,-81.61139679,1270,-5.0,America/New_York,airport
Pike County-Hatcher Field,Pikeville,United States,PBX,KPBX,37.561798100000004,-82.56639862,1473,-5.0,America/New_York,airport
Mallards Landing Airport,Locust Grove,United States,,GA04,33.36569977,-84.16519928,837,-5.0,America/New_York,airport
Toccoa Airport - R.G. Letourneau Field,Toccoa,United States,TOC,KTOC,34.59379959,-83.29579926,996,-5.0,America/New_York,airport
Tampa Executive Airport,Tampa,United States,VDF,,28.0139772,-82.34527779999999,22,-5.0,America/New_York,airport
Fort Worth Alliance Airport,Fort Worth,United States,AFW,KAFW,32.98759842,-97.31880188,722,-6.0,America/Chicago,airport
East Troy Municipal Airport,East Troy,United States,57C,K57C,42.79719925,-88.37259674,860,-6.0,America/Chicago,airport
Lawrence Municipal Airport,Lawrence,United States,LWC,KLWC,39.01119995,-95.21659851,833,-6.0,America/Chicago,airport
Wellington Municipal Airport,Wellington,United States,EGT,KEGT,37.32360077,-97.38829803,1277,-6.0,America/Chicago,airport
Griffin-Spalding County Airport,Griffin,United States,6A2,,33.2269722,-84.2749444,958,-5.0,America/New_York,airport
Pompano Beach Airpark,Pompano Beach,United States,PMP,KPMP,26.24710083,-80.11109924,19,-5.0,America/New_York,airport
Shelby County Airport,Alabaster,United States,EET,KEET,33.17699814,-86.78279877,586,-6.0,America/Chicago,airport
Sky Ranch At Carefree Airport,Carefree,United States,,18AZ,33.81809998,-111.89800259999998,2568,-7.0,America/Phoenix,airport
Indianapolis Metropolitan Airport,Indianapolis,United States,UMP,KUMP,39.93519974,-86.04499817,811,-5.0,America/New_York,airport
London-Corbin Airport/Magee Field,London,United States,LOZ,KLOZ,37.082199100000004,-84.08489990000001,1212,-5.0,America/New_York,airport
Simmons Army Air Field,Fredericksburg,United States,FBG,KFBG,35.13180161,-78.93669891,244,-5.0,America/New_York,airport
John H Batten Airport,Racine,United States,RAC,KRAC,42.76060104,-87.81520081,674,-6.0,America/Chicago,airport
Redlands Municipal Airport,Redlands,United States,REI,KREI,34.08530045,-117.1460037,1571,-8.0,America/Los_Angeles,airport
Flabob Airport,Riverside,United States,RIR,KRIR,33.98970032,-117.4110031,764,-8.0,America/Los_Angeles,airport
Tacoma Narrows Airport,Tacoma,United States,TIW,KTIW,47.26789856,-122.57800290000002,294,-8.0,America/Los_Angeles,airport
Jack Edwards Airport,Gulf Shores,United States,JKA,KJKA,30.29050064,-87.67179871,17,-6.0,America/Chicago,airport
Hazleton Municipal Airport,Hazleton,United States,HZL,KHZL,40.98680115,-75.99490356,1603,-5.0,America/New_York,airport
Greater Cumberland Regional Airport,Cumberland,United States,CBE,KCBE,39.61539841,-78.7609024,775,-5.0,America/New_York,airport
Sugar Loaf Shores Airport,Key West,United States,,7FA1,24.648799899999997,-81.57980347,4,-5.0,America/New_York,airport
Tri-County Regional Airport,Lone Rock,United States,LNR,KLNR,43.21170044,-90.18160248,717,-6.0,America/Chicago,airport
Price County Airport,Phillips,United States,,KPBH,45.70899963,-90.40249634,1497,-6.0,America/Chicago,airport
Monroe Municipal Airport,Monroe,United States,,KEFT,42.61489868,-89.5904007,1086,-6.0,America/Chicago,airport
Joliet Regional Airport,Joliet,United States,JOT,KJOT,41.51779938,-88.17549896,582,-6.0,America/Chicago,airport
Illinois Valley Regional Airport-Walter A Duncan Field,Peru,United States,VYS,KVYS,41.351898,-89.153099,654,-6.0,America/Chicago,airport
Jackson County Reynolds Field,Jackson,United States,JXN,KJXN,42.25979996,-84.45939636,1001,-5.0,America/New_York,airport
Joseph A. Hardy Connellsville Airport,Connellsville,United States,,KVVS,39.95920181,-79.65709686,1267,-5.0,America/New_York,airport
Bedford County Airport,Bedford,United States,,KHMZ,40.08530045,-78.5121994,1162,-5.0,America/New_York,airport
Wings Field,Philadelphia,United States,BBX,KLOM,40.13750076,-75.26509857,302,-5.0,America/New_York,airport
Okeechobee County Airport,Okeechobee,United States,OBE,KOBE,27.26280022,-80.84980011,34,-5.0,America/New_York,airport
Sebring Regional Airport,Sebring,United States,SEF,KSEF,27.45639992,-81.3423996,62,-5.0,America/New_York,airport
Avon Park Executive Airport,Avon Park,United States,AVO,KAVO,27.59119987,-81.52780151,160,-5.0,America/New_York,airport
Winter Haven Municipal Airport - Gilbert Field,Winter Haven,United States,GIF,KGIF,28.06290054,-81.75330353,145,-5.0,America/New_York,airport
Zephyrhills Municipal Airport,Zephyrhills,United States,ZPH,KZPH,28.22820091,-82.15589905,90,-5.0,America/New_York,airport
Ocala International Airport - Jim Taylor Field,Ocala,United States,OCF,KOCF,29.17259979,-82.22419739,90,-5.0,America/New_York,airport
Jesup Wayne County Airport,Jesup,United States,JES,KJES,31.55400085,-81.88249969,107,-5.0,America/New_York,airport
Madison Municipal Airport,Madison,United States,52A,K52A,33.61209869,-83.46040344,694,-5.0,America/New_York,airport
Newnan Coweta County Airport,Newnan,United States,CCO,KCCO,33.31159973,-84.76979828,970,-5.0,America/New_York,airport
Thomson-McDuffie County Airport,Thomson,United States,HQU,KHQU,33.52970123,-82.51650238,501,-5.0,America/New_York,airport
Aiken Municipal Airport,Aiken,United States,AIK,KAIK,33.64939879999999,-81.68499756,528,-5.0,America/New_York,airport
Woodward Field,Camden,United States,CDN,KCDN,34.28359985,-80.56490326,302,-5.0,America/New_York,airport
Lumberton Regional Airport,Lumberton,United States,LBT,KLBT,34.60990143,-79.05940247,126,-5.0,America/New_York,airport
Ridgeland Airport,Ridgeland,United States,3J1,,32.493416700000004,-80.99175,79,-5.0,America/New_York,airport
Moore County Airport,Pinehurst-Southern Pines,United States,SOP,KSOP,35.23740005,-79.39119720000001,455,-5.0,America/New_York,airport
Richmond County Airport,Rockingham,United States,RCZ,KRCZ,34.8913,-79.759598,358,-5.0,America/New_York,airport
Bamberg County Airport,Bamberg,United States,99N,,33.3045278,-81.1084167,231,-5.0,America/New_York,airport
Richland Airport,Richland Center,United States,93C,,43.2833575,-90.2982819,742,-6.0,America/Chicago,airport
Municipal Airport,Viroqua,United States,Y51,,43.5793603,-90.89647420000001,1292,-6.0,America/Chicago,airport
Baraboo Wisconsin Dells Airport,Baraboo,United States,DLL,KDLL,43.52270126,-89.77020264,979,-6.0,America/Chicago,airport
Statesville Regional Airport,Statesville,United States,SVH,KSVH,35.76530075,-80.9539032,968,-5.0,America/New_York,airport
Sylvania Airport,Sturtevant,United States,C89,,42.70325,-87.9589722,785,-6.0,America/Chicago,airport
Burlington Municipal Airport,Burlington,United States,BUU,KBUU,42.69070053,-88.30460358,779,-6.0,America/Chicago,airport
Stroudsburg-Pocono Airport,East Stroudsburg,United States,N53,,41.0358717,-75.16067890000001,480,-5.0,America/New_York,airport
Spring Hill Airport,Sterling,United States,70N,,41.347356899999994,-75.4158972,1729,-5.0,America/New_York,airport
Randall Airport,Middletown,United States,06N,,41.431912,-74.39156109999999,523,-5.0,America/New_York,airport
William T. Piper Memorial Airport,Lock Haven,United States,LHV,KLHV,41.13560104,-77.42230225,556,-5.0,America/New_York,airport
Grove City Airport,Grove City,United States,29D,,41.1460278,-80.16775,1371,-5.0,America/New_York,airport
Lansdowne Airport,Youngstown,United States,04G,,41.1304722,-80.6195833,1044,-5.0,America/New_York,airport
Ashland County Airport,Ashland,United States,3G4,,40.9029722,-82.25563890000001,1206,-5.0,America/New_York,airport
Pittsburgh-Monroeville Airport,Monroeville,United States,4G0,,40.4526389,-79.7749167,1187,-5.0,America/New_York,airport
Zelienople Municipal Airport,Zelienople,United States,,KPJC,40.80160141,-80.16069794,898,-5.0,America/New_York,airport
Somerset County Airport,Somerset,United States,2G9,,40.0388708,-79.0149951,2275,-5.0,America/New_York,airport
Youngstown Elser Metro Airport,Youngstown,United States,4G4,,40.9617953,-80.67732640000001,1070,-5.0,America/New_York,airport
Braceville Airport,Braceville,United States,41N,,41.2111675,-80.9692572,900,-5.0,America/New_York,airport
Lorain County Regional Airport,Lorain-Elyria,United States,LPR,KLPR,41.34429932,-82.17759705,793,-5.0,America/New_York,airport
Germack Airport,Geneva,United States,7D9,,41.777832200000006,-80.90397970000001,820,-5.0,America/New_York,airport
Burke Lakefront Airport,Cleveland,United States,BKL,KBKL,41.51750183,-81.6832962,583,-5.0,America/New_York,airport
Chautauqua County-Dunkirk Airport,Dunkirk,United States,DKK,KDKK,42.49330139,-79.27200317,693,-5.0,America/New_York,airport
Hamburg Inc Airport,Hamburg,United States,4G2,,42.7008925,-78.9147569,751,-5.0,America/New_York,airport
Trenton-Robbinsville Airport,Trenton,United States,N87,,40.213944399999995,-74.6017778,118,-5.0,America/New_York,airport
South Jersey Regional Airport,Mount Holly,United States,VAY,KVAY,39.94290161,-74.84570313,53,-5.0,America/New_York,airport
Spitfire Aerodrome,Pedricktown,United States,7N7,,39.735563299999995,-75.39772109999998,40,-5.0,America/New_York,airport
Linden Airport,Linden,United States,LDJ,KLDJ,40.61740112,-74.24459839,23,-5.0,America/New_York,airport
Morgantown Airport,Morgantown,United States,O03,,40.1570414,-75.8704892,600,-5.0,America/New_York,airport
Harford County Airport,Churchville,United States,0W3,,39.566837799999995,-76.20240279999999,409,-5.0,America/New_York,airport
Tri State Steuben County Airport,Angola,United States,ANQ,KANQ,41.639702,-85.083504,995,-5.0,America/New_York,airport
Plymouth Municipal Airport,Plymouth,United States,C65,,41.3651307,-86.3002574,800,-5.0,America/New_York,airport
Warsaw Municipal Airport,Warsaw,United States,,KASW,41.27470016,-85.84010315,850,-5.0,America/New_York,airport
Van Wert County Airport,Van Wert,United States,VNW,KVNW,40.86470032,-84.60939789,785,-5.0,America/New_York,airport
Port Bucyrus-Crawford County Airport,Bucyrus,United States,17G,,40.781555600000004,-82.9748056,1003,-5.0,America/New_York,airport
Lake Wales Municipal Airport,Lake Wales,United States,X07,,27.893805600000004,-81.62038890000001,127,-5.0,America/New_York,airport
Brooks Field,Marshall,United States,,KRMY,42.25120163,-84.95549774,941,-5.0,America/New_York,airport
Genesee County Airport,Batavia,United States,GVQ,KGVQ,43.03170013,-78.16760254,914,-5.0,America/New_York,airport
Finger Lakes Regional Airport,Seneca Falls,United States,0G7,,42.88356470000001,-76.7812318,492,-5.0,America/New_York,airport
Stormville Airport,Stormville,United States,N69,,41.5769708,-73.73235140000001,358,-5.0,America/New_York,airport
Williams County Airport,Bryan,United States,0G6,,41.4673056,-84.5067778,730,-5.0,America/New_York,airport
Clearwater Air Park,Clearwater,United States,CLW,KCLW,27.97669983,-82.75869751,71,-5.0,America/New_York,airport
South Lakeland Airport,Lakeland,United States,X49,,27.9333581,-82.04397390000001,110,-5.0,America/New_York,airport
All Airports,New York,United States,NYC,,40.714166999999996,-74.005833,31,-5.0,America/New_York,airport
All Airports,Chicago,United States,CHI,,41.883611,-87.63166700000001,596,-6.0,America/Chicago,airport
Chicago Meigs Airport,Chicago,United States,CGX,KCGX,41.85879898,-87.60790253,593,-6.0,America/Chicago,airport
All Airports,Washington,United States,WAS,,38.889444,-77.035278,25,-5.0,America/New_York,airport
Pickens County Airport,Jasper,United States,JZP,KJZP,34.45339966,-84.45739746,1535,-5.0,America/New_York,airport
Grand Strand Airport,North Myrtle Beach,United States,CRE,KCRE,33.81169891,-78.72389984,32,-5.0,America/New_York,airport
Lansing Municipal Airport,Lansing,United States,IGQ,KIGQ,41.53490067,-87.52950287,620,-6.0,America/Chicago,airport
Ramona Airport,Ramona,United States,RNM,KRNM,33.03919983,-116.91500090000001,1395,-8.0,America/Los_Angeles,airport
Branch County Memorial Airport,Coldwater,United States,OEB,KOEB,41.933399200000004,-85.05259705,959,-5.0,America/New_York,airport
Wilkes Barre Wyoming Valley Airport,Wilkes-Barre,United States,WBW,KWBW,41.29719925,-75.85119629,545,-5.0,America/New_York,airport
Willoughby Lost Nation Municipal Airport,Willoughby,United States,LNN,KLNN,41.68399811,-81.38970184,626,-5.0,America/New_York,airport
Capital City Airport,Frankfort,United States,FFT,KFFT,38.18249893,-84.90470123,806,-5.0,America/New_York,airport
Auburn Lewiston Municipal Airport,Lewiston,United States,LEW,KLEW,44.04850006,-70.28350067,288,-5.0,America/New_York,airport
Martin Campbell Field Airport,Copperhead,United States,1A3,,35.01580560000001,-84.3468333,1789,-5.0,America/New_York,airport
Bloyer Field,Tomah,United States,,KY72,43.97499847,-90.48349762,966,-6.0,America/Chicago,airport
Marco Island Airport,Marco Island Airport,United States,MRK,KMKY,25.99500084,-81.67250061,5,-5.0,America/New_York,airport
Drummond Island Airport,Drummond Island,United States,DRM,KDRM,46.00930023,-83.74389648,668,-5.0,America/New_York,airport
Garland Airport,Lewiston,United States,8M8,,44.8065278,-84.27619440000001,1218,-5.0,America/New_York,airport
Gladwin Zettel Memorial Airport,Gladwin,United States,GDW,KGDW,43.97060013,-84.47499847,776,-5.0,America/New_York,airport
Lowell City Airport,Lowell,United States,24C,,42.953920000000004,-85.3439058,681,-5.0,America/New_York,airport
South Haven Area Regional Airport,South Haven,United States,LWA,KLWA,42.3512001,-86.25569916,666,-5.0,America/New_York,airport
Marshfield Municipal Airport,Marshfield,United States,MFI,KMFI,44.63690186,-90.18930054,1277,-6.0,America/Chicago,airport
Alexander Field South Wood County Airport,Wisconsin Rapids,United States,ISW,KISW,44.36029816,-89.83899689,1021,-6.0,America/Chicago,airport
Clinton Municipal Airport,Clinton,United States,CWI,KCWI,41.83110046,-90.32910156,708,-6.0,America/Chicago,airport
Beverly Municipal Airport,Beverly,United States,BVY,KBVY,42.58420181,-70.91649628,107,-5.0,America/New_York,airport
Oakdale Airport,Oakdale,United States,O27,,37.7563333,-120.80019440000001,237,-8.0,America/Los_Angeles,airport
Poplar Bluff Municipal Airport,Poplar Bluff,United States,POF,KPOF,36.77389908,-90.32489777,331,-6.0,America/Chicago,airport
Somerset Airport,Somerville,United States,,KSMQ,40.62599945,-74.67019653,105,-5.0,America/New_York,airport
Eastport Municipal Airport,Eastport,United States,EPM,KEPM,44.91009903,-67.01270294,45,-5.0,America/New_York,airport
Keokuk Municipal Airport,Keokuk,United States,EOK,KEOK,40.4598999,-91.42849731,671,-6.0,America/Chicago,airport
Banks Airport,Swans Island,United States,ME5,,44.165388899999996,-68.4281667,100,-5.0,America/New_York,airport
St Paul Downtown Holman Field,St. Paul,United States,STP,KSTP,44.93450165,-93.05999756,705,-6.0,America/Chicago,airport
Bagdad Airport,Bagdad,United States,E51,,34.595852799999996,-113.17019499999999,4183,-7.0,America/Phoenix,airport
Oconomowoc Airport,Oconomowoc,United States,,0WI8,43.13890076,-88.47229767,885,-6.0,America/Chicago,airport
Ocean Ridge Airport,Gualala,United States,E55,,38.8016111,-123.5306389,940,-8.0,America/Los_Angeles,airport
Kent State Airport,Kent,United States,1G3,,41.15138889999999,-81.41511109999999,1134,-5.0,America/New_York,airport
Butler Co Regional Airport - Hogan Field,Hamilton,United States,,KHAO,39.36380005,-84.52200317,633,-5.0,America/New_York,airport
Fond du Lac County Airport,Fond du Lac,United States,FLD,KFLD,43.77119827,-88.48840332,808,-6.0,America/Chicago,airport
Waupaca Municipal Airport,Waupaca,United States,PCZ,KPCZ,44.33330154,-89.01979828,840,-6.0,America/Chicago,airport
Stevens Point Municipal Airport,Stevens Point,United States,STE,KSTE,44.54520035,-89.53029633,1110,-6.0,America/Chicago,airport
Luce County Airport,Newberry,United States,ERY,KERY,46.31119919,-85.45729828,869,-5.0,America/New_York,airport
Forest Lake Airport,Forest Lake,United States,25D,,45.2477456,-92.9943853,925,-6.0,America/Chicago,airport
Galion Municipal Airport,Galion,United States,GQQ,KGQQ,40.7533989,-82.72380066,1224,-5.0,America/New_York,airport
ClarksvilleâMontgomery County Regional Airport,Clarksville,United States,CKV,KCKV,36.62189865,-87.41500092,550,-6.0,America/Chicago,airport
Lompoc Airport,Lompoc,United States,LPC,KLPC,34.66559982,-120.46800230000001,88,-8.0,America/Los_Angeles,airport
Chester County G O Carlson Airport,Coatesville,United States,CTH,KMQS,39.97900009,-75.86550140000001,660,-5.0,America/New_York,airport
Lake Placid Airport,Lake Placid,United States,LKP,KLKP,44.26449966,-73.9618988,1747,-5.0,America/New_York,airport
Lima Allen County Airport,Lima,United States,AOH,KAOH,40.706902,-84.026703,975,-5.0,America/New_York,airport
Malcolm McKinnon Airport,Brunswick,United States,SSI,KSSI,31.15180016,-81.39129639,19,-5.0,America/New_York,airport
Beaver County Airport,Beaver Falls,United States,BFP,KBVI,40.77249908,-80.3914032,1253,-5.0,America/New_York,airport
Seaplane Base,Winterhaven,United States,F57,,28.0575,-81.7628056,140,-5.0,America/New_York,airport
Georgetown County Airport,Georgetown,United States,GGE,KGGE,33.31169891,-79.31960297,39,-5.0,America/New_York,airport
Hardwick Field,Cleveland,United States,HDI,KHDI,35.22010039999999,-84.83239746,874,-5.0,America/New_York,airport
Mark Anton Airport,Dayton,United States,2A0,,35.48625,-84.9310833,718,-5.0,America/New_York,airport
Renton Municipal Airport,Renton,United States,RNT,KRNT,47.49309921,-122.2160034,32,-8.0,America/Los_Angeles,airport
Brackett Field,La Verne,United States,POC,KPOC,34.09159851,-117.78199769999999,1011,-8.0,America/Los_Angeles,airport
Jekyll Island Airport,Jekyll Island,United States,09J,,31.074472200000002,-81.42777779999999,11,-5.0,America/New_York,airport
Cross City Airport,Cross City,United States,CTY,KCTY,29.63549995,-83.10479736,42,-5.0,America/New_York,airport
Oconee County Regional Airport,Clemson,United States,CEU,KCEU,34.67190170000001,-82.8864975,892,-5.0,America/New_York,airport
Heber City Municipal Airport,Heber,United States,36U,,40.4818056,-111.42880559999999,5637,-7.0,America/Denver,airport
Beech Factory Airport,Wichita,United States,BEC,KBEC,37.69449997,-97.21499634,1408,-6.0,America/Chicago,airport
Cherokee County Airport,Canton,United States,47A,,34.312217499999996,-84.4221556,1219,-5.0,America/New_York,airport
Fernandina Beach Municipal Airport,Fernandina Beach,United States,55J,,30.611833299999997,-81.4611944,16,-5.0,America/New_York,airport
Tom B. David Field,Calhoun,United States,,KCZL,34.45539856,-84.93920135,647,-5.0,America/New_York,airport
Habersham County Airport,Cornelia,United States,,KAJR,34.49990082,-83.55670166,1448,-5.0,America/New_York,airport
Georgetown Municipal Airport,Georgetown,United States,GTU,KGTU,30.67880058,-97.67939758,790,-6.0,America/Chicago,airport
Old Rhinebeck Airport,Rhinebeck,United States,,NY94,41.9715004,-73.86289978,323,-5.0,America/New_York,airport
Sidney Municipal-Lloyd W Carr Field,Sidney,United States,SNY,KSNY,41.10129929,-102.98500059999999,4313,-7.0,America/Denver,airport
Luray Caverns Airport,Luray,United States,,KLUA,38.666944,-78.500556,903,-5.0,America/New_York,airport
Eagle's Nest Airport,Waynesboro,United States,W13,,38.076944,-78.94416700000001,1437,-5.0,America/New_York,airport
Kalaeloa Airport,Kapolei,United States,,PHJR,21.3074,-158.070009,30,-10.0,Pacific/Honolulu,airport
Iosco County Airport,East Tawas,United States,ECA,K6D9,44.312801,-83.422302,606,-5.0,America/New_York,airport
Madison County Executive Airport-Tom Sharp Jr Field,Huntsville,United States,,KMDQ,34.861400599999996,-86.55750275,756,-6.0,America/Chicago,airport
Leesburg Executive Airport,Leesburg,United States,JYO,KJYO,39.07799911,-77.55750275,389,-5.0,America/New_York,airport
Anoka County-Blaine Arpt(Janes Field) Airport,Anoka,United States,,KANE,45.14500046,-93.21140289,912,-6.0,America/Chicago,airport
Williamson Sodus Airport,Williamson,United States,SDC,KSDC,43.23469925,-77.1210022,424,-5.0,America/New_York,airport
Boulder Municipal Airport,Boulder,United States,WBU,KBDU,40.03939819,-105.22599790000001,5288,-7.0,America/Denver,airport
Palo Alto Airport of Santa Clara County,Palo Alto,United States,PAO,KPAO,37.46110153,-122.1149979,4,-8.0,America/Los_Angeles,airport
Falcon Field,Mesa,United States,FFZ,KFFZ,33.46080017,-111.72799679999999,1394,-7.0,America/Phoenix,airport
Coolidge Municipal Airport,Cooldige,United States,P08,KP08,32.93590164,-111.427002,1574,-7.0,America/Phoenix,airport
Cottonwood Airport,Cottonwood,United States,P52,KP52,34.72999954,-112.0350037,3550,-7.0,America/Phoenix,airport
Ak-Chin Regional Airport,Phoenix,United States,A39,KA39,32.9908056,-111.91852779999999,1300,-7.0,America/Phoenix,airport
Wickenburg Municipal Airport,Wickenburg,United States,E25,KE25,33.96889877,-112.79900359999999,2377,-7.0,America/Phoenix,airport
Oakland County International Airport,Pontiac,United States,PTK,KPTK,42.66550064,-83.42009735,980,-5.0,America/New_York,airport
Dillant Hopkins Airport,Keene,United States,EEN,KEEN,42.89839935,-72.27079773,488,-5.0,America/New_York,airport
Glasgow Industrial Airport,Glasgow,United States,,07MT,48.42110062,-106.52799990000001,2762,-7.0,America/Denver,airport
Monroe Reqional Airport,Charlotte,United States,EQY,,35.01833,-80.62001,679,-5.0,America/New_York,airport
Iowa City Municipal Airport,Iowa City,United States,IOW,KIOW,41.6391983,-91.54650116,668,-6.0,America/Chicago,airport
Windom Municipal Airport,Windom,United States,MWM,KMWM,43.91339874,-95.10939789,1410,-6.0,America/Chicago,airport
Longview Ranch Airport,Longview,United States,,OG39,44.6617012,-119.65200039999999,2080,-8.0,America/Los_Angeles,airport
Lee Airport,Annapolis,United States,ANP,KANP,38.942902000000004,-76.568398,34,-5.0,America/New_York,airport
Pecos Municipal Airport,Pecos,United States,PEQ,KPEQ,31.38240051,-103.5110016,2613,-6.0,America/Chicago,airport
Hattiesburg Bobby L Chain Municipal Airport,Hattiesburg,United States,HBG,KHBG,31.26479912,-89.25279999,151,-6.0,America/Chicago,airport
Chan Gurney Municipal Airport,Yankton,United States,YKN,KYKN,42.91669846,-97.3859024,1306,-6.0,America/Chicago,airport
Selfield Airport,Selma Alabama,United States,SES,KSES,32.4404,-86.9522,131,-6.0,America/Chicago,airport
Hayward Executive Airport,Hayward,United States,HWD,KHWD,37.65919876,-122.12200159999998,52,-8.0,America/Los_Angeles,airport
Ann Arbor Municipal Airport,Ann Arbor,United States,ARB,KARB,42.22299957,-83.74559784,839,-5.0,America/New_York,airport
Atlanta South Regional Airport/Tara Field,Hampton,United States,4A7,K4A7,33.389099,-84.332397,874,-5.0,America/New_York,airport
Stapleton International Airport,Denver,United States,,DENX,39.779255,-104.88184,5333,-7.0,America/Denver,airport
Comarapa Airport,Salt Lake City,United States,,SLCR,-17.91360092,-64.51779938,6186,-4.0,America/La_Paz,airport
Immokalee Regional Airport,Immokalee ,United States,IMM,KIMM,26.43320084,-81.40100098,37,-5.0,America/New_York,airport
Rancho San Simeon Airport,Cambria,United States,,66CA,35.60770035,-121.1100006,320,-8.0,America/Los_Angeles,airport
Dinwiddie County Airport,Petersburg,United States,PTB,KPTB,37.18379974,-77.50740051,193,-5.0,America/New_York,airport
Sheboygan County Memorial Airport,Sheboygan,United States,SBM,KSBM,43.76959991,-87.85140228,755,-6.0,America/Chicago,airport
Ephraim-Gibraltar Airport,Ephraim,United States,3D2,,45.1354167,-87.1879444,773,-6.0,America/Chicago,airport
Pinal Airpark,Marana,United States,MZJ,KMZJ,32.51060104,-111.32800290000002,1893,-7.0,America/Phoenix,airport
Glendale Municipal Airport,Glendale,United States,GEU,KGEU,33.52690125,-112.29499820000001,1071,-7.0,America/Phoenix,airport
Safford Regional Airport,Safford,United States,SAD,KSAD,32.85480118,-109.6350021,3179,-7.0,America/Phoenix,airport
Fort Lauderdale-Hollywood International Airport Station at Dania Beach,Dania Beach,United States,,,26.061933,-80.16565,9,-5.0,America/New_York,airport
Sikeston Memorial Municipal Airport,Sikeston,United States,SIK,KSIK,36.89889908,-89.56179809999999,315,-6.0,America/Chicago,airport
Oceano County Airport,Oceano,United States,L52,KL52,35.10147222,-120.6223611,14,-8.0,America/Los_Angeles,airport
Floyd Bennett Memorial Airport,Queensbury,United States,GFL,KGFL,43.34120178,-73.61029816,328,-5.0,America/New_York,airport
Saratoga County Airport,Ballston Spa,United States,5B2,K5B2,43.05130005,-73.86119843,434,-5.0,America/New_York,airport
Burrello-Mechanicville Airport,Mechanicville,United States,K27,,42.893133,-73.66845,195,-5.0,America/New_York,airport
Crystal River Airport,Crystal River,United States,CGC,KCGC,28.86730003,-82.57129669,9,-5.0,America/New_York,airport
Martin State Airport,Baltimore,United States,MTN,KMTN,39.32569885,-76.4138031,21,-5.0,America/New_York,airport
Lincoln Regional Karl Harder Field,Lincoln,United States,LHM,KLHM,38.90919876,-121.35099790000001,121,-8.0,America/Los_Angeles,airport
Fostoria Metropolitan Airport,Fostoria,United States,FZI,KFZI,41.19079971,-83.39450073,752,-5.0,America/New_York,airport
Eastern Slopes Regional Airport,Fryeburg,United States,IZG,KIZG,43.99110031,-70.94789886,454,-5.0,America/New_York,airport
Coral Creek Airport,Placida,United States,,FA54,26.85449982,-82.25119781,4,-5.0,America/New_York,airport
Lakefront Airport,New Orleans,United States,NEW,KNEW,30.04240036,-90.02829742,8,-6.0,America/Chicago,airport
Coeur D'Alene - Pappy Boyington Field,Coeur d'Alene,United States,COE,KCOE,47.77429962,-116.8199997,2320,-8.0,America/Los_Angeles,airport
Beaumont Municipal Airport,Beaumont,United States,BMT,KBMT,30.07069969,-94.21579742,32,-6.0,America/Chicago,airport
Vermilion Regional Airport,Danville,United States,DNV,KDNV,40.19919968,-87.59590149,697,-6.0,America/Chicago,airport
Merritt Island Airport,Cocoa,United States,COI,,28.341611100000005,-80.6854722,6,-5.0,America/New_York,airport
Space Coast Regional Airport,Titusville,United States,TIX,KTIX,28.51479912,-80.79920197,34,-5.0,America/New_York,airport
Effingham Memorial Airport,Effingham,United States,1H2,KEFH,39.07,-88.53399999999999,585,-6.0,America/Chicago,airport
Andrau Airpark,Houston,United States,AAP,KAAP,29.72249985,-95.58830261,79,-6.0,America/Chicago,airport
Flying Cloud Airport,Eden Prairie,United States,FCM,KFCM,44.82720184,-93.45709991,906,-6.0,America/Chicago,airport
Johnson County Executive Airport,Olathe,United States,OJC,KOJC,38.84759903,-94.73760223,1096,-6.0,America/Chicago,airport
Brandywine Airport,West Goshen Township,United States,OQN,KOQN,39.99010086,-75.58190155,466,-5.0,America/New_York,airport
Manassas Regional Airport/Harry P. Davis Field,Manassas,United States,MNZ,KHEF,38.72140121,-77.51540375,192,-5.0,America/New_York,airport
Texas Gulf Coast Regional Airport,Angleton,United States,,KLBX,29.10860062,-95.46209717,25,-6.0,America/Chicago,airport
Hite Airport,Hanksville,United States,UT3,,37.891654700000004,-110.3840289,3840,-7.0,America/Denver,airport
Shelby County Airport,Shelbyville,United States,2H0,K2H0,39.41040039,-88.84539795,618,-6.0,America/Chicago,airport
Grand Canyon West Airport,Peach Springs,United States,1G4,,35.899904,-113.815674,4813,-7.0,America/Phoenix,airport
Enumclaw Airport,Enumclaw,United States,,WA77,47.1957016,-122.02200320000001,738,-8.0,America/Los_Angeles,airport
Rock Airport,Tarentum,United States,9G1,,40.6035463,-79.8261189,1063,-5.0,America/New_York,airport
Plum Island Airport,Newburyport,United States,2B2,,42.7953611,-70.8394444,11,-5.0,America/New_York,airport
Kulik Lake Airport,Kulik Lake,United States,LKK,,58.96591,-155.10808899999998,1000,-9.0,America/Anchorage,airport
Port Alsworth Airport,Port alsworth,United States,PTA,PALJ,60.20828100000001,-154.306586,253,-9.0,America/Anchorage,airport
Fairfield County Airport,Winnsboro,United States,FDW,KFDW,34.31549835,-81.10880279999999,577,-5.0,America/New_York,airport
Skyhaven Airport,Rochester,United States,DAW,KDAW,43.28409958,-70.92929840000001,322,-5.0,America/New_York,airport
Port Oceanic Airport,Port Oceanic,United States,PRL,,60.2083333,-147.8194444,142,-9.0,America/Anchorage,airport
Newton City-County Airport,Newton,United States,EWK,KEWK,38.05820084,-97.27449799,1533,-6.0,America/Chicago,airport
TaszÃ¡r Air Base,Columbus,United States,TZR,LHTA,46.39310074,17.91749954,531,1.0,Europe/Budapest,airport
Fort Bridger Airport,Fort Bridger,United States,FBR,KFBR,41.39189911,-110.40699769999999,7034,-7.0,America/Denver,airport
Prosser Airport,Prosser,United States,S40,KS40,46.21340179,-119.7910004,697,-8.0,America/Los_Angeles,airport
Chehalis Centralia Airport,Chehalis,United States,CLS,KCLS,46.67699814,-122.9830017,176,-8.0,America/Los_Angeles,airport
Desert Aire Airport,Mattawa,United States,M94,KM94,46.68740082,-119.9209976,586,-8.0,America/Los_Angeles,airport
Evanston-Uinta County Airport-Burns Field,Evanston,United States,EVW,KEVW,41.27479935,-111.0350037,7143,-7.0,America/Denver,airport
Sabetha Municipal Airport,Sabetha,United States,K83,KK83,39.90420151,-95.77940369,1330,-6.0,America/Chicago,airport
Mt Pleasant Regional-Faison field,Mount Pleasant,United States,LRO,KLRO,32.89780045,-79.78289795,12,-5.0,America/New_York,airport
Souther Field,Americus,United States,,KACJ,32.110801699999996,-84.18890381,468,-5.0,America/New_York,airport
Weedon Field,Eufala,United States,EUF,KEUF,31.95129967,-85.12889862,285,-6.0,America/Chicago,airport
Saluda County Airport,Saluda,United States,6J4,K6J4,33.92679977,-81.79460144,555,-5.0,America/New_York,airport
Dare County Regional Airport,Manteo,United States,MEO,KMQI,35.91899872,-75.69550323,13,-5.0,America/New_York,airport
Auburn Opelika Robert G. Pitts Airport,Auburn,United States,AUO,KAUO,32.61510086,-85.43399811,777,-6.0,America/Chicago,airport
Tri Cities Airport,Endicott,United States,CZG,KCZG,42.078499,-76.096296,833,-5.0,America/New_York,airport
Bessemer Airport,Bessemer,United States,EKY,KEKY,33.31290054,-86.92590332,700,-6.0,America/Chicago,airport
Colorado Springs East Airport,Ellicott,United States,A50,KA50,38.87440109,-104.4100037,6145,-7.0,America/Denver,airport
Crystal Airport,Crystal,United States,MIC,KMIC,45.06200027,-93.35389709,869,-6.0,America/Chicago,airport
Clarke County Airport,Quitman,United States,23M,K23M,32.0848999,-88.73889923,320,-6.0,America/Chicago,airport
W H 'Bud' Barron Airport,Dublin,United States,DBN,KDBN,32.56439972,-82.98529816,309,-5.0,America/New_York,airport
Corvallis Municipal Airport,Corvallis,United States,CVO,KCVO,44.49720001,-123.29000090000001,250,-8.0,America/Los_Angeles,airport
El Almendro Airport,Scranton,United States,,SCRT,-35.96055603,-71.79333496,486,-4.0,America/Santiago,airport
San Agustin Airport,Morristown,United States,,MRST,10.0666666,-84.8833313,66,-6.0,America/Costa_Rica,airport
Cowra Airport,Chatsworth,United States,CWT,YCWR,-33.84469986,148.6490021,966,10.0,Australia/Sydney,airport
Deer Harbor Seaplane,Deer Harbor,United States,DHB,,48.618396999999995,-123.00596000000002,0,-8.0,America/Los_Angeles,airport
Ogden Hinckley Airport,Ogden,United States,OGD,KOGD,41.19589996,-112.012001,4473,-7.0,America/Denver,airport
Robert S Kerr Airport,Poteau,United States,RKR,KRKR,35.02159882,-94.62129974,451,-6.0,America/Chicago,airport
Colorado Plains Regional Airport,Akron,United States,AKO,KAKO,40.17559814,-103.22200009999999,4714,-7.0,America/Denver,airport
Sanderson Field,Shelton,United States,SHN,KSHN,47.23360062,-123.14800259999998,273,-8.0,America/Los_Angeles,airport
Dare County Regional Airport,Manteo,United States,,,35.922944,-75.697289,0,-5.0,America/New_York,airport
Napakiak Airport,Napakiak,United States,WNA,PANA,60.69029999,-161.9790039,17,-9.0,America/Anchorage,airport
Delta Junction Airport,Delta Junction,United States,DJN,,64.050556,-145.717222,1150,-9.0,America/Anchorage,airport
Stevens Village Airport,Stevens Village,United States,SVS,,66.016944,-149.054444,329,-9.0,America/Anchorage,airport
Akiachak Airport,Akiachak,United States,KKI,,60.906110999999996,-161.426944,25,-9.0,America/Anchorage,airport
Atmautluak Airport,Atmautluak,United States,4A2,,60.86666700000001,-162.273056,17,-9.0,America/Anchorage,airport
Napaskiak Airport,Napaskiak,United States,PKA,PAPK,60.70289993,-161.7779999,24,-9.0,America/Anchorage,airport
Chignik Fisheries Airport,Chignik,United States,KCG,,56.317778000000004,-158.590833,25,-9.0,America/Anchorage,airport
Tok Airport,Tok,United States,,PATJ,63.303332999999995,-143.001111,1670,-9.0,America/Anchorage,airport
Causey Airport,Liberty,United States,2A5,K2A5,35.91180038,-79.61759949,723,-5.0,America/New_York,airport
Doylestown Airport,Doylestown,United States,DYL,KDYL,40.33300018,-75.12229919,394,-5.0,America/New_York,airport
Warren Field,Washington,United States,OCW,KOCW,35.57049942,-77.04979706,38,-5.0,America/New_York,airport
Hyde County Airport,Engelhard,United States,7W6,K7W6,35.56240082,-75.9552002,8,-5.0,America/New_York,airport
Stillwater Regional Airport,Stillwater,United States,,KSWO,36.16120148,-97.08570099,1000,-6.0,America/Chicago,airport
Okmulgee Regional Airport,Okmulgee,United States,,KOKM,35.66809845,-95.94869995,720,-6.0,America/Chicago,airport
Cushing Municipal Airport,Cushing,United States,,KCUH,35.94990158,-96.77310181,916,-6.0,America/Chicago,airport
Clinton Sherman Airport,Clinton,United States,,KCSM,35.33980179,-99.20050049,1922,-6.0,America/Chicago,airport
Strother Field,Winfield,United States,,KWLD,37.16859818,-97.03759766,1160,-6.0,America/Chicago,airport
Wiley Post Airport,Oklahoma City,United States,,KPWA,35.53419876,-97.64710236,1300,-6.0,America/Chicago,airport
Shreveport Downtown Airport,Shreveport,United States,,KDTN,32.54019928,-93.74500275,179,-6.0,America/Chicago,airport
Stephenville Clark Regional Airport,Stephenville,United States,,KSEP,32.21530151,-98.17769623,1321,-6.0,America/Chicago,airport
Perry Municipal Airport,Perry,United States,,KF22,36.38560104,-97.27719879,1002,-6.0,America/Chicago,airport
Hamilton Municipal Airport,Hamilton,United States,,KMNZ,31.66589928,-98.14859772,1299,-6.0,America/Chicago,airport
Ada Municipal Airport,Ada,United States,,KADH,34.8042984,-96.67130279999999,1016,-6.0,America/Chicago,airport
Mesquite Metro Airport,Misquite,United States,,KHQZ,32.74700165,-96.53040314,447,-6.0,America/Chicago,airport
Denton Municipal Airport,Denton,United States,,KDTO,33.20069885,-97.19799805,642,-6.0,America/Chicago,airport
Austin Executive Airport,Austin,United States,,KEDC,30.397493100000005,-97.5663935,620,-6.0,America/Chicago,airport
Lago Vista Tx Rusty Allen Airport,Lago Vista,United States,,KRYW,30.49860001,-97.96949768,1231,-6.0,America/Chicago,airport
Brenham Municipal Airport,Brenham,United States,,K11R,30.21899986,-96.37429809999999,307,-6.0,America/Chicago,airport
Lakeway Airpark,Lakeway,United States,,K3R9,30.35750008,-97.99449921,909,-6.0,America/Chicago,airport
Iraan Municipal Airport,Iraan,United States,,K2F0,30.90570068,-101.8919983,2200,-6.0,America/Chicago,airport
Kestrel Airpark,San Antonio,United States,,K1T7,29.81270027,-98.4253006,1250,-6.0,America/Chicago,airport
Wilkes County Airport,North Wilkesboro,United States,UKF,KUKF,36.22280121,-81.09829712,1301,-5.0,America/New_York,airport
Charleston Executive Airport,Charleston,United States,JZI,KJZI,32.70090103,-80.00289917,17,-5.0,America/New_York,airport
Danville Regional Airport,Danville,United States,DAN,KDAN,36.57289886,-79.33609772,571,-5.0,America/New_York,airport
Brookneal/Campbell County Airport,Brookneal,United States,0V4,K0V4,37.14170074,-79.0164032,596,-5.0,America/New_York,airport
Cheraw Municipal Airport/Lynch Bellinger Field,Cheraw,United States,CQW,KCQW,34.71289825,-79.95700073,239,-5.0,America/New_York,airport
Arcadia Municipal Airport,Arcadia,United States,X06,,27.1174,-81.5023,63,-5.0,America/New_York,airport
Wauchula Municipal Airport,Wuchula,United States,,KCHN,27.51490021,-81.88050079,106,-5.0,America/New_York,airport
River Ranch Resort Airport,River Ranch,United States,2RR,,27.4676,-81.1224,55,-5.0,America/New_York,airport
Belle Glade State Municipal Airport,Belle Galdes,United States,X10,,26.419,-80.3965,14,-5.0,America/New_York,airport
Homestead General Aviation Airport,Homestead,United States,X51,,25.2995,-80.3325,7,-5.0,America/New_York,airport
Massey Ranch Airpark Airport,Edgewater,United States,X50,,28.5874,-80.5549,10,-5.0,America/New_York,airport
North Palm Beach County General Aviation Airport,Palm Beach Gardens,United States,F45,,26.5076,-80.1334,22,-5.0,America/New_York,airport
Airglades Airport,Clewiston,United States,2IS,,26.4411,-81.0306,20,-5.0,America/New_York,airport
Conway Horry County Airport,Conway,United States,HYW,KHYW,33.82849884,-79.12220001,35,-5.0,America/New_York,airport
Asheboro Regional Airport,Asheboro,United States,HBI,KHBI,35.65449905,-79.8946991,671,-5.0,,airport
Henderson Field,Wallace,United States,,KACZ,34.71789932,-78.00360107,39,-5.0,,airport
Emporia Greensville Regional Airport,Emporia,United States,EMV,KEMV,36.68690109,-77.48280334,127,-5.0,,airport
El Monte Airport,El Monte,United States,EMT,KEMT,34.08610153,-118.0350037,296,-8.0,,airport
Kee Field,Pineville,United States,I16,KI16,37.60039902,-81.55930328,1783,-5.0,,airport
French Valley Airport,Murrieta,United States,F70,,33.5741791,-117.1284732,1349,-8.0,,airport
Stinson Municipal Airport,Stinson,United States,SSF,KSSF,29.33699989,-98.47109985,577,-5.0,,airport
Sallisaw Municipal Airport,Sallisaw,United States,JSV,KJSV,35.438201899999996,-94.80280304,527,-5.0,,airport
Jasper County Airport-Bell Field,Jasper,United States,JAS,KJAS,30.88570023,-94.03489685,213,-5.0,,airport
El Dorado Springs Memorial Airport,El dorado springs,United States,87K,K87K,37.85670089999999,-93.99909973,931,-5.0,,airport
Marfa Municipal Airport,Marfa,United States,MRF,KMRF,30.371098999999997,-104.017997,4849,-5.0,,airport
Alpine Casparis Municipal Airport,Alpine,United States,E38,KE38,30.38419914,-103.6839981,4515,-5.0,,airport
Cable Airport,Upland,United States,CCB,KCCB,34.11159897,-117.6880035,1444,-8.0,,airport
Mount Sterling Montgomery County Airport,Mount Sterling,United States,IOB,KIOB,38.05810165,-83.979599,1019,-5.0,,airport
Elkhart Municipal Airport,Elkhart,United States,EKI,KEKM,41.7193985,-86.00319672,778,-5.0,,airport
Nappanee Municipal Airport,Nappanee ,United States,C03,KC03,41.44620132,-85.93479919,860,-5.0,,airport
Jim Hamilton L.B. Owens Airport,Columbia,United States,CUB,KCUB,33.97050095,-80.99520111,193,-4.0,,airport
Grove Municipal Airport,Grove,United States,GMJ,KGMJ,36.60680008,-94.73860168,831,-5.0,,airport
Mc Pherson Airport,Mc Pherson,United States,MPR,KMPR,38.35240173,-97.69129944,1498,-5.0,,airport
Donaldson Center Airport,Greenville,United States,GYH,KGYH,34.75830078,-82.37640381,955,-4.0,,airport
Perry Houston County Airport,Perry,United States,PXE,KPXE,32.51060104,-83.76730347,418,-4.0,,airport
Hartsville Regional Airport,Hartsville,United States,HVS,KHVS,34.40309906,-80.11920166,364,-5.0,,airport
Horace Williams Airport,Chapel Hill,United States,IGX,KIGX,35.935001,-79.06590200000001,512,-5.0,,airport
Brunswick County Airport,Oak Island,United States,SUT,KSUT,33.9292984,-78.07499695,24,-5.0,,airport
Chesterfield County Airport,Richmond,United States,FCI,KFCI,37.40650177,-77.52500153,236,-4.0,,airport
Henderson Oxford Airport,Oxford,United States,HNZ,KHNZ,36.36159897,-78.52919769,526,-5.0,,airport
Leesburg International Airport,Leesburg,United States,LEE,KLEE,28.82309914,-81.80870056,76,-5.0,,airport
Chino Airport,Chino,United States,CNO,KCNO,33.97470093,-117.637001,650,-8.0,,airport
Madison County Airport,London,United States,UYF,KUYF,39.93270111,-83.46199799,1082,-5.0,,airport
Bois Blanc Island Airport,Bois Blanc Island,United States,6Y1,,45.7662977,-84.50381390000001,664,-5.0,,airport
Paso Robles Municipal Airport,Paso Robles,United States,PRB,KPRB,35.67290115,-120.6269989,840,-8.0,,airport
Half Moon Bay Airport,Half Moon Bay,United States,HAF,KHAF,37.51340103,-122.5009995,66,-8.0,,airport
General WM J Fox Airfield,Lancaster,United States,WJF,KWJF,34.74110031,-118.21900179999999,2351,-8.0,,airport
Kern Valley Airport,Kernville,United States,L05,,35.7282222,-118.41972220000001,2614,-8.0,,airport
Chitina Airport,Chitina,United States,CXC,,61.51583299999999,-144.436667,1,-9.0,,airport
Person County Airport,Roxboro,United States,TDF,KTDF,36.28490067,-78.98419952,609,-5.0,,airport
Ashland-Lineville Airport,Lineville,United States,26A,,33.2841972,-85.8089653,1065,-5.0,,airport
Talladega Municipal Airport,Talladega,United States,ASN,KASN,33.56990051,-86.05090332,529,-5.0,,airport
Greenville Downtown Airport,Greenville,United States,GMU,KGMU,34.84790039,-82.34999847,1048,-4.0,,airport
Guntersville Municipal Airport - Joe Starnes Field,Guntersville,United States,8A1,,34.4017219,-86.2657787,615,-6.0,,airport
Mankato Regional Airport,Mankato,United States,MKT,KMKT,44.22159958,-93.91870117,1021,-6.0,,airport
Troy Municipal Airport,Troy,United States,TOI,KTOI,31.86039925,-86.01210022,398,-5.0,,airport
Merkel Field Sylacauga Municipal Airport,Sylacauga,United States,SCD,KSCD,33.17179871,-86.30549622,569,-5.0,,airport
Enterprise Municipal Airport,Enterprise,United States,EDN,KEDN,31.29969978,-85.89990234,361,-5.0,,airport
Carl Folsom Airport,Elba,United States,14J,,31.41,-86.090278,258,-5.0,,airport
Reeves Airport,Tallassee,United States,41A,,32.515,-85.876111,326,-5.0,,airport
South Alabama Regional Airport,Andalusia,United States,79J,,31.308333,-86.392222,310,-5.0,,airport
Ryan Field,Tucson,United States,,KRYN,32.14220047,-111.1750031,2417,-7.0,,airport
Thomas C Russell Field,Alexander City,United States,ALX,KALX,32.91469955,-85.96299744,686,-5.0,,airport
Meriden Markham Municipal Airport,Meriden,United States,,KMMK,41.50870132,-72.82949829,103,-5.0,,airport
Ridgely Airpark,Ridgely,United States,,KRJD,38.97010039999999,-75.86630249,64,-5.0,,airport
New Castle Henry Co. Municipal Airport,New Castle,United States,UWL,KUWL,39.87590027,-85.32649994,1088,-4.0,,airport
Scott City Municipal Airport,Scott City,United States,TQK,KTQK,38.47430038,-100.8850021,2963,-5.0,,airport
Brewster Field,Holdredge,United States,HDE,KHDE,40.452099,-99.336502,2313,-5.0,,airport
Pratt Regional Airport,Pratt,United States,PTT,KPTT,37.70159912,-98.74690247,1953,-5.0,,airport
Wahoo Municipal Airport,Wahoo,United States,AHQ,KAHQ,41.24129868,-96.59400177,1224,-5.0,,airport
Jim Kelly Field,Lexington,United States,LXN,KLXN,40.79100037,-99.77729797,2413,-5.0,,airport
Sublette Municipal Airport,Sublette,United States,19S,K19S,37.49140167,-100.83000179999999,2908,-5.0,,airport
Council Bluffs Municipal Airport,Council Bluffs,United States,CBF,KCBF,41.25920105,-95.76059723,1253,-5.0,,airport
Kokomo Municipal Airport,Kokomo,United States,OKK,KOKK,40.52819824,-86.05899811,830,-4.0,,airport
Neodesha Municipal Airport,Neodesha,United States,2K7,K2K7,37.4353981,-95.64610291,841,-5.0,,airport
King Ranch Airport,Sutton,United States,,AK59,61.79560089,-148.3549957,1350,-8.0,,airport
Elkhart Morton County Airport,Elkhart,United States,EHA,KEHA,37.000702000000004,-101.879997,3622,-5.0,,airport
Front Range Airport,Denver,United States,FTG,KFTG,39.78530121,-104.5429993,5512,-6.0,,airport
Galesburg Municipal Airport,Galesburg,United States,GBG,KGBG,40.93799973,-90.43109894,764,-5.0,,airport
Guymon Municipal Airport,Guymon,United States,GUY,KGUY,36.68510056,-101.5080032,3123,-5.0,,airport
Meade Municipal Airport,Meade,United States,MEJ,KMEJ,37.27690125,-100.3560028,2529,-5.0,,airport
Turkey Mountain Estates Airport,Shell Knob,United States,,MO00,36.59170151,-93.66690063,1000,-5.0,,airport
Ulysses Airport,Ulysses,United States,ULS,KULS,37.60400009,-101.3740005,3071,-5.0,,airport
Flagler Aerial Spraying Inc Airport,Flagler,United States,,CO00,39.27999878,-103.06700129999999,4945,-6.0,,airport
Independence Municipal Airport,Independence,United States,IDP,KIDP,37.15840149,-95.77839661,825,-5.0,,airport
Augusta Municipal Airport,Augusta,United States,3AU,K3AU,37.67160034,-97.07790375,1328,-5.0,,airport
Larned Pawnee County Airport,Larned,United States,LQR,KLQR,38.20859909,-99.08599854,2012,-5.0,,airport
Lampasas Airport,Lampasas,United States,LZZ,KLZZ,31.10619926,-98.19589996,1215,-5.0,,airport
Bay City Municipal Airport,Bay City,United States,BYY,KBYY,28.97330093,-95.8635025,45,-5.0,,airport
Cox Field,Paris,United States,PRX,KPRX,33.63660049,-95.45079803,547,-5.0,,airport
Coffeyville Municipal Airport,Coffeyville,United States,CFV,KCFV,37.09400177,-95.57189941,754,-5.0,,airport
The Farm Airport,Summit,United States,,24SC,33.93579865,-81.42970276,580,-4.0,,airport
GreeleyâWeld County Airport,Greeley,United States,GXY,KGXY,40.43740082,-104.6330032,4697,-7.0,,airport
General Dewitt Spain Airport,Memphis,United States,,KM01,35.20069885,-90.05400085,225,-4.0,,airport
Oryol Yuzhny Airport,Oakley,United States,OEL,UUOR,52.93470001,36.00220108,656,-5.0,,airport
Fremont Municipal Airport,Fremont,United States,FET,KFET,41.44910049,-96.52020264,1204,-5.0,,airport
La Grande/Union County Airport,La Grande,United States,LGD,KLGD,45.29019928,-118.00700379999999,2717,-7.0,,airport
Pocono Mountains Municipal Airport,Mount Pocono,United States,MPO,KMPO,41.13750076,-75.37889862,1915,-5.0,,airport
Quakertown Airport,Quakertown,United States,UKT,KUKT,40.43519974,-75.38189697,526,-5.0,,airport
Northwest Arkansas Samuel Walton International Airport,Bentonville,United States,NRW,KNRW,36.38651696,-94.15344121,1270,-4.0,,airport
NAS Agana Airport,Agana,United States,NGM,,13.483056,144.79336730000003,0,10.0,,airport
Banning Municipal Airport,Banning,United States,BNG,KBNG,33.92309952,-116.85099790000001,2219,-8.0,,airport
Karl Stefan Memorial Airport,Norfolk  Nebraska,United States,OFK,KOFK,41.98550034,-97.43509674,1573,-6.0,,airport
Windigo Harbor Seaplane Dock,Isle Royale National Park,United States,,,47.910917,-89.158778,591,-4.0,,airport
Arlington Municipal Airport,Arlington,United States,AWO,KAWO,48.16070175,-122.1589966,142,-8.0,,airport
Peter O Knight Airport,Tampa,United States,TPF,KTPF,27.91559982,-82.44930267,8,-5.0,,airport
Perkiomen Valley Airport,Collegeville,United States,N10,,40.2040483,-75.43026309999999,277,-5.0,,airport
Montauk Airport,Montauk,United States,MTP,KMTP,41.07649994,-71.92079926,6,-4.0,,airport
Porter County Municipal Airport,Valparaiso IN,United States,VPZ,KVPZ,41.45399857,-87.00710297,770,-5.0,,airport
Mason County Airport,Ludington,United States,LDM,KLDM,43.96250153,-86.40789795,646,-5.0,,airport
Reid-Hillview Airport of Santa Clara County,San Jose,United States,RHV,KRHV,37.332901,-121.8190002,135,8.0,,airport
SEA Seaplane,Seattle,United States,,,47.6321326,-122.32759240000001,0,-7.0,,airport
Methow Valley State Airport,Winthrop,United States,S52,,48.4249483,-120.14588559999999,1706,-7.0,,airport
Lake Chelan Airport,Chelan,United States,S10,,47.86601029999999,-119.9427017,1263,-7.0,,airport
Lost River Resort Airport,Mazma,United States,W12,,48.6495842,-120.50204440000002,2415,-7.0,,airport
Stehekin State Airport,Stehekin,United States,6S9,,48.3457778,-120.72080559999999,1230,-7.0,,airport
Camarillo Airport,Camarillo - CA,United States,,KCMA,34.21369934,-119.09400179999999,77,-8.0,,airport
Kalispell City Airport,Kalispell,United States,S27,,48.17856939999999,-114.3037408,2932,-6.0,,airport
University Airport,Davis,United States,,,38.531137,-121.787423,62,-8.0,,airport
Garibaldi Brothers Airport,Cordelia,United States,,,38.173663,-122.124524,12,-8.0,,airport
Watsonville Municipal Airport,Watsonville,United States,WVI,KWVI,36.93569946,-121.79000090000001,163,-8.0,,airport
 Hollister Municipal Airport,Hollister,United States,CVH,KCVH,36.8933453,-121.4102706,230,-8.0,,airport
Williamsburg Jamestown Airport,Williamsburg,United States,JGG,KJGG,37.23920059,-76.7161026,49,-5.0,,airport
Rushmore Heliport,Keystone,United States,,,43.883,-103.417,4343,7.0,,airport
Union County Airport,Marysville,United States,MRT,KMRT,40.22470093,-83.35160065,1021,-5.0,,airport
St Louis Regional Airport,Alton/St Louis,United States,ALN,KALN,38.89030075,-90.04599762,544,,,airport
Chandler Field,Alexandria,United States,AXN,KAXN,45.86629868,-95.3946991,1425,,,airport
Columbus Municipal Airport,Columbus,United States,CLU,KBAK,39.26190186,-85.89630127,656,,,airport
Curtis Field,Brady,United States,BBD,KBBD,31.17930031,-99.32389832,1827,,,airport
Eastern Sierra Regional Airport,Bishop,United States,BIH,KBIH,37.37310028,-118.36399840000001,4124,,,airport
Baker City Municipal Airport,Baker City,United States,BKE,KBKE,44.83729935,-117.8089981,3373,,,airport
Miley Memorial Field,Big Piney,United States,BPI,KBPI,42.58509827,-110.1110001,6990,,,airport
Ozark Regional Airport,Mountain Home,United States,WMH,KBPK,36.3689003,-92.47049713,928,,,airport
W K Kellogg Airport,Battle Creek,United States,BTL,KBTL,42.30730057,-85.25150299,952,,,airport
Burley Municipal Airport,Burley,United States,BYI,KBYI,42.54259872,-113.77200320000001,4150,,,airport
Northeast Iowa Regional Airport,Charles City,United States,CCY,KCCY,43.07260132,-92.6108017,1125,,,airport
Chanute Martin Johnson Airport,Chanute,United States,CNU,KCNU,37.66880035,-95.48509979,1002,,,airport
Jacksonville Executive at Craig Airport,Jacksonville,United States,CRG,KCRG,30.3362999,-81.51439667,41,,,airport
Crossville Memorial Whitson Field,Crossville,United States,CSV,KCSV,35.95130157,-85.08499908,1881,,,airport
Davison Army Air Field,Fort Belvoir,United States,DAA,KDAA,38.71500015,-77.18099976,73,,,airport
Barstow Daggett Airport,Daggett,United States,DAG,KDAG,34.85369873,-116.78700259999998,1930,,,airport
Deming Municipal Airport,Deming,United States,DMN,KDMN,32.26229858,-107.7210007,4314,,,airport
Desert Rock Airport,Mercury,United States,DRA,KDRA,36.6194,-116.032997,3314,,,airport
Needles Airport,Needles,United States,EED,KEED,34.7663002,-114.6230011,983,,,airport
Duke Field,Crestview,United States,EGI,KEGI,30.65040016,-86.52290344,191,,,airport
Murray Field,Eureka,United States,EKA,KEKA,40.80339813,-124.112999,7,,,airport
San Marcos Municipal Airport,San Marcos,United States,HYI,KHYI,29.892700199999997,-97.86299896,597,,,airport
Sawyer County Airport,Hayward,United States,HYR,KHYR,46.02519989,-91.44429779,1216,,,airport
Kimble County Airport,Junction,United States,JCT,KJCT,30.51129913,-99.76349640000001,1749,,,airport
Monticello Municipal Ellis Field,Monticello,United States,LLQ,KLLQ,33.638599400000004,-91.75099945,270,,,airport
Derby Field,Lovelock,United States,LOL,KLOL,40.06639862,-118.5650024,3904,,,airport
Mobridge Municipal Airport,Mobridge,United States,MBG,KMBG,45.54650116,-100.40799709999999,1716,,,airport
Mc Comb/Pike County Airport/John E Lewis Field,Mc Comb,United States,MCB,KMCB,31.17849922,-90.47190094,413,,,airport
Southern Illinois Airport,Carbondale/Murphysboro,United States,MDH,KMDH,37.77809906,-89.2519989,411,,,airport
Mc Entire Joint National Guard Base,Eastover,United States,MMT,KMMT,33.92079926,-80.80130005,254,,,airport
Brunswick Executive Airport,Brunswick,United States,NHZ,KNHZ,43.89220047,-69.93859863,72,,,airport
Naval Station Mayport (Admiral David L. Mcdonald Field),Mayport,United States,NRB,KNRB,30.39109993,-81.42469788,15,,,airport
Orangeburg Municipal Airport,Orangeburg,United States,OGB,KOGB,33.45679855,-80.85949707,195,,,airport
Columbus Municipal Airport,Columbus,United States,OLU,KOLU,41.44800186,-97.34259796,1447,,,airport
Ottumwa Regional Airport,Ottumwa,United States,OTM,KOTM,41.10660172,-92.44789886,845,,,airport
Cairns AAF (Fort Rucker) Air Field,Fort Rucker/Ozark,United States,OZR,KOZR,31.27569962,-85.71340179,301,,,airport
Ralph Wenz Field,Pinedale,United States,PWY,KPNA,42.79550171,-109.8069992,7102,,,airport
Dutchess County Airport,Poughkeepsie,United States,POU,KPOU,41.62659836,-73.88420105,165,,,airport
New Richmond Regional Airport,New Richmond,United States,RNH,KRNH,45.14830017,-92.5381012,998,,,airport
Russell Municipal Airport,Russell,United States,RSL,KRSL,38.87210083,-98.81179809999999,1862,,,airport
Redwood Falls Municipal Airport,Redwood Falls,United States,RWF,KRWF,44.54719925,-95.08229828,1024,,,airport
Salinas Municipal Airport,Salinas,United States,SNS,KSNS,36.66279984,-121.6060028,85,,,airport
Sonora Municipal Airport,Sonora,United States,SOA,KSOA,30.58569908,-100.64900209999999,2140,,,airport
Saline County Regional Airport,Benton,United States,SUZ,KSUZ,34.59059906,-92.47940063,390,,,airport
Tonopah Airport,Tonopah,United States,TPH,KTPH,38.06019974,-117.086998,5430,,,airport
Aurora State Airport,Aurora,United States,UAO,KUAO,45.24710083,-122.7699966,200,,,airport
Ukiah Municipal Airport,Ukiah,United States,UKI,KUKI,39.12599945,-123.20099640000001,614,,,airport
University Oxford Airport,Oxford,United States,UOX,KUOX,34.38430023,-89.53679657,452,,,airport
Huntsville Regional Airport,Huntsville,United States,HTV,KUTS,30.74690056,-95.58719635,363,,,airport
Miller Field,Valentine,United States,VTN,KVTN,42.85779953,-100.5479965,2596,,,airport
Winnemucca Municipal Airport,Winnemucca,United States,WMC,KWMC,40.89659882,-117.8059998,4308,,,airport
West Woodward Airport,Woodward,United States,WWR,KWWR,36.438,-99.5226667,2189,,,airport
Cape Canaveral AFS Skid Strip,Cocoa Beach,United States,XMR,KXMR,28.46759987,-80.56659698,10,,,airport
Homey (Area 51) Airport,Groom Lake,United States,,KXTA,37.23500061,-115.810997,4462,,,airport
Zanesville Municipal Airport,Zanesville,United States,ZZV,KZZV,39.94440079,-81.89209747,900,,,airport
Nenana Municipal Airport,Nenana,United States,ENN,PANN,64.54730225,-149.0740051,362,,,airport
Wasilla Airport,Wasilla,United States,WWA,PAWS,61.57170105,-149.53999330000002,354,,,airport
Black Rock City Airport,Gerlach,United States,,,40.761610600000004,-119.21204209999999,3912,-8.0,,airport
